Record Sequence Number,EQID,Earthquake Name,YEAR,MODY,HRMN,Station Name,Station Sequence Number,Station ID  No.,Earthquake Magnitude,Strike (deg),Dip (deg),Rake Angle (deg),Mechanism Based on Rake Angle,P-plunge (deg),P-trend (deg),T-plunge (deg),T-trend (deg),Hypocenter Latitude (deg),Hypocenter Longitude (deg),Hypocenter Depth (km),Finite Rupture Model: 1=Yes;  0=No,Depth to Top Of Fault Rupture Model,Fault Rupture Length for Calculation of Ry (km),Fault Rupture Width (km),Fault Rupture Area (km^2),Average Vr/Vs,EpiD (km),HypD (km),Joyner-Boore Dist. (km),Campbell R Dist. (km),RmsD (km),ClstD (km),Rx,FW/HW Indicator,Source to Site Azimuth (deg),X,Y,Phi.D (deg),Unused Column.2,Depth,Preferred NEHRP Based on Vs30,Vs30 (m/s) selected for analysis,Measured/Inferred Class,Sigma of Vs30 (in natural log Units),Owner,Station Latitude,Station Longitude,STORIES,INSTLOC,Depth to Basement Rock,Site Visited,NGA Type,Northern CA/Southern CA - H11 Z1 (m),Northern CA/Southern CA - H11 Z1.5 (m),Northern CA/Southern CA - H11 Z2.5 (m),Northern CA/Southern CA - S4 Z1 (m),Northern CA/Southern CA - S4 Z1.5 (m),Northern CA/Southern CA - S4 Z2.5 (m),Rebe (m),File Name (Horizontal 1),File Name (Horizontal 2),File Name (Vertical),H1 azimth (degrees),H2 azimith (degrees),Type of Recording,Instrument Model,PEA Processing Flag,Type of Filter,npass,nroll,HP-H1 (Hz),HP-H2 (Hz),LP-H1 (Hz),LP-H2 (Hz),Factor,Lowest Usable Freq - H1 (Hz),Lowest Usable Freq - H2 (H2),Lowest Usable Freq - Ave. Component (Hz),PGA (g),PGV (cm/sec),PGD (cm),T0.010S,T0.020S,T0.030S,T0.050S,T0.075S,T0.100S,T0.150S,T0.200S,T0.250S,T0.300S,T0.400S,T0.500S,T0.750S,T1.000S,T1.500S,T2.000S,T3.000S,T4.000S,T5.000S,T6.000S,T7.500S,T10.000S,U,Damping (%),RotD percentile,Instrument Nat. Freq.,Instrument Damping,Instrument Type,Quality_Flag,Spectra Quality Flag,Late S-trigger,Late P-trigger
334,76,Coalinga-01,1983,502,2342,Parkfield - Fault Zone 1,374,36407,6.36,137.0,30.0,90,2,15.0,47.0,75.0,227.0,36.233,-120.31,4.6,1,3.4,16.0,11.0,176.0,-999.0,52.86,53.06,41.04,-999.0,50.27,41.99,37.85,nu,51.88,0.57,0.79,37.31,-999,S,E,178.27,0,0.05,CDMG,35.758,-120.307,0,GROUND LEVEL,-999.0,-999,-999,80.0,-999.0,4020.0,-999.0,-999.0,1360.0,-999.0,COALINGA.H\H-COW000.AT2,COALINGA.H\H-COW090.AT2,COALINGA.H\H-COW-UP.AT2,0,90,A,-999,PEA,A,1,2.5,0.12,0.09,20.0,21.0,1.25,0.15,0.1125,0.15,0.12229,19.046,7.0237,0.1228509,0.1224517,0.1229353,0.1244068,0.1286058,0.1344497,0.173017,0.2250532,0.2488408,0.3148168,0.2920396,0.3320805,0.3286981,0.3615142,0.2206586,0.1128276,0.07130664,0.04831629,0.02348943,0.01296492,0.005983951,0.003032866,45.694913,5,50,-999.0,-999.0,-999,-999,0,-999,?
335,76,Coalinga-01,1983,502,2342,Parkfield - Fault Zone 10,396,36444,6.36,137.0,30.0,90,2,15.0,47.0,75.0,227.0,36.233,-120.31,4.6,1,3.4,16.0,11.0,176.0,-999.0,41.42,41.67,30.34,-999.0,38.83,31.62,36.78,hw,70.06,0.57,0.79,37.53,-999,S,C,372.73,2a_3a_4b_4c,0.4,CDMG,35.872,-120.422,0,GROUND LEVEL,-999.0,-999,-999,60.0,-999.0,6220.0,-999.0,-999.0,-999.0,-999.0,COALINGA.H\H-Z10000.AT2,COALINGA.H\H-Z10090.AT2,COALINGA.H\H-Z10-UP.AT2,0,90,A,-999,PEA,A,1,2.5,0.23,0.2,24.0,21.0,1.25,0.2875,0.25,0.2875,0.10062,17.227,5.2311,0.1009476,0.1006781,0.1007896,0.1027928,0.1048259,0.1127222,0.1389215,0.157354,0.1676011,0.1823024,0.2184176,0.1909157,0.1831322,0.2567217,0.1449964,0.1172341,0.06292555,0.02349293,0.01234229,0.007851264,0.00444575,0.002258354,29.340809,5,50,-999.0,-999.0,-999,-999,0,-999,?
336,76,Coalinga-01,1983,502,2342,Parkfield - Fault Zone 11,405,36453,6.36,137.0,30.0,90,2,15.0,47.0,75.0,227.0,36.233,-120.31,4.6,1,3.4,16.0,11.0,176.0,-999.0,38.33,38.6,27.1,-999.0,35.78,28.52,33.37,hw,68.92,0.57,0.79,38.34,-999,S,C,541.73,0,0.2,CDMG,35.896,-120.398,0,GROUND LEVEL,-999.0,-999,-999,80.0,-999.0,7780.0,-999.0,-999.0,-999.0,-999.0,COALINGA.H\H-Z11000.AT2,COALINGA.H\H-Z11090.AT2,COALINGA.H\H-Z11-UP.AT2,0,90,A,-999,PEA,A,1,2.5,0.2,0.2,21.0,28.0,1.25,0.25,0.25,0.25,0.081442,9.0554,2.1221,0.08229976,0.08166409,0.08247663,0.08386351,0.09319139,0.1058301,0.1307014,0.1720254,0.2079558,0.2274439,0.1927162,0.2338224,0.1923719,0.1106377,0.0530975,0.04225979,0.0290256,0.01162448,0.00563461,0.003712933,0.002144115,0.00106119,28.866789,5,50,-999.0,-999.0,-999,-999,0,-999,?
337,76,Coalinga-01,1983,502,2342,Parkfield - Fault Zone 12,370,36138,6.36,137.0,30.0,90,2,15.0,47.0,75.0,227.0,36.233,-120.31,4.6,1,3.4,16.0,11.0,176.0,-999.0,38.78,39.05,27.96,-999.0,36.24,29.34,35.45,hw,73.55,0.57,0.79,37.83,-999,S,D,265.21,0,0.1,CDMG,35.899,-120.433,0,GROUND LEVEL,-999.0,-999,-999,80.0,-999.0,7340.0,-999.0,-999.0,-999.0,-999.0,COALINGA.H\H-PRK090.AT2,COALINGA.H\H-PRK180.AT2,COALINGA.H\H-PRK-UP.AT2,90,180,A,-999,PEA,A,1,2.5,0.2,0.13,20.0,20.0,1.25,0.25,0.1625,0.25,0.11236,14.328,3.936,0.1127822,0.1124412,0.1127868,0.1140334,0.1180332,0.1180406,0.1402788,0.2170469,0.2470696,0.3366662,0.3748057,0.2425667,0.2885631,0.3028505,0.1234133,0.08529244,0.05455969,0.02539274,0.01196998,0.007448859,0.004119052,0.002267443,26.468735,5,50,-999.0,-999.0,-999,-999,0,-999,?
338,76,Coalinga-01,1983,502,2342,Parkfield - Fault Zone 14,408,36456,6.36,137.0,30.0,90,2,15.0,47.0,75.0,227.0,36.233,-120.31,4.6,1,3.4,16.0,11.0,176.0,-999.0,38.54,38.81,28.11,-999.0,36.03,29.48,36.41,hw,77.31,0.57,0.79,37.61,-999,S,D,246.07,0,0.1,CDMG,35.908,-120.458,0,GROUND LEVEL,-999.0,-999,-999,80.0,-999.0,6800.0,-999.0,-999.0,-999.0,-999.0,COALINGA.H\H-Z14000.AT2,COALINGA.H\H-Z14090.AT2,COALINGA.H\H-Z14-UP.AT2,0,90,A,-999,PEA,A,1,2.5,0.13,0.06,23.0,23.0,1.25,0.1625,0.075,0.1625,0.25923,29.233,7.0225,0.2607815,0.259279,0.2595804,0.264558,0.2710691,0.2741867,0.3485408,0.4102625,0.4901651,0.6082496,0.7255256,0.5862712,0.4893954,0.8798466,0.3229978,0.1477161,0.06274026,0.03158809,0.01716695,0.01117513,0.006627047,0.003297513,24.19817,5,50,-999.0,-999.0,-999,-999,0,-999,?
339,76,Coalinga-01,1983,502,2342,Parkfield - Fault Zone 15,397,36445,6.36,137.0,30.0,90,2,15.0,47.0,75.0,227.0,36.233,-120.31,4.6,1,3.4,16.0,11.0,176.0,-999.0,37.97,38.25,28.0,-999.0,35.51,29.38,36.94,hw,81.19,0.57,0.79,37.5,-999,S,D,307.59,0,0.1,CDMG,35.921,-120.481,0,GROUND LEVEL,-999.0,-999,-999,60.0,-999.0,6260.0,-999.0,-999.0,-999.0,-999.0,COALINGA.H\H-Z15000.AT2,COALINGA.H\H-Z15090.AT2,COALINGA.H\H-Z15-UP.AT2,0,90,A,-999,PEA,A,1,2.5,0.13,0.2,20.0,22.0,1.25,0.1625,0.25,0.25,0.16227,18.862,4.1197,0.1633243,0.1624812,0.1632055,0.1652008,0.1735589,0.2305574,0.2233853,0.2928817,0.2862617,0.3806022,0.3591736,0.4469848,0.3039532,0.3730178,0.1079431,0.09827442,0.05049056,0.01982522,0.01049193,0.006795153,0.003975398,0.00225775,21.725687,5,50,-999.0,-999.0,-999,-999,0,-999,?
340,76,Coalinga-01,1983,502,2342,Parkfield - Fault Zone 16,409,36457,6.36,137.0,30.0,90,2,15.0,47.0,75.0,227.0,36.233,-120.31,4.6,1,3.4,16.0,11.0,176.0,-999.0,36.49,36.78,26.2,-999.0,34.03,27.67,34.84,hw,78.99,0.57,0.79,37.97,-999,S,C,384.26,0,0.2,CDMG,35.927,-120.456,0,GROUND LEVEL,-999.0,-999,-999,80.0,-999.0,7420.0,-999.0,-999.0,-999.0,-999.0,COALINGA.H\H-Z16000.AT2,COALINGA.H\H-Z16090.AT2,COALINGA.H\H-Z16-UP.AT2,0,90,A,-999,PEA,A,1,2.5,0.21,0.23,26.0,27.0,1.25,0.2625,0.2875,0.2875,0.16373,13.962,2.4854,0.164532,0.1639986,0.1651445,0.1711477,0.1816162,0.2257489,0.265955,0.5121019,0.4478005,0.4098071,0.3725718,0.2802835,0.1924614,0.2505357,0.08067686,0.05962504,0.0269597,0.01334888,0.00717624,0.003921993,0.00204747,0.001049914,22.777192,5,50,-999.0,-999.0,-999,-999,0,-999,?
341,76,Coalinga-01,1983,502,2342,Parkfield - Fault Zone 2,379,36413,6.36,137.0,30.0,90,2,15.0,47.0,75.0,227.0,36.233,-120.31,4.6,1,3.4,16.0,11.0,176.0,-999.0,49.68,49.89,37.92,-999.0,47.07,38.95,37.43,nu,55.56,0.57,0.79,37.4,-999,S,D,294.26,2a_3a_4b_4c,0.25,CDMG,35.787,-120.334,0,GROUND LEVEL,-999.0,-999,-999,80.0,-999.0,4120.0,-999.0,-999.0,1240.0,-999.0,COALINGA.H\H-Z02000.AT2,COALINGA.H\H-Z02090.AT2,COALINGA.H\H-Z02-UP.AT2,0,90,A,-999,PEA,A,1,2.5,0.12,0.15,22.0,25.0,1.25,0.15,0.1875,0.1875,0.12017,21.734,6.1383,0.1205225,0.1202831,0.1204863,0.1207446,0.125108,0.1295541,0.1638262,0.226565,0.2672011,0.3204884,0.2269145,0.2920781,0.2199966,0.2800775,0.3168763,0.09814335,0.04739843,0.03645124,0.01465261,0.01079792,0.006221022,0.002803079,41.672399,5,50,-999.0,-999.0,-999,-999,0,-999,?
342,76,Coalinga-01,1983,502,2342,Parkfield - Fault Zone 3,375,36408,6.36,137.0,30.0,90,2,15.0,47.0,75.0,227.0,36.233,-120.31,4.6,1,3.4,16.0,11.0,176.0,-999.0,47.9,48.12,36.14,-999.0,45.3,37.22,36.22,nu,56.06,0.57,0.79,37.66,-999,S,D,211.74,0,0.1,CDMG,35.803,-120.334,0,GROUND LEVEL,-999.0,-999,-999,80.0,-999.0,4240.0,-999.0,-999.0,-999.0,-999.0,COALINGA.H\H-COH000.AT2,COALINGA.H\H-COH090.AT2,COALINGA.H\H-COH-UP.AT2,0,90,A,-999,PEA,A,1,2.5,0.1,0.1,27.0,22.0,1.25,0.125,0.125,0.125,0.15565,21.05,4.395,0.156351,0.1557361,0.1566075,0.1576159,0.1716222,0.1779953,0.2141494,0.2481695,0.3307376,0.45087,0.5117007,0.414082,0.3747677,0.2881085,0.265498,0.0993854,0.03549681,0.02257295,0.01317713,0.007948932,0.004570358,0.002176213,40.370578,5,50,-999.0,-999.0,-999,-999,0,-999,?
343,76,Coalinga-01,1983,502,2342,Parkfield - Fault Zone 4,380,36414,6.36,137.0,30.0,90,2,15.0,47.0,75.0,227.0,36.233,-120.31,4.6,1,3.4,16.0,11.0,176.0,-999.0,44.83,45.07,33.42,-999.0,42.22,34.59,37.73,nu,64.58,0.57,0.79,37.34,-999,S,D,220.75,0,0.1,CDMG,35.836,-120.395,0,GROUND LEVEL,-999.0,-999,-999,80.0,-999.0,5180.0,-999.0,-999.0,-999.0,-999.0,COALINGA.H\H-Z04000.AT2,COALINGA.H\H-Z04090.AT2,COALINGA.H\H-Z04-UP.AT2,0,90,A,-999,PEA,A,1,2.5,0.13,0.12,22.0,28.0,1.25,0.1625,0.15,0.1625,0.093996,15.022,3.9104,0.09423321,0.09403733,0.0941437,0.09568757,0.0961544,0.09703841,0.1060477,0.128134,0.1383391,0.1385047,0.2002264,0.2744932,0.3071193,0.2073352,0.1368004,0.07602139,0.05006121,0.02582046,0.01251809,0.008380716,0.003975557,0.001811901,33.930384,5,50,-999.0,-999.0,-999,-999,0,-999,?
344,76,Coalinga-01,1983,502,2342,Parkfield - Fault Zone 6,406,36454,6.36,137.0,30.0,90,2,15.0,47.0,75.0,227.0,36.233,-120.31,4.6,1,3.4,16.0,11.0,176.0,-999.0,42.78,43.02,31.64,-999.0,40.18,32.87,37.63,hw,68.9,0.57,0.79,37.36,-999,S,D,266.65,0,0.1,CDMG,35.859,-120.42,0,GROUND LEVEL,-999.0,-999,-999,60.0,-999.0,6020.0,-999.0,-999.0,-999.0,-999.0,COALINGA.H\H-Z06000.AT2,COALINGA.H\H-Z06090.AT2,COALINGA.H\H-Z06-UP.AT2,0,90,A,-999,PEA,A,1,2.5,0.13,0.12,24.0,24.0,1.25,0.1625,0.15,0.1625,0.056452,11.538,4.0432,0.05672888,0.05651716,0.05705038,0.0579913,0.06044284,0.06896424,0.08958022,0.1198267,0.1456712,0.1195309,0.116862,0.1184183,0.09666245,0.1265284,0.0932041,0.07870085,0.05401319,0.02802983,0.01391898,0.007000742,0.004290024,0.002260769,30.520813,5,50,-999.0,-999.0,-999,-999,0,-999,?
345,76,Coalinga-01,1983,502,2342,Parkfield - Fault Zone 7,386,36431,6.36,137.0,30.0,90,2,15.0,47.0,75.0,227.0,36.233,-120.31,4.6,1,3.4,16.0,11.0,176.0,-999.0,41.16,41.42,29.91,-999.0,38.58,31.21,35.67,hw,67.83,0.57,0.79,37.78,-999,S,D,297.46,0,0.1,CDMG,35.871,-120.404,0,GROUND LEVEL,-999.0,-999,-999,80.0,-999.0,6520.0,-999.0,-999.0,-999.0,-999.0,COALINGA.H\H-Z07000.AT2,COALINGA.H\H-Z07090.AT2,COALINGA.H\H-Z07-UP.AT2,0,90,A,-999,PEA,A,1,2.5,0.13,0.15,30.0,30.0,1.25,0.1625,0.1875,0.1875,0.11849,19.171,5.0784,0.1191586,0.1189573,0.1208031,0.123183,0.1227985,0.1260249,0.148665,0.1926963,0.2199142,0.2772517,0.2273987,0.2841936,0.2248363,0.1993786,0.1886522,0.09950441,0.05509436,0.02600287,0.01260315,0.008818836,0.005138586,0.002788315,30.530294,5,50,-999.0,-999.0,-999,-999,0,-999,?
346,76,Coalinga-01,1983,502,2342,Parkfield - Fault Zone 8,401,36449,6.36,137.0,30.0,90,2,15.0,47.0,75.0,227.0,36.233,-120.31,4.6,1,3.4,16.0,11.0,176.0,-999.0,40.02,40.28,28.58,-999.0,37.45,29.94,33.62,nu,65.42,0.57,0.79,38.28,-999,S,D,308.84,0,0.1,CDMG,35.878,-120.381,0,GROUND LEVEL,-999.0,-999,-999,80.0,-999.0,6640.0,-999.0,-999.0,-999.0,-999.0,COALINGA.H\H-Z08000.AT2,COALINGA.H\H-Z08090.AT2,COALINGA.H\H-Z08-UP.AT2,0,90,A,-999,PEA,A,1,2.5,0.14,0.13,21.0,27.0,1.25,0.175,0.1625,0.175,0.12107,15.941,3.3009,0.1217443,0.1212898,0.1224057,0.1256737,0.1327281,0.1564166,0.2101127,0.2539994,0.3428078,0.2812562,0.3381073,0.276658,0.2645945,0.2199627,0.1560013,0.05740682,0.03618606,0.01649432,0.00992627,0.006344194,0.003497715,0.001765493,31.376704,5,50,-999.0,-999.0,-999,-999,0,-999,?
347,76,Coalinga-01,1983,502,2342,Parkfield - Fault Zone 9,395,36443,6.36,137.0,30.0,90,2,15.0,47.0,75.0,227.0,36.233,-120.31,4.6,1,3.4,16.0,11.0,176.0,-999.0,41.22,41.48,30.43,-999.0,38.65,31.71,37.76,hw,73.26,0.57,0.79,37.33,-999,S,C,372.26,0,0.2,CDMG,35.879,-120.445,0,GROUND LEVEL,-999.0,-999,-999,60.0,-999.0,6260.0,-999.0,-999.0,-999.0,-999.0,COALINGA.H\H-Z09000.AT2,COALINGA.H\H-Z09090.AT2,COALINGA.H\H-Z09-UP.AT2,0,90,A,-999,PEA,A,1,2.5,0.12,0.12,23.0,28.0,1.25,0.15,0.15,0.15,0.050859,10.448,3.1694,0.05117525,0.05095907,0.05203895,0.05327882,0.05769538,0.06005453,0.06465818,0.08729954,0.08510027,0.09079491,0.1507239,0.12226,0.128946,0.1428414,0.0862485,0.06259758,0.03148752,0.01760994,0.009938774,0.006269556,0.003729609,0.001873924,27.355545,5,50,-999.0,-999.0,-999,-999,0,-999,?
348,76,Coalinga-01,1983,502,2342,Parkfield - Gold Hill 1W,381,36415,6.36,137.0,30.0,90,2,15.0,47.0,75.0,227.0,36.233,-120.31,4.6,1,3.4,16.0,11.0,176.0,-999.0,46.58,46.81,35.04,-999.0,43.96,36.15,37.98,nu,61.71,0.57,0.79,37.29,-999,S,D,214.43,0,0.1,CDMG,35.818,-120.378,0,GROUND LEVEL,-999.0,-999,-999,80.0,-999.0,4760.0,-999.0,-999.0,-999.0,-999.0,COALINGA.H\H-PG1000.AT2,COALINGA.H\H-PG1090.AT2,COALINGA.H\H-PG1-UP.AT2,0,90,A,-999,PEA,A,1,2.5,0.08,0.13,24.0,22.0,1.25,0.1,0.1625,0.1625,0.094082,13.704,3.862,0.09433088,0.09423418,0.09465406,0.09488688,0.09492119,0.09903817,0.1028337,0.1182189,0.1605369,0.1924157,0.1579311,0.2208873,0.205103,0.2222366,0.1888731,0.07009055,0.04062807,0.02638108,0.01508054,0.009755448,0.005299822,0.002455684,36.441099,5,50,-999.0,-999.0,-999,-999,0,-999,?
349,76,Coalinga-01,1983,502,2342,Parkfield - Gold Hill 2E,384,36421,6.36,137.0,30.0,90,2,15.0,47.0,75.0,227.0,36.233,-120.31,4.6,1,3.4,16.0,11.0,176.0,-999.0,43.53,43.77,31.85,-999.0,40.95,33.07,34.1,nu,59.29,0.57,0.79,38.15,-999,S,C,360.92,0,0.2,CDMG,35.843,-120.348,0,GROUND LEVEL,-999.0,-999,-999,80.0,-999.0,5200.0,-999.0,-999.0,-999.0,-999.0,COALINGA.H\H-GH2000.AT2,COALINGA.H\H-GH2090.AT2,COALINGA.H\H-GH2-UP.AT2,0,90,A,-999,PEA,A,1,2.5,0.13,0.2,30.0,30.0,1.25,0.1625,0.25,0.25,0.08191,8.6572,2.045,0.08262858,0.08225887,0.08340999,0.08478379,0.09446414,0.09620019,0.1283328,0.1392265,0.1429795,0.1632568,0.3376125,0.2188357,0.1036962,0.123616,0.06888989,0.03297048,0.01824554,0.0123611,0.007094774,0.004907793,0.002650386,0.001518366,36.254478,5,50,-999.0,-999.0,-999,-999,0,-999,?
350,76,Coalinga-01,1983,502,2342,Parkfield - Gold Hill 2W,382,36416,6.36,137.0,30.0,90,2,15.0,47.0,75.0,227.0,36.233,-120.31,4.6,1,3.4,16.0,11.0,176.0,-999.0,47.41,47.63,35.93,-999.0,44.78,37.02,39.29,nu,62.88,0.57,0.79,37.03,-999,S,D,290.5,0,0.1,CDMG,35.812,-120.391,0,GROUND LEVEL,-999.0,-999,-999,80.0,-999.0,4720.0,-999.0,-999.0,-999.0,-999.0,COALINGA.H\H-PG2000.AT2,COALINGA.H\H-PG2090.AT2,COALINGA.H\H-PG2-UP.AT2,0,90,A,-999,PEA,A,1,2.5,0.06,0.07,21.0,20.0,1.25,0.075,0.0875,0.0875,0.081027,12.135,3.3494,0.08149011,0.08104926,0.08113898,0.08291523,0.08582989,0.09036753,0.1150545,0.1340764,0.1749198,0.1968013,0.2464123,0.1844342,0.1201538,0.1275766,0.1358511,0.08721837,0.02597758,0.01611192,0.009751111,0.006645061,0.004434859,0.002164154,36.128374,5,50,-999.0,-999.0,-999,-999,0,-999,?
351,76,Coalinga-01,1983,502,2342,Parkfield - Gold Hill 3E,392,36439,6.36,137.0,30.0,90,2,15.0,47.0,75.0,227.0,36.233,-120.31,4.6,1,3.4,16.0,11.0,176.0,-999.0,40.45,40.71,28.72,-999.0,37.9,30.07,31.13,nu,58.71,0.57,0.79,38.97,-999,S,C,450.61,0,0.2,CDMG,35.87,-120.334,0,GROUND LEVEL,-999.0,-999,-999,80.0,-999.0,5540.0,-999.0,-999.0,-999.0,-999.0,COALINGA.H\H-GH3000.AT2,COALINGA.H\H-GH3090.AT2,COALINGA.H\H-GH3-UP.AT2,0,90,A,-999,PEA,A,1,2.5,0.11,0.2,26.0,27.0,1.25,0.1375,0.25,0.25,0.089935,10.307,2.5408,0.09030352,0.09007647,0.09065663,0.09269886,0.09553803,0.1147526,0.1224298,0.1735349,0.2088877,0.2701989,0.2548336,0.1476377,0.1543337,0.1054032,0.1129663,0.04802743,0.02869894,0.01313704,0.006825253,0.004775581,0.002947118,0.001594221,34.919204,5,50,-999.0,-999.0,-999,-999,0,-999,?
352,76,Coalinga-01,1983,502,2342,Parkfield - Gold Hill 3W,383,36420,6.36,137.0,30.0,90,2,15.0,47.0,75.0,227.0,36.233,-120.31,4.6,1,3.4,16.0,11.0,176.0,-999.0,49.47,49.68,38.1,-999.0,46.82,39.12,41.83,nu,64.23,0.57,0.79,36.59,-999,S,C,510.92,0,0.2,CDMG,35.796,-120.411,0,GROUND LEVEL,-999.0,-999,-999,60.0,-999.0,4500.0,-999.0,-999.0,-999.0,-999.0,COALINGA.H\H-PG3000.AT2,COALINGA.H\H-PG3090.AT2,COALINGA.H\H-PG3-UP.AT2,0,90,A,-999,PEA,A,1,2.5,0.12,0.1,30.0,30.0,1.25,0.15,0.125,0.15,0.13278,10.322,2.387,0.1339834,0.1333668,0.1340502,0.136312,0.1404373,0.156814,0.2159745,0.2912699,0.3981647,0.4183044,0.3485473,0.1894724,0.1310524,0.1636974,0.09712055,0.04717206,0.01994623,0.01254617,0.009022068,0.006363973,0.003559345,0.001625898,36.197167,5,50,-999.0,-999.0,-999,-999,0,-999,?
353,76,Coalinga-01,1983,502,2342,Parkfield - Gold Hill 4W,388,36433,6.36,137.0,30.0,90,2,15.0,47.0,75.0,227.0,36.233,-120.31,4.6,1,3.4,16.0,11.0,176.0,-999.0,51.29,51.5,40.13,-999.0,48.62,41.1,44.84,nu,66.97,0.57,0.79,36.13,-999,S,C,421.2,2a_3a_4b_4c,0.4,CDMG,35.785,-120.444,0,GROUND LEVEL,-999.0,-999,-999,60.0,-999.0,3860.0,-999.0,-999.0,-999.0,-999.0,COALINGA.H\H-PG4000.AT2,COALINGA.H\H-PG4090.AT2,COALINGA.H\H-PG4-UP.AT2,0,90,A,-999,PEA,A,1,2.5,0.1,0.13,31.0,30.0,1.25,0.125,0.1625,0.1625,0.074686,6.9618,2.0524,0.07563541,0.07535958,0.07656758,0.08451686,0.09200251,0.1087489,0.1597474,0.2308492,0.2221927,0.1680129,0.1161583,0.1112776,0.07749622,0.08686407,0.06676018,0.03722358,0.0186313,0.01277906,0.00835729,0.005965787,0.003170428,0.001136043,35.057312,5,50,-999.0,-999.0,-999,-999,0,-999,?
354,76,Coalinga-01,1983,502,2342,Parkfield - Gold Hill 5W,389,36434,6.36,137.0,30.0,90,2,15.0,47.0,75.0,227.0,36.233,-120.31,4.6,1,3.4,16.0,11.0,176.0,-999.0,53.67,53.87,42.72,-999.0,50.99,43.64,48.16,nu,69.25,0.57,0.79,35.69,-999,S,C,441.37,2a_3a_4b_4c,0.4,CDMG,35.77,-120.477,0,GROUND LEVEL,-999.0,-999,-999,60.0,-999.0,340.0,-999.0,-999.0,-999.0,-999.0,COALINGA.H\H-PG5000.AT2,COALINGA.H\H-PG5090.AT2,COALINGA.H\H-PG5-UP.AT2,0,90,A,-999,PEA,A,1,2.5,0.11,0.18,26.0,30.0,1.25,0.1375,0.225,0.225,0.062852,7.1914,2.2344,0.06370125,0.06325596,0.06419699,0.06436951,0.07829183,0.1069975,0.130594,0.1403116,0.1689022,0.2344925,0.1759354,0.1269754,0.09835311,0.1337788,0.0750075,0.03838616,0.01602925,0.009818743,0.007766984,0.007724652,0.00456126,0.001290625,34.241174,5,50,-999.0,-999.0,-999,-999,0,-999,?
355,76,Coalinga-01,1983,502,2342,Parkfield - Gold Hill 6W,387,36432,6.36,137.0,30.0,90,2,15.0,47.0,75.0,227.0,36.233,-120.31,4.6,1,3.4,16.0,11.0,176.0,-999.0,57.87,58.05,47.04,-999.0,55.17,47.88,52.57,nu,70.14,0.57,0.79,35.2,-999,S,D,232.44,0,0.1,CDMG,35.738,-120.507,0,GROUND LEVEL,-999.0,-999,-999,60.0,-999.0,340.0,-999.0,-999.0,-999.0,-999.0,COALINGA.H\H-PG6000.AT2,COALINGA.H\H-PG6090.AT2,COALINGA.H\H-PG6-UP.AT2,0,90,A,-999,PEA,A,1,2.5,0.2,0.11,30.0,30.0,1.25,0.25,0.1375,0.25,0.063115,6.0455,1.6783,0.06324468,0.06364686,0.06502266,0.071604,0.1005892,0.09881499,0.1340824,0.1553474,0.1629145,0.1938804,0.1360722,0.1376241,0.1093022,0.1103872,0.0563999,0.0365352,0.01735102,0.01115491,0.005680188,0.004102345,0.001863503,0.000782178,34.989609,5,50,-999.0,-999.0,-999,-999,0,-999,?
