Record Sequence Number,EQID,Earthquake Name,YEAR,MODY,HRMN,Station Name,Station Sequence Number,Station ID  No.,Earthquake Magnitude,Strike (deg),Dip (deg),Rake Angle (deg),Mechanism Based on Rake Angle,P-plunge (deg),P-trend (deg),T-plunge (deg),T-trend (deg),Hypocenter Latitude (deg),Hypocenter Longitude (deg),Hypocenter Depth (km),Finite Rupture Model: 1=Yes;  0=No,Depth to Top Of Fault Rupture Model,Fault Rupture Length for Calculation of Ry (km),Fault Rupture Width (km),Fault Rupture Area (km^2),Average Vr/Vs,EpiD (km),HypD (km),Joyner-Boore Dist. (km),Campbell R Dist. (km),RmsD (km),ClstD (km),Rx,FW/HW Indicator,Source to Site Azimuth (deg),X,Y,Phi.D (deg),Unused Column.2,Depth,Preferred NEHRP Based on Vs30,Vs30 (m/s) selected for analysis,Measured/Inferred Class,Sigma of Vs30 (in natural log Units),Owner,Station Latitude,Station Longitude,STORIES,INSTLOC,Depth to Basement Rock,Site Visited,NGA Type,Northern CA/Southern CA - H11 Z1 (m),Northern CA/Southern CA - H11 Z1.5 (m),Northern CA/Southern CA - H11 Z2.5 (m),Northern CA/Southern CA - S4 Z1 (m),Northern CA/Southern CA - S4 Z1.5 (m),Northern CA/Southern CA - S4 Z2.5 (m),Rebe (m),File Name (Horizontal 1),File Name (Horizontal 2),File Name (Vertical),H1 azimth (degrees),H2 azimith (degrees),Type of Recording,Instrument Model,PEA Processing Flag,Type of Filter,npass,nroll,HP-H1 (Hz),HP-H2 (Hz),LP-H1 (Hz),LP-H2 (Hz),Factor,Lowest Usable Freq - H1 (Hz),Lowest Usable Freq - H2 (H2),Lowest Usable Freq - Ave. Component (Hz),PGA (g),PGV (cm/sec),PGD (cm),T0.010S,T0.020S,T0.030S,T0.050S,T0.075S,T0.100S,T0.150S,T0.200S,T0.250S,T0.300S,T0.400S,T0.500S,T0.750S,T1.000S,T1.500S,T2.000S,T3.000S,T4.000S,T5.000S,T6.000S,T7.500S,T10.000S,U,Damping (%),RotD percentile,Instrument Nat. Freq.,Instrument Damping,Instrument Type,Quality_Flag,Spectra Quality Flag,Late S-trigger,Late P-trigger
72,30,San Fernando,1971,209,1400,Lake Hughes #4,77,126,6.61,288.0,50.0,83,2,4.77,21.96,82.82,153.42,34.44,-118.41,13.0,1,0.0,20.0,27.4,438.4,0.7777777777777777,24.18,27.46,19.45,-999.0,31.32,25.07,27.13,hw,73.29,0.36,0.04,87.25,-999,S,C,600.06,2a_3a_4b_4c,0.4,CDMG,34.65,-118.478,0,GROUND LEVEL,0.0,yes,4,40.0,-999.0,240.0,-999.0,-999.0,-999.0,-999.0,SFERN\L04111.AT2,SFERN\L04201.AT2,SFERN\L04DWN.AT2,111,201,A,-999,PEA,A,1,2.5,0.2,0.1,35.0,35.0,1.25,0.25,0.125,0.25,0.17861,7.5501,1.6879,0.1816398,0.1817832,0.2271868,0.2880055,0.3681627,0.3855657,0.4594496,0.4974806,0.2744052,0.2773283,0.2388496,0.172495,0.102411,0.09856585,0.05102422,0.02286481,0.009517137,0.009551941,0.006348425,0.005221397,0.003057142,0.001271791,26.376944,5,50,-999.0,-999.0,-999,-999,0,-999,?
73,30,San Fernando,1971,209,1400,Lake Hughes #9,79,127,6.61,288.0,50.0,83,2,4.77,21.96,82.82,153.42,34.44,-118.41,13.0,1,0.0,20.0,27.4,438.4,0.7777777777777777,23.1,26.51,17.22,-999.0,29.66,22.57,20.24,nu,56.42,0.36,0.11,80.87,-999,S,C,670.84,0,0.2,USGS,34.608,-118.558,0,GROUND LEVEL,0.003,-999,1a,40.0,-999.0,220.0,20.0,-999.0,320.0,-999.0,SFERN\L09021.AT2,SFERN\L09291.AT2,SFERN\L09DWN.AT2,21,291,A,-999,PEA,A,1,2.5,0.5,0.2,35.0,35.0,1.25,0.625,0.25,0.625,0.15347,5.0014,1.3901,0.1563944,0.1560947,0.21461,0.3522286,0.3004781,0.3623592,0.3746035,0.2304834,0.1816879,0.1926017,0.1743496,0.07562512,0.0579809,0.04275369,0.03115021,0.02116944,0.008181376,0.006880205,0.003467003,0.001674121,0.001103373,0.000635699,31.919989,5,50,-999.0,-999.0,-999,-999,0,?,Y
74,30,San Fernando,1971,209,1400,Maricopa Array #1,138,1041,6.61,288.0,50.0,83,2,4.77,21.96,82.82,153.42,34.44,-118.41,13.0,1,0.0,20.0,27.4,438.4,0.7777777777777777,198.97,199.39,193.25,-999.0,204.97,193.91,137.48,nu,43.52,0.36,0.14,59.7,-999,D,D,303.79,2a_3a_4b_4c,0.25,CDWR,35.997,-119.486,0,GROUND LEVEL,-999.0,-999,-999,60.0,-999.0,240.0,-999.0,-999.0,-999.0,-999.0,SFERN\MA1130.AT2,SFERN\MA1220.AT2,SFERN\MA1DWN.AT2,130,220,A,-999,PEA,A,1,2.5,0.1,0.1,13.0,20.0,1.25,0.125,0.125,0.125,0.0097817,3.1406,5.3534,0.009807099,0.009879299,0.009979026,0.01085943,0.01149823,0.01207906,0.01577475,0.0225873,0.02304065,0.03007278,0.0214004,0.02130861,0.01848234,0.01583399,0.01085403,0.01055685,0.0054255,0.004593021,0.005613477,0.004978604,0.004455545,0.002422061,157.74578,5,50,-999.0,-999.0,-999,-999,0,Y,Y
75,30,San Fernando,1971,209,1400,Maricopa Array #2,139,1042,6.61,288.0,50.0,83,2,4.77,21.96,82.82,153.42,34.44,-118.41,13.0,1,0.0,20.0,27.4,438.4,0.7777777777777777,114.63,115.37,108.56,-999.0,119.38,109.73,38.73,nu,20.33,0.36,0.14,76.47,-999,S,C,443.85,2a_3a_4b_4c,0.4,CDWR,35.04,-119.429,0,GROUND LEVEL,-999.0,-999,-999,60.0,-999.0,3960.0,-999.0,-999.0,4540.0,-999.0,SFERN\MA2130.AT2,SFERN\MA2220.AT2,SFERN\MA2DWN.AT2,130,220,A,-999,PEA,A,1,2.5,0.1,0.2,20.0,15.0,1.25,0.125,0.25,0.25,0.010852,6.8215,9.5022,0.01086226,0.01092338,0.01113331,0.01170814,0.01448695,0.01569851,0.02070174,0.02441345,0.02847656,0.03176641,0.02230809,0.0174847,0.01465318,0.01397822,0.009626406,0.01027467,0.007928361,0.007916216,0.01153717,0.01118783,0.01106517,0.0122193,121.79424,5,50,-999.0,-999.0,-999,-999,0,Y,Y
76,30,San Fernando,1971,209,1400,Maricopa Array #3,140,1043,6.61,288.0,50.0,83,2,4.77,21.96,82.82,153.42,34.44,-118.41,13.0,1,0.0,20.0,27.4,438.4,0.7777777777777777,115.1,115.83,109.01,-999.0,120.02,110.18,43.57,nu,22.82,0.36,0.14,73.72,-999,S,C,441.25,2a_3a_4b_4c,0.4,CDWR,35.078,-119.401,0,GROUND LEVEL,-999.0,-999,-999,80.0,-999.0,4000.0,-999.0,-999.0,4500.0,-999.0,SFERN\MA3130.AT2,SFERN\MA3220.AT2,SFERN\MA3DWN.AT2,130,220,A,-999,PEA,A,1,2.5,0.2,0.1,20.0,20.0,1.25,0.25,0.125,0.25,0.0089858,2.2535,2.2029,0.009006322,0.009084693,0.009224737,0.01105915,0.01287536,0.01539985,0.01874136,0.02070506,0.01805886,0.02113817,0.01761144,0.01975089,0.0130987,0.01045835,0.007953213,0.01228417,0.006481198,0.004719892,0.003304902,0.004414759,0.004240841,0.002812752,120.5978,5,50,-999.0,-999.0,-999,-999,0,Y,Y
77,30,San Fernando,1971,209,1400,Pacoima Dam (upper left abut),88,279,6.61,288.0,50.0,83,2,4.77,21.96,82.82,153.42,34.44,-118.41,13.0,1,0.0,20.0,27.4,438.4,0.7777777777777777,11.87,17.6,0.0,-999.0,6.72,1.81,2.56,hw,90.0,0.25,0.8,7.53,-999,S,A,2016.13,1,0.4,CDMG,34.334,-118.396,0,UPPER LEFT ABUTMENT,-999.0,-999,3,0.0,7.62,280.0,0.0,7.62,3080.0,-999.0,SFERN\PUL164.AT2,SFERN\PUL254.AT2,SFERN\PULDWN.AT2,164,254,A,-999,PEA,A,1,2.5,0.07,0.07,35.0,35.0,1.25,0.0875,0.0875,0.0875,1.2217,90.301,27.96,1.246961,1.33764,1.483556,1.689791,2.422583,1.879103,2.006601,2.055772,1.830854,1.962857,2.666048,2.110259,0.7625939,1.031737,0.6762563,0.3773716,0.1555216,0.09830867,0.09744433,0.07637747,0.04234981,0.01924141,8.1180937,5,50,-999.0,-999.0,-999,-999,0,-999,?
78,30,San Fernando,1971,209,1400,Palmdale Fire Station,82,262,6.61,288.0,50.0,83,2,4.77,21.96,82.82,153.42,34.44,-118.41,13.0,1,0.0,20.0,27.4,438.4,0.7777777777777777,31.61,34.18,24.16,-999.0,35.08,28.99,31.37,hw,107.99,0.64,0.13,82.37,-999,D,C,452.86,0,0.2,USGS,34.57806,-118.11401,1,GROUND LEVEL,-999.0,-999,-999,60.0,-999.0,240.0,-999.0,-999.0,-999.0,-999.0,SFERN\PDL120.AT2,SFERN\PDL210.AT2,SFERN\PDLXXX.AT2,120,210,A,-999,PEA,A,1,2.5,0.15,0.13,35.0,35.0,1.25,0.1875,0.1625,0.1875,0.12156,11.582,4.0613,0.1231596,0.1252129,0.1334125,0.1478059,0.2440899,0.3747562,0.3342706,0.30736,0.3467658,0.331237,0.2003009,0.2127621,0.1594501,0.1352282,0.1680842,0.1041465,0.02373892,0.01572474,0.008881651,0.006115784,0.003717327,0.001944914,-8.2233912,5,50,-999.0,-999.0,-999,-999,0,-999,DNR
79,30,San Fernando,1971,209,1400,Pasadena - CIT Athenaeum,499,80053,6.61,288.0,50.0,83,2,4.77,21.96,82.82,153.42,34.44,-118.41,13.0,1,0.0,20.0,27.4,438.4,0.7777777777777777,42.75,44.69,25.47,-999.0,37.25,25.47,-11.81,nu,-152.39,0.64,0.86,23.42,-999,D,C,415.13,1,0.3,CIT,34.139,-118.121,2,BASEMENT,0.23,-999,-999,80.0,-999.0,1100.0,320.0,-999.0,1680.0,-999.0,SFERN\PAS000.AT2,SFERN\PAS090.AT2,SFERN\PASDWN.AT2,0,90,A,-999,PEA,A,1,2.5,0.23,0.3,35.0,35.0,1.25,0.2875,0.375,0.375,0.10575,9.8125,2.3639,0.1068087,0.1071144,0.1111585,0.1221091,0.1666566,0.1877753,0.1955818,0.2573786,0.2546608,0.3475685,0.3160325,0.2249534,0.146827,0.1637087,0.05735848,0.05801412,0.02801106,0.0111454,0.007519439,0.003993069,0.001887252,0.001090195,-22.409222,5,50,-999.0,-999.0,-999,-999,0,-999,?
80,30,San Fernando,1971,209,1400,Pasadena - Old Seismo Lab,83,266,6.61,288.0,50.0,83,2,4.77,21.96,82.82,153.42,34.44,-118.41,13.0,1,0.0,20.0,27.4,438.4,0.7777777777777777,39.17,41.27,21.5,-999.0,33.39,21.5,-11.98,nu,-146.13,0.64,0.86,23.84,-999,S,B,969.07,1,0.3,USGS,34.1486,-118.171,2,BASEMENT,0.0,-999,-999,5.7,12.2,300.0,5.7,12.2,320.0,-999.0,SFERN\PSL180.AT2,SFERN\PSL270.AT2,SFERN\PSLDWN.AT2,180,270,A,-999,PEA,A,1,2.5,0.5,0.5,35.0,35.0,1.25,0.625,0.625,0.625,0.14498,9.857,1.0524,0.1467998,0.1451886,0.1460091,0.1568452,0.1912525,0.3141342,0.4097239,0.4347771,0.5439397,0.3616827,0.2997256,0.1662174,0.1650475,0.1172899,0.03841597,0.02261783,0.005970674,0.002836362,0.001743742,0.001179181,0.000746359,0.000410894,-17.704711,5,50,-999.0,-999.0,-999,-999,0,-999,?
81,30,San Fernando,1971,209,1400,Pearblossom Pump,84,269,6.61,288.0,50.0,83,2,4.77,21.96,82.82,153.42,34.44,-118.41,13.0,1,0.0,20.0,27.4,438.4,0.7777777777777777,45.41,47.23,35.54,-999.0,46.2,38.97,29.84,nu,134.29,0.64,0.1,83.97,-999,S,C,529.09,1,0.3,CDWR,34.5083,-117.922,0,GROUND LEVEL,0.007,-999,-999,60.0,-999.0,240.0,-999.0,-999.0,-999.0,-999.0,SFERN\PPP000.AT2,SFERN\PPP270.AT2,SFERN\PPPDWN.AT2,0,270,A,-999,PEA,A,1,2.5,0.2,0.2,35.0,35.0,1.25,0.25,0.25,0.25,0.13125,4.8808,1.0875,0.1336541,0.1343158,0.1557128,0.1676168,0.2781188,0.3243205,0.4368321,0.2610694,0.2280247,0.1494022,0.1854157,0.1244052,0.0478431,0.04049613,0.03070882,0.01699731,0.01272145,0.007824685,0.00397827,0.002325172,0.001367673,0.000720291,-27.199639,5,50,-999.0,-999.0,-999,-999,0,-999,?
82,30,San Fernando,1971,209,1400,Port Hueneme,85,272,6.61,288.0,50.0,83,2,4.77,21.96,82.82,153.42,34.44,-118.41,13.0,1,0.0,20.0,27.4,438.4,0.7777777777777777,80.21,81.25,68.84,-999.0,79.31,68.84,-36.79,nu,-32.3,0.36,0.86,38.09,-999,D,D,248.98,2a_3a_4b_4c,0.25,CDMG,34.145,-119.206,1,-999,-999.0,-999,2,760.0,-999.0,4560.0,520.0,-999.0,2140.0,-999.0,SFERN\PHN180.AT2,SFERN\PHN270.AT2,SFERN\PHN-UP.AT2,180,270,A,-999,PEA,A,1,2.5,0.05,0.05,35.0,35.0,1.25,0.0625,0.0625,0.0625,0.026619,5.9911,4.543,0.02688575,0.02684941,0.02842991,0.0287074,0.02916507,0.0381958,0.04784093,0.05814253,0.07822156,0.1081771,0.07095447,0.04808005,0.06137618,0.06115206,0.03784667,0.04917774,0.03302193,0.02713248,0.01678235,0.01425081,0.008839198,0.004034497,73.122436,5,50,-999.0,-999.0,-999,-999,0,?,Y
83,30,San Fernando,1971,209,1400,Puddingstone Dam (Abutment),87,278,6.61,288.0,50.0,83,2,4.77,21.96,82.82,153.42,34.44,-118.41,13.0,1,0.0,20.0,27.4,438.4,0.7777777777777777,67.63,68.86,52.64,-999.0,63.33,52.64,-9.37,nu,-169.74,0.64,0.86,18.72,-999,S,C,421.44,2a_3a_4b_4c,0.33,CDMG,34.091,-117.808,0,LEFT (WEST) ABUTMENT,0.5,-999,-999,60.0,-999.0,320.0,320.0,-999.0,320.0,-999.0,SFERN\PUD055.AT2,SFERN\PUD325.AT2,SFERN\PUDDWN.AT2,55,325,A,-999,PEA,A,1,2.5,0.1,0.2,35.0,35.0,1.25,0.125,0.25,0.25,0.059764,4.3734,1.5492,0.06082466,0.06127321,0.06528427,0.06459972,0.08038399,0.1276139,0.159722,0.2089814,0.1142447,0.09665562,0.118467,0.1137532,0.1043288,0.04004844,0.02746439,0.01241945,0.009060988,0.006143001,0.005852078,0.005245455,0.003306198,0.001342433,-51.466919,5,50,-999.0,-999.0,-999,-999,0,-999,Y
84,30,San Fernando,1971,209,1400,San Diego Gas & Electric,100,314,6.61,288.0,50.0,83,2,4.77,21.96,82.82,153.42,34.44,-118.41,13.0,1,0.0,20.0,27.4,438.4,0.7777777777777777,223.7,224.08,205.77,-999.0,217.88,205.77,-140.48,nu,-136.95,0.64,0.86,45.55,-999,S,D,354.06,2a_3a_4b_4c,0.25,USGS,32.719,-117.163,4,GROUND LEVEL,-999.0,-999,-999,60.0,-999.0,240.0,-999.0,-999.0,-999.0,-999.0,SFERN\SDC000.AT2,SFERN\SDC090.AT2,SFERN\SDCDWN.AT2,0,90,A,-999,PEA,A,1,2.5,0.1,0.1,30.0,30.0,1.25,0.125,0.125,0.125,0.0051356,1.4191,1.4236,0.00513881,0.005213939,0.005379528,0.005835802,0.006476041,0.007274073,0.009749588,0.01356842,0.0103402,0.0106541,0.01222832,0.01441612,0.009778898,0.01118125,0.00941576,0.005999522,0.003666112,0.003693959,0.003970193,0.003168704,0.003894976,0.001549873,-155.39862,5,50,-999.0,-999.0,-999,-999,0,Y,Y
85,30,San Fernando,1971,209,1400,San Juan Capistrano,104,465,6.61,288.0,50.0,83,2,4.77,21.96,82.82,153.42,34.44,-118.41,13.0,1,0.0,20.0,27.4,438.4,0.7777777777777777,125.86,126.53,108.01,-999.0,120.11,108.01,-70.57,nu,-139.2,0.64,0.86,41.9,-999,S,C,459.37,2a_3a_4b_4c,0.25,USGS,33.4894,-117.671,1,GROUND LEVEL,-999.0,-999,-999,780.0,-999.0,3480.0,-999.0,-999.0,1960.0,-999.0,SFERN\SJC033.AT2,SFERN\SJC303.AT2,SFERN\SJCDWN.AT2,33,303,A,-999,PEA,A,1,2.5,0.2,0.13,35.0,35.0,1.25,0.25,0.1625,0.25,0.038196,3.9662,2.4533,0.03864879,0.03867824,0.04102976,0.0401106,0.04705616,0.0623839,0.08419685,0.1020856,0.08671238,0.09854674,0.0841722,0.09485196,0.05991743,0.0649921,0.03366227,0.01933248,0.009350787,0.008827054,0.007144603,0.007824395,0.003278848,0.001566399,-83.915163,5,50,-999.0,-999.0,-999,-999,0,-999,?
86,30,San Fernando,1971,209,1400,San Onofre - So Cal Edison,90,280,6.61,288.0,50.0,83,2,4.77,21.96,82.82,153.42,34.44,-118.41,13.0,1,0.0,20.0,27.4,438.4,0.7777777777777777,142.62,143.21,124.79,-999.0,136.89,124.79,-80.63,nu,-139.75,0.64,0.86,42.74,-999,S,C,442.88,0,0.2,SCE,33.37,-117.56,1,GROUND LEVEL,-999.0,-999,-999,120.0,-999.0,960.0,-999.0,-999.0,2440.0,-999.0,SFERN\SON033.AT2,SFERN\SON303.AT2,SFERN\SONDWN.AT2,33,303,A,-999,PEA,A,1,2.5,0.1,0.2,20.0,20.0,1.25,0.125,0.25,0.25,0.014668,3.4505,5.9858,0.01470228,0.01476681,0.01489319,0.01628522,0.01968338,0.02262017,0.03256068,0.03561623,0.03197732,0.04479131,0.03849808,0.03683887,0.02880328,0.02228072,0.01509334,0.01442068,0.007452899,0.004514069,0.004554457,0.00512083,0.00511285,0.002691733,-97.798701,5,50,-999.0,-999.0,-999,-999,0,Y,Y
87,30,San Fernando,1971,209,1400,Santa Anita Dam,68,104,6.61,288.0,50.0,83,2,4.77,21.96,82.82,153.42,34.44,-118.41,13.0,1,0.0,20.0,27.4,438.4,0.7777777777777777,45.86,47.67,30.7,-999.0,41.37,30.7,-4.38,nu,-171.79,0.64,0.86,11.87,-999,S,C,667.13,2a_3a_4b_4c,0.4,LAFC,34.185,-118.018,0,ABUTMENT,0.0,-999,-999,40.0,-999.0,1040.0,20.0,-999.0,320.0,-999.0,SFERN\SAD003.AT2,SFERN\SAD273.AT2,SFERN\SADDWN.AT2,3,273,A,-999,PEA,A,1,2.5,0.3,0.3,35.0,35.0,1.25,0.375,0.375,0.375,0.18648,4.9529,0.82718,0.191191,0.186723,0.2329866,0.2589855,0.3156278,0.4390064,0.5616948,0.5916609,0.2836351,0.2002356,0.1305986,0.07456672,0.05981759,0.03080494,0.02362325,0.01280189,0.01113915,0.004322432,0.00235594,0.001408582,0.000720228,0.000400225,-29.900546,5,50,-999.0,-999.0,-999,-999,0,-999,?
88,30,San Fernando,1971,209,1400,Santa Felita Dam (Outlet),93,285,6.61,288.0,50.0,83,2,4.77,21.96,82.82,153.42,34.44,-118.41,13.0,1,0.0,20.0,27.4,438.4,0.7777777777777777,31.55,34.13,24.69,-999.0,34.15,24.87,-1.33,nu,-3.08,0.36,0.67,23.93,-999,S,C,389.0,0,0.2,CDMG,34.46,-118.753,-999,-999,-999.0,-999,3,860.0,-999.0,4260.0,320.0,-999.0,2640.0,-999.0,SFERN\FSD172.AT2,SFERN\FSD262.AT2,SFERN\FSD-UP.AT2,172,262,A,-999,PEA,A,1,2.5,0.1,0.1,20.0,13.0,1.25,0.125,0.125,0.125,0.15486,8.8971,6.8376,0.1554251,0.1587701,0.1645424,0.2090497,0.2722437,0.697061,0.4078546,0.247394,0.1644583,0.1767211,0.1577464,0.1389626,0.103173,0.121373,0.04875161,0.03363989,0.03058936,0.03546196,0.02542743,0.01578299,0.01053372,0.005487144,43.782954,5,50,-999.0,-999.0,-999,-999,0,Y,Y
89,30,San Fernando,1971,209,1400,Tehachapi Pump,134,1027,6.61,288.0,50.0,83,2,4.77,21.96,82.82,153.42,34.44,-118.41,13.0,1,0.0,20.0,27.4,438.4,0.7777777777777777,67.62,68.86,61.75,-999.0,73.59,63.79,46.82,nu,43.6,0.36,0.14,72.21,-999,S,C,669.48,0,0.2,CDWR,34.9417,-118.827,0,GROUND LEVEL,-999.0,-999,-999,80.0,-999.0,600.0,-999.0,-999.0,-999.0,-999.0,SFERN\TEH090.AT2,SFERN\TEH180.AT2,SFERN\TEHDWN.AT2,90,180,A,-999,PEA,A,1,2.5,0.2,0.2,35.0,35.0,1.25,0.25,0.25,0.25,0.039338,1.662,0.38331,0.04015901,0.0435185,0.05027558,0.06243449,0.1035938,0.1213438,0.09168947,0.1010649,0.05426114,0.07677285,0.04817175,0.03737661,0.01124213,0.007407265,0.005440598,0.005161745,0.003750965,0.002381169,0.001220546,0.000798532,0.00041916,0.000200858,66.304005,5,50,-999.0,-999.0,-999,-999,0,Y,Y
90,30,San Fernando,1971,209,1400,UCSB - Fluid Mech Lab,91,282,6.61,288.0,50.0,83,2,4.77,21.96,82.82,153.42,34.44,-118.41,13.0,1,0.0,20.0,27.4,438.4,0.7777777777777777,132.23,132.86,124.38,-999.0,133.6,124.41,-40.17,nu,-18.84,0.36,0.86,34.98,-999,S,D,322.42,2a_3a_4b_4c,0.25,USGS,34.41,-119.85,2,BASEMENT,-999.0,-999,-999,860.0,-999.0,3760.0,-999.0,-999.0,-999.0,-999.0,SFERN\SBF042.AT2,SFERN\SBF132.AT2,SFERN\SBF-UP.AT2,42,132,A,-999,PEA,A,1,2.5,0.2,0.2,30.0,30.0,1.25,0.25,0.25,0.25,0.018272,5.2087,10.002,0.01828188,0.0183496,0.01908321,0.01915225,0.01985501,0.02061686,0.02319367,0.03491168,0.04328325,0.05233876,0.05378686,0.04610016,0.04309664,0.04105049,0.02833496,0.02709322,0.01444671,0.01336939,0.01158826,0.009880547,0.007854681,0.006566923,138.26874,5,50,-999.0,-999.0,-999,-999,0,Y,Y
91,30,San Fernando,1971,209,1400,Upland - San Antonio Dam,95,287,6.61,288.0,50.0,83,2,4.77,21.96,82.82,153.42,34.44,-118.41,13.0,1,0.0,20.0,27.4,438.4,0.7777777777777777,74.64,75.76,61.72,-999.0,71.23,61.73,0.74,nu,179.31,0.64,0.85,7.34,-999,D,C,487.23,2a_3a_4b_4c,0.25,ACOE,34.155,-117.675,0,DOWNSTREAM,-999.0,-999,5,820.0,-999.0,1020.0,320.0,-999.0,320.0,-999.0,SFERN\SOD015.AT2,SFERN\SOD285.AT2,SFERN\SODDWN.AT2,15,285,A,-999,PEA,A,1,2.5,0.3,0.23,35.0,35.0,1.25,0.375,0.2875,0.375,0.064655,3.3346,0.46403,0.06535828,0.06505603,0.06692255,0.07101664,0.1029504,0.1414884,0.1385496,0.2256749,0.2436207,0.2010773,0.1861447,0.1082431,0.0442405,0.02845299,0.01683518,0.007906029,0.005325945,0.002937127,0.001160746,0.000872462,0.000422829,0.000225141,-60.940769,5,50,-999.0,-999.0,-999,-999,0,-999,?
92,30,San Fernando,1971,209,1400,Wheeler Ridge - Ground,149,1102,6.61,288.0,50.0,83,2,4.77,21.96,82.82,153.42,34.44,-118.41,13.0,1,0.0,20.0,27.4,438.4,0.7777777777777777,74.03,75.16,68.38,-999.0,80.21,70.23,56.87,nu,49.08,0.36,0.14,68.7,-999,D,D,347.67,0,0.1,CDWR,35.027,-118.791,0,GROUND LEVEL,-999.0,-999,-999,80.0,-999.0,960.0,-999.0,-999.0,-999.0,-999.0,SFERN\WRP090.AT2,SFERN\WRP180.AT2,SFERN\WRP-UP.AT2,90,180,A,-999,PEA,A,1,2.5,0.1,0.1,23.0,23.0,1.25,0.125,0.125,0.125,0.028018,2.0252,2.2169,0.02809159,0.02854936,0.02987205,0.03930174,0.06845462,0.08802775,0.06545278,0.06780487,0.06601666,0.08071788,0.03237737,0.02019331,0.01788713,0.01689314,0.01225128,0.008076368,0.006177228,0.005147756,0.004217144,0.003541369,0.00245324,0.00182628,66.008476,5,50,-999.0,-999.0,-999,-999,0,?,Y
93,30,San Fernando,1971,209,1400,Whittier Narrows Dam,96,289,6.61,288.0,50.0,83,2,4.77,21.96,82.82,153.42,34.44,-118.41,13.0,1,0.0,20.0,27.4,438.4,0.7777777777777777,57.12,58.58,39.45,-999.0,51.47,39.45,-22.94,nu,-144.43,0.64,0.86,31.43,-999,D,D,298.68,1,0.25,USGS,34.02,-118.053,0,BASEYARD,2.5,-999,5,1420.0,-999.0,4620.0,400.0,-999.0,5020.0,-999.0,SFERN\WND143.AT2,SFERN\WND233.AT2,SFERN\WNDDWN.AT2,143,233,A,-999,PEA,A,1,2.5,0.1,0.1,20.0,20.0,1.25,0.125,0.125,0.125,0.1122,10.19,6.8725,0.112378,0.113273,0.1144153,0.1245217,0.1397941,0.2541333,0.3316642,0.3496709,0.2790926,0.216203,0.2032671,0.1460995,0.103036,0.0602142,0.05337954,0.03829024,0.03182361,0.03584357,0.02717933,0.01832536,0.01106779,0.00504323,-32.337627,5,50,-999.0,-999.0,-999,-999,0,-999,Y
94,30,San Fernando,1971,209,1400,Wrightwood - 6074 Park Dr,99,290,6.61,288.0,50.0,83,2,4.77,21.96,82.82,153.42,34.44,-118.41,13.0,1,0.0,20.0,27.4,438.4,0.7777777777777777,72.17,73.33,61.64,-999.0,70.68,62.23,23.83,nu,158.22,0.64,0.03,87.59,-999,S,C,486.0,0,0.2,USGS,34.36,-117.63,2,GROUND LEVEL,0.068,-999,1a,60.0,-999.0,260.0,-999.0,-999.0,-999.0,-999.0,SFERN\WTW025.AT2,SFERN\WTW295.AT2,SFERN\WTWDWN.AT2,25,295,A,-999,PEA,A,1,2.5,0.2,0.2,30.0,30.0,1.25,0.25,0.25,0.25,0.048565,4.5564,2.381,0.04866602,0.04938505,0.04958352,0.05876391,0.06824999,0.09733894,0.1014467,0.1494091,0.130193,0.1597174,0.1257722,0.09355593,0.03700246,0.03613039,0.01589376,0.009908042,0.005998955,0.005286089,0.0042064,0.005943755,0.006969258,0.003085003,-57.839789,5,50,-999.0,-999.0,-999,-999,0,-999,Y
