Record Sequence Number,EQID,Earthquake Name,YEAR,MODY,HRMN,Station Name,Station Sequence Number,Station ID  No.,Earthquake Magnitude,Strike (deg),Dip (deg),Rake Angle (deg),Mechanism Based on Rake Angle,P-plunge (deg),P-trend (deg),T-plunge (deg),T-trend (deg),Hypocenter Latitude (deg),Hypocenter Longitude (deg),Hypocenter Depth (km),Finite Rupture Model: 1=Yes;  0=No,Depth to Top Of Fault Rupture Model,Fault Rupture Length for Calculation of Ry (km),Fault Rupture Width (km),Fault Rupture Area (km^2),Average Vr/Vs,EpiD (km),HypD (km),Joyner-Boore Dist. (km),Campbell R Dist. (km),RmsD (km),ClstD (km),Rx,FW/HW Indicator,Source to Site Azimuth (deg),X,Y,Phi.D (deg),Unused Column.2,Depth,Preferred NEHRP Based on Vs30,Vs30 (m/s) selected for analysis,Measured/Inferred Class,Sigma of Vs30 (in natural log Units),Owner,Station Latitude,Station Longitude,STORIES,INSTLOC,Depth to Basement Rock,Site Visited,NGA Type,Northern CA/Southern CA - H11 Z1 (m),Northern CA/Southern CA - H11 Z1.5 (m),Northern CA/Southern CA - H11 Z2.5 (m),Northern CA/Southern CA - S4 Z1 (m),Northern CA/Southern CA - S4 Z1.5 (m),Northern CA/Southern CA - S4 Z2.5 (m),Rebe (m),File Name (Horizontal 1),File Name (Horizontal 2),File Name (Vertical),H1 azimth (degrees),H2 azimith (degrees),Type of Recording,Instrument Model,PEA Processing Flag,Type of Filter,npass,nroll,HP-H1 (Hz),HP-H2 (Hz),LP-H1 (Hz),LP-H2 (Hz),Factor,Lowest Usable Freq - H1 (Hz),Lowest Usable Freq - H2 (H2),Lowest Usable Freq - Ave. Component (Hz),PGA (g),PGV (cm/sec),PGD (cm),T0.010S,T0.020S,T0.030S,T0.050S,T0.075S,T0.100S,T0.150S,T0.200S,T0.250S,T0.300S,T0.400S,T0.500S,T0.750S,T1.000S,T1.500S,T2.000S,T3.000S,T4.000S,T5.000S,T6.000S,T7.500S,T10.000S,U,Damping (%),RotD percentile,Instrument Nat. Freq.,Instrument Damping,Instrument Type,Quality_Flag,Spectra Quality Flag,Late S-trigger,Late P-trigger
192,50,Imperial Valley-06,1979,1015,2316,Westmorland Fire Sta,264,11369,6.53,323.0,80.0,180,0,7.05,187.56,7.05,278.44,32.644,-115.307,9.96,1,0.0,50.0,13.0,649.9,0.8690680388793597,52.78,53.71,14.75,-999.0,32.46,15.25,4.55,na,17.33,0.76,0.72,25.71,-999,D,D,193.67,0,0.1,CDMG,33.037,-115.623,1,GROUND LEVEL,5.2,-999,-999,1520.0,-999.0,3420.0,1500.0,-999.0,3480.0,-999.0,IMPVALL.H\H-WSM090.AT2,IMPVALL.H\H-WSM180.AT2,IMPVALL.H\H-WSM-UP.AT2,90,180,A,-999,PEA,A,1,2.5,0.023,0.05,40.0,40.0,1.25,0.02875,0.0625,0.0625,0.08244,22.354,16.904,0.08246774,0.08275317,0.08447898,0.09726032,0.1298785,0.1764842,0.1310174,0.1538986,0.1452663,0.1380574,0.1678695,0.2191851,0.1264724,0.09257362,0.08031088,0.09221625,0.075281,0.06871249,0.069004,0.02936218,0.01618249,0.01814369,64.576357,5,50,-999.0,-999.0,-999,-999,0,-999,?
193,51,Imperial Valley-07,1979,1015,2319,Bonds Corner,210,5054,5.01,319.9,90.0,180,0,0.0,4.9,0.0,274.9,32.7667,-115.4413,9.5,0,7.261,3.6,4.2,15.3,-999.0,12.66,15.83,10.83,-999.0,15.64,13.04,2.11,na,168.75,0.51,0.53,12.55,-999,D,D,223.03,0,0.1,USGS,32.69305,-115.33819,1,GROUND LEVEL,4.8,-999,-999,1460.0,-999.0,3260.0,1400.0,-999.0,3260.0,-999.0,IMPVALL.A\A-BCR140.AT2,IMPVALL.A\A-BCR230.AT2,IMPVALL.A\A-BCR-UP.AT2,140,230,A,-999,PEA,A,1,2.5,0.6,0.4,30.0,30.0,1.25,0.75,0.5,0.75,0.1046,6.2258,1.013,0.104752,0.1054416,0.1150404,0.1394102,0.140229,0.1568584,0.1610145,0.1778357,0.1266367,0.1004873,0.1083645,0.127667,0.1193966,0.07757293,0.03249783,0.0157143,0.006107462,0.00291779,0.001738118,0.001186027,0.000756372,0.000423412,-999.0,5,50,-999.0,-999.0,-999,-999,0,-999,^
194,51,Imperial Valley-07,1979,1015,2319,Brawley Airport,216,5060,5.01,319.9,90.0,180,0,0.0,4.9,0.0,274.9,32.7667,-115.4413,9.5,0,7.261,3.6,4.2,15.3,-999.0,25.84,27.53,24.26,-999.0,27.51,25.32,10.94,na,26.81,0.49,0.53,49.04,-999,D,D,208.71,0,0.1,USGS,32.991,-115.513,1,GROUND LEVEL,5.2,-999,-999,1620.0,-999.0,3820.0,1500.0,-999.0,3460.0,-999.0,IMPVALL.A\A-BRA225.AT2,IMPVALL.A\A-BRA315.AT2,IMPVALL.A\A-BRA-UP.AT2,225,315,A,-999,PEA,A,1,2.5,0.5,1.0,30.0,30.0,1.25,0.625,1.25,1.25,0.052831,2.4855,0.19199,0.05287939,0.05341798,0.05566117,0.06219122,0.08008897,0.07476629,0.1080304,0.1188581,0.103424,0.08148655,0.06326085,0.04419083,0.02265801,0.01356595,0.006576081,0.002322756,0.001006047,0.000670562,0.000413941,0.000264176,0.000152944,8.03477e-05,-999.0,5,50,-999.0,-999.0,-999,-999,0,-999,Y
195,51,Imperial Valley-07,1979,1015,2319,Calexico Fire Station,209,5053,5.01,319.9,90.0,180,0,0.0,4.9,0.0,274.9,32.7667,-115.4413,9.5,0,7.261,3.6,4.2,15.3,-999.0,11.85,15.19,11.17,-999.0,15.09,13.32,-10.67,na,-107.19,0.51,0.53,48.31,-999,D,D,231.23,0,0.1,USGS,32.6695,-115.493,1,GROUND LEVEL,5.0,-999,-999,1360.0,-999.0,3060.0,1280.0,-999.0,2960.0,-999.0,IMPVALL.A\A-CXO225.AT2,IMPVALL.A\A-CXO315.AT2,IMPVALL.A\A-CXO-UP.AT2,225,315,A,-999,PEA,A,1,2.5,0.4,0.43,30.0,30.0,1.25,0.5,0.5375,0.5375,0.088034,7.5029,0.84485,0.0882995,0.08892934,0.09312692,0.1045595,0.1321201,0.107808,0.1824688,0.1771917,0.1882729,0.170813,0.1869525,0.1833902,0.1083408,0.05852297,0.0228209,0.01074267,0.004735752,0.002813001,0.001753816,0.00117231,0.000713232,0.000379113,-999.0,5,50,-999.0,-999.0,-999,-999,0,-999,?
196,51,Imperial Valley-07,1979,1015,2319,Delta,241,6605,5.01,319.9,90.0,180,0,0.0,4.9,0.0,274.9,32.7667,-115.4413,9.5,0,7.261,3.6,4.2,15.3,-999.0,51.21,52.08,49.4,-999.0,51.99,49.93,-11.68,na,-166.33,0.51,0.53,50.87,-999,-999,D,242.05,3b_4b_4c,0.37,UNAMUCSD,32.356,-115.195,0,GROUND LEVEL,7.5,-999,-999,1460.0,-999.0,3160.0,2260.0,-999.0,2260.0,-999.0,IMPVALL.A\A-DLT262.AT2,IMPVALL.A\A-DLT352.AT2,IMPVALL.A\A-DLTDWN.AT2,262,352,D,-999,PEA,A,1,2.5,2.0,0.8,23.0,30.0,1.25,2.5,1.0,2.5,0.091092,3.5013,0.29082,0.0915468,0.09270636,0.1023086,0.1172167,0.1682784,0.252421,0.2121764,0.1574612,0.1359644,0.1367061,0.09680735,0.04155565,0.047297,0.04271286,0.00923699,0.004218757,0.001465973,0.000817326,0.000511177,0.000344189,0.000211633,0.000114377,-999.0,5,50,-999.0,-999.0,-999,-999,0,-999,Y
197,51,Imperial Valley-07,1979,1015,2319,El Centro Array #1,212,5056,5.01,319.9,90.0,180,0,0.0,4.9,0.0,274.9,32.7667,-115.4413,9.5,0,7.261,3.6,4.2,15.3,-999.0,24.36,26.15,23.76,-999.0,26.14,24.84,22.59,na,71.95,0.49,0.53,67.19,-999,D,D,237.33,0,0.1,USGS,32.96,-115.319,1,GROUND LEVEL,3.5,-999,-999,1260.0,-999.0,2860.0,1280.0,-999.0,2960.0,-999.0,IMPVALL.A\A-E01140.AT2,IMPVALL.A\A-E01230.AT2,IMPVALL.A\A-E01-UP.AT2,140,230,A,-999,PEA,A,1,2.5,0.6,0.6,33.0,40.0,1.25,0.75,0.75,0.75,0.055628,3.6494,0.39996,0.0557293,0.05678801,0.05734433,0.07338861,0.06562861,0.0847002,0.08835159,0.097993,0.1139337,0.1140436,0.1198459,0.09805217,0.04977127,0.02467366,0.009702362,0.004435833,0.00243189,0.00102104,0.000598063,0.000426986,0.00028799,0.000167482,-999.0,5,50,-999.0,-999.0,-999,-999,0,-999,?
198,51,Imperial Valley-07,1979,1015,2319,El Centro Array #10,103,412,5.01,319.9,90.0,180,0,0.0,4.9,0.0,274.9,32.7667,-115.4413,9.5,0,7.261,3.6,4.2,15.3,-999.0,11.96,15.28,10.73,-999.0,15.19,12.96,-8.08,na,-48.83,0.49,0.53,40.38,-999,D,D,202.85,0,0.1,USGS,32.7806,-115.5681,1,GROUND LEVEL,4.9,-999,-999,1460.0,-999.0,3260.0,1420.0,-999.0,5240.0,-999.0,IMPVALL.A\A-E10050.AT2,IMPVALL.A\A-E10320.AT2,IMPVALL.A\A-E10-UP.AT2,50,320,A,-999,PEA,A,1,2.5,0.5,0.5,30.0,30.0,1.25,0.625,0.625,0.625,0.052531,3.3531,0.31845,0.05276384,0.05644216,0.05969704,0.117051,0.09554151,0.08061675,0.07503494,0.09647308,0.07175636,0.09521127,0.1036337,0.09170833,0.04749025,0.02641853,0.01183434,0.007065643,0.002216142,0.000985873,0.000514318,0.000371465,0.000246156,0.000138426,-999.0,5,50,-999.0,-999.0,-999,-999,0,-999,?
199,51,Imperial Valley-07,1979,1015,2319,El Centro Array #11,214,5058,5.01,319.9,90.0,180,0,0.0,4.9,0.0,274.9,32.7667,-115.4413,9.5,0,7.261,3.6,4.2,15.3,-999.0,14.5,17.33,13.61,-999.0,17.29,15.42,-12.09,na,-62.7,0.49,0.53,51.84,-999,D,D,196.25,0,0.1,USGS,32.75172,-115.59516,1,GROUND LEVEL,5.0,-999,-999,1460.0,-999.0,3260.0,1420.0,-999.0,3260.0,-999.0,IMPVALL.A\A-E11140.AT2,IMPVALL.A\A-E11230.AT2,IMPVALL.A\A-E11-UP.AT2,140,230,A,-999,PEA,A,1,2.5,0.43,0.7,30.0,30.0,1.25,0.5375,0.875,0.875,0.1873,10.216,1.1777,0.1876055,0.1896269,0.1955741,0.2032451,0.2364723,0.2113153,0.2276366,0.2553103,0.2879259,0.3584318,0.3973793,0.3066974,0.1337014,0.07331733,0.02766009,0.01381236,0.00477342,0.003014083,0.002037884,0.0014164,0.000890019,0.000489042,-999.0,5,50,-999.0,-999.0,-999,-999,0,-999,?
200,51,Imperial Valley-07,1979,1015,2319,El Centro Array #2,228,5115,5.01,319.9,90.0,180,0,0.0,4.9,0.0,274.9,32.7667,-115.4413,9.5,0,7.261,3.6,4.2,15.3,-999.0,18.04,20.39,17.32,-999.0,20.37,18.78,16.08,na,68.2,0.49,0.53,59.42,-999,D,D,188.78,0,0.1,USGS,32.916,-115.366,0,GROUND LEVEL,5.5,-999,-999,1440.0,-999.0,3140.0,1540.0,-999.0,3540.0,-999.0,IMPVALL.A\A-E02140.AT2,IMPVALL.A\A-E02230.AT2,IMPVALL.A\A-E02-UP.AT2,140,230,A,-999,PEA,A,1,2.5,0.5,0.8,30.0,40.0,1.25,0.625,1.0,1.0,0.12721,7.6929,0.88867,0.1277058,0.1279994,0.1298435,0.1321968,0.1642402,0.1877949,0.217023,0.199827,0.2276063,0.2314944,0.2880196,0.2365259,0.1118329,0.05632932,0.01878302,0.008541352,0.004464779,0.002500141,0.001520135,0.00102132,0.000638753,0.000355753,-999.0,5,50,-999.0,-999.0,-999,-999,0,-999,Y
201,51,Imperial Valley-07,1979,1015,2319,El Centro Array #3,213,5057,5.01,319.9,90.0,180,0,0.0,4.9,0.0,274.9,32.7667,-115.4413,9.5,0,7.261,3.6,4.2,15.3,-999.0,15.28,17.99,14.54,-999.0,17.96,16.25,13.5,na,68.21,0.49,0.53,54.87,-999,D,E,162.94,0,0.05,USGS,32.894,-115.38,1,GROUND LEVEL,5.7,-999,-999,1540.0,-999.0,3440.0,1600.0,-999.0,3720.0,-999.0,IMPVALL.A\A-E03140.AT2,IMPVALL.A\A-E03230.AT2,IMPVALL.A\A-E03-UP.AT2,140,230,A,-999,PEA,A,1,2.5,0.4,0.43,30.0,30.0,1.25,0.5,0.5375,0.5375,0.12695,9.4702,0.92297,0.1272389,0.1284446,0.1327257,0.1381358,0.1628888,0.2157457,0.280635,0.2875948,0.2867669,0.2660679,0.2399426,0.2080259,0.1177525,0.06652477,0.02210906,0.01148053,0.00437894,0.002701517,0.00167349,0.001105796,0.000673571,0.000367597,-999.0,5,50,-999.0,-999.0,-999,-999,0,-999,Y
202,51,Imperial Valley-07,1979,1015,2319,El Centro Array #4,119,955,5.01,319.9,90.0,180,0,0.0,4.9,0.0,274.9,32.7667,-115.4413,9.5,0,7.261,3.6,4.2,15.3,-999.0,10.86,14.43,9.69,-999.0,14.33,12.11,7.63,na,51.98,0.49,0.53,38.78,-999,D,D,208.91,0,0.1,USGS,32.864,-115.432,0,GROUND LEVEL,5.6,-999,-999,1640.0,-999.0,3840.0,1600.0,-999.0,3680.0,-999.0,IMPVALL.A\A-E04140.AT2,IMPVALL.A\A-E04230.AT2,IMPVALL.A\A-E04-UP.AT2,140,230,A,-999,PEA,A,1,2.5,0.6,0.6,33.0,33.0,1.25,0.75,0.75,0.75,0.17185,10.161,0.8622,0.1728271,0.184299,0.2013342,0.2500679,0.3078588,0.3617732,0.4136673,0.4574423,0.4416696,0.4011957,0.3668725,0.2397616,0.1001391,0.04700093,0.02083034,0.01127485,0.004339758,0.00227161,0.0014255,0.000984652,0.000626457,0.000350825,-999.0,5,50,-999.0,-999.0,-999,-999,0,-999,Y
203,51,Imperial Valley-07,1979,1015,2319,El Centro Array #5,118,952,5.01,319.9,90.0,180,0,0.0,4.9,0.0,274.9,32.7667,-115.4413,9.5,0,7.261,3.6,4.2,15.3,-999.0,10.09,13.86,8.56,-999.0,13.73,11.23,4.56,na,32.16,0.49,0.53,25.63,-999,D,D,205.63,0,0.1,USGS,32.855,-115.466,0,GROUND LEVEL,5.7,-999,-999,1620.0,-999.0,3620.0,1600.0,-999.0,5740.0,-999.0,IMPVALL.A\A-E05140.AT2,IMPVALL.A\A-E05230.AT2,IMPVALL.A\A-E05-UP.AT2,140,230,A,-999,PEA,A,1,2.5,0.3,0.4,30.0,30.0,1.25,0.375,0.5,0.5,0.21893,12.914,1.2793,0.2206267,0.2252565,0.2314927,0.2748498,0.4048263,0.4001665,0.4371256,0.4500009,0.4334873,0.4361177,0.3240806,0.2596932,0.1295575,0.07478069,0.03147415,0.0198626,0.006436796,0.004090931,0.002164232,0.001524157,0.000977424,0.00054288,-999.0,5,50,-999.0,-999.0,-999,-999,0,-999,Y
204,51,Imperial Valley-07,1979,1015,2319,El Centro Array #6,230,5158,5.01,319.9,90.0,180,0,0.0,4.9,0.0,274.9,32.7667,-115.4413,9.5,0,7.261,3.6,4.2,15.3,-999.0,9.11,13.16,7.4,-999.0,13.01,10.37,1.91,na,14.94,0.49,0.53,11.36,-999,D,D,203.22,0,0.1,CDMG,32.839,-115.487,0,GROUND LEVEL,5.6,-999,-999,1520.0,-999.0,3520.0,1560.0,-999.0,5600.0,-999.0,IMPVALL.A\A-E06140.AT2,IMPVALL.A\A-E06230.AT2,IMPVALL.A\A-E06-UP.AT2,140,230,A,-999,PEA,A,1,2.5,0.5,0.33,30.0,23.0,1.25,0.625,0.4125,0.625,0.23052,18.475,1.9956,0.2312426,0.2324587,0.2393132,0.2815883,0.3740786,0.3513655,0.4962437,0.535282,0.5731481,0.6421183,0.5402324,0.4366553,0.2874684,0.161565,0.06384555,0.02855094,0.01071899,0.005593778,0.003329384,0.002234973,0.001410785,0.000793458,-999.0,5,50,-999.0,-999.0,-999,-999,0,-999,^
205,51,Imperial Valley-07,1979,1015,2319,El Centro Array #7,200,5028,5.01,319.9,90.0,180,0,0.0,4.9,0.0,274.9,32.7667,-115.4413,9.5,0,7.261,3.6,4.2,15.3,-999.0,9.08,13.14,7.32,-999.0,12.98,10.31,-0.02,na,-0.19,0.49,0.53,0.15,-999,D,D,210.51,0,0.1,USGS,32.829,-115.504,1,GROUND LEVEL,5.4,-999,-999,1540.0,-999.0,3440.0,1520.0,-999.0,5500.0,-999.0,IMPVALL.A\A-E07140.AT2,IMPVALL.A\A-E07230.AT2,IMPVALL.A\A-E07-UP.AT2,140,230,A,-999,PEA,A,1,2.5,0.6,0.4,30.0,30.0,1.25,0.75,0.5,0.75,0.1803,10.707,1.0162,0.180427,0.1840346,0.1922184,0.2075619,0.2464502,0.2766178,0.3037064,0.3989221,0.3945272,0.3168579,0.2663582,0.1950493,0.1117055,0.06790917,0.03415221,0.01597948,0.005987218,0.00303675,0.001824745,0.001222119,0.000760598,0.000418434,-999.0,5,50,-999.0,-999.0,-999,-999,0,-999,Y
206,51,Imperial Valley-07,1979,1015,2319,El Centro Array #8,120,958,5.01,319.9,90.0,180,0,0.0,4.9,0.0,274.9,32.7667,-115.4413,9.5,0,7.261,3.6,4.2,15.3,-999.0,9.81,13.66,8.18,-999.0,13.52,10.94,-3.32,na,-23.93,0.49,0.53,19.25,-999,D,D,206.08,0,0.1,USGS,32.811,-115.532,0,GROUND LEVEL,5.1,-999,-999,1440.0,-999.0,3140.0,1440.0,-999.0,5400.0,-999.0,IMPVALL.A\A-E08140.AT2,IMPVALL.A\A-E08230.AT2,IMPVALL.A\A-E08-UP.AT2,140,230,A,-999,PEA,A,1,2.5,0.5,0.4,40.0,40.0,1.25,0.625,0.5,0.625,0.13414,8.2072,0.75245,0.1351986,0.1402288,0.1525102,0.2027863,0.1859628,0.2967375,0.2297798,0.182721,0.2448583,0.267487,0.234446,0.2007009,0.09785369,0.05323629,0.02309303,0.01662159,0.004339109,0.002230407,0.001289931,0.000890177,0.000557943,0.000307001,-999.0,5,50,-999.0,-999.0,-999,-999,0,-999,^
207,51,Imperial Valley-07,1979,1015,2319,El Centro Differential Array,232,5165,5.01,319.9,90.0,180,0,0.0,4.9,0.0,274.9,32.7667,-115.4413,9.5,0,7.261,3.6,4.2,15.3,-999.0,9.35,13.33,7.87,-999.0,13.2,10.71,-4.61,na,-35.84,0.49,0.53,25.87,-999,D,D,202.26,0,0.1,USGS,32.796,-115.535,0,GROUND LEVEL,5.0,-999,-999,1440.0,-999.0,3140.0,1420.0,-999.0,5340.0,-999.0,IMPVALL.A\A-EDA270.AT2,IMPVALL.A\A-EDA360.AT2,IMPVALL.A\A-EDA-UP.AT2,270,0,A,-999,PEA,A,1,2.5,0.4,0.8,33.0,30.0,1.25,0.5,1.0,1.0,0.15199,9.0438,0.85855,0.1524108,0.1551926,0.1588677,0.1699494,0.1978653,0.3012607,0.3762138,0.2876604,0.3153997,0.3358155,0.2802643,0.2132444,0.09782664,0.05613168,0.02273322,0.01188414,0.005778327,0.002661648,0.001461181,0.000959654,0.000606596,0.000343954,-999.0,5,50,-999.0,-999.0,-999,-999,0,-999,^
208,51,Imperial Valley-07,1979,1015,2319,Holtville Post Office,211,5055,5.01,319.9,90.0,180,0,0.0,4.9,0.0,274.9,32.7667,-115.4413,9.5,0,7.261,3.6,4.2,15.3,-999.0,7.69,12.22,7.69,-999.0,12.09,10.58,7.69,na,90.0,0.01,0.53,38.99,-999,D,D,202.89,0,0.1,USGS,32.81141,-115.3786,1,GROUND LEVEL,5.3,-999,-999,1560.0,-999.0,3460.0,1500.0,-999.0,5220.0,-999.0,IMPVALL.A\A-HVP225.AT2,IMPVALL.A\A-HVP315.AT2,IMPVALL.A\A-HVP-UP.AT2,225,315,A,-999,PEA,A,1,2.5,0.5,0.3,30.0,30.0,1.25,0.625,0.375,0.625,0.19587,13.086,2.2248,0.1960999,0.1982969,0.2018851,0.2152663,0.2542903,0.3373899,0.4519573,0.2964077,0.328116,0.2686051,0.3311302,0.346975,0.2302112,0.1310037,0.05427173,0.02192644,0.01210712,0.008037349,0.004986515,0.003242291,0.001910636,0.000992463,-999.0,5,50,-999.0,-999.0,-999,-999,0,-999,^
210,53,Livermore-01,1980,124,1900,APEEL 3E Hayward CSUH,469,58219,5.8,167.0,85.0,160,0,10.33,214.51,17.61,121.2,37.855,-121.816,12.0,0,7.063,7.4,7.4,54.6,-999.0,30.82,33.08,29.19,-999.0,33.2,30.59,26.41,na,62.52,0.39,0.67,70.2,-999,S,C,517.06,0,0.2,CDMG,37.657,-122.061,0,GROUND LEVEL,0.003,-999,-999,30.0,-999.0,-999.0,30.0,-999.0,-999.0,-999.0,LIVERMOR\A-A3E146.AT2,LIVERMOR\A-A3E236.AT2,LIVERMOR\A-A3E-UP.AT2,146,236,A,-999,PEA,A,1,2.5,0.2,0.2,20.0,20.0,1.25,0.25,0.25,0.25,0.061414,3.2458,0.58184,0.06154551,0.06220567,0.06344643,0.06743709,0.08128439,0.1012596,0.2215182,0.2828057,0.1325316,0.1615437,0.1030001,0.07262193,0.04710906,0.03354573,0.02753794,0.01351269,0.005431074,0.002812584,0.001595289,0.000868113,0.000564693,0.000314628,-999.0,5,50,-999.0,-999.0,-999,-999,0,-999,?
211,53,Livermore-01,1980,124,1900,Antioch - 510 G St,491,67070,5.8,167.0,85.0,160,0,10.33,214.51,17.61,121.2,37.855,-121.816,12.0,0,7.063,7.4,7.4,54.6,-999.0,17.81,21.48,13.38,-999.0,19.9,15.13,-4.08,na,-162.24,0.61,0.67,15.6,-999,S,D,304.68,2a_3a_4b_4c,0.25,CDMG,38.015,-121.81,1,BASEMENT,-999.0,-999,-999,600.5,1398.6,3500.2,600.5,1398.6,3500.2,-999.0,LIVERMOR\A-ANT270.AT2,LIVERMOR\A-ANT360.AT2,LIVERMOR\A-ANT-UP.AT2,270,0,A,-999,PEA,A,1,2.5,0.18,0.18,13.0,13.0,1.25,0.225,0.225,0.225,0.034578,3.7738,0.87291,0.03459349,0.03465001,0.03481567,0.03539451,0.03662609,0.03913914,0.04862969,0.06552569,0.07232767,0.07117724,0.07627498,0.09700531,0.07726543,0.0524461,0.02824865,0.01777966,0.009067976,0.00558199,0.002693377,0.001469006,0.000789377,0.000391085,-999.0,5,50,-999.0,-999.0,-999,-999,0,-999,Y
212,53,Livermore-01,1980,124,1900,Del Valle Dam (Toe),157,1265,5.8,167.0,85.0,160,0,10.33,214.51,17.61,121.2,37.855,-121.816,12.0,0,7.063,7.4,7.4,54.6,-999.0,26.79,29.35,23.92,-999.0,29.47,24.95,0.64,na,1.52,0.39,0.67,5.98,-999,S,C,403.37,2a_3a_4b_4c,0.25,CDWR,37.62,-121.75,0,"TOE, INSTRUMENT SHELTER D",-999.0,-999,-999,346.2,773.4,1620.4,346.2,773.4,1620.4,-999.0,LIVERMOR\A-DVD156.AT2,LIVERMOR\A-DVD246.AT2,LIVERMOR\A-DVD-UP.AT2,156,246,A,-999,PEA,A,1,2.5,0.1,0.13,30.0,30.0,1.25,0.125,0.1625,0.1625,0.18796,14.46,3.8896,0.1881163,0.1892083,0.1929543,0.1930585,0.2009368,0.2473231,0.3156796,0.5066248,0.411331,0.3447484,0.2891264,0.2545375,0.1326003,0.1322869,0.1077003,0.08454935,0.02811658,0.01652911,0.01118808,0.007072618,0.004004251,0.001853266,-999.0,5,50,-999.0,-999.0,-999,-999,0,-999,?
213,53,Livermore-01,1980,124,1900,Fremont - Mission San Jose,444,57064,5.8,167.0,85.0,160,0,10.33,214.51,17.61,121.2,37.855,-121.816,12.0,0,7.063,7.4,7.4,54.6,-999.0,37.28,39.17,34.66,-999.0,39.49,35.68,17.41,na,29.86,0.39,0.67,59.75,-999,D,C,367.57,0,0.2,CDMG,37.53,-121.919,1,GROUND LEVEL,2.3,-999,-999,345.3,749.4,3497.3,345.3,749.4,3497.3,-999.0,LIVERMOR\A-FRE075.AT2,LIVERMOR\A-FRE345.AT2,LIVERMOR\A-FRE-UP.AT2,75,345,A,-999,PEA,A,1,2.5,0.2,0.14,13.0,15.0,1.25,0.25,0.175,0.25,0.04942,4.2761,1.091,0.04952001,0.04973612,0.05011356,0.05186143,0.05760728,0.05326442,0.07887543,0.1165053,0.1308639,0.1761437,0.112295,0.08033632,0.05341243,0.05128705,0.04940761,0.03032862,0.01061165,0.004760635,0.002824741,0.001743976,0.000946484,0.000485097,-999.0,5,50,-999.0,-999.0,-999,-999,0,-999,?
214,53,Livermore-01,1980,124,1900,San Ramon - Eastman Kodak,447,57187,5.8,167.0,85.0,160,0,10.33,214.51,17.61,121.2,37.855,-121.816,12.0,0,7.063,7.4,7.4,54.6,-999.0,17.13,20.92,15.19,-999.0,20.75,17.24,13.18,na,56.95,0.39,0.67,51.74,-999,D,C,377.51,2a_3a_4b_4c,0.25,CDMG,37.729,-121.928,1,GROUND LEVEL,3.0,-999,-999,602.5,1396.1,3402.0,602.5,1396.1,3402.0,-999.0,LIVERMOR\A-KOD180.AT2,LIVERMOR\A-KOD270.AT2,LIVERMOR\A-KOD-UP.AT2,180,270,A,-999,PEA,A,1,2.5,0.07,0.12,20.0,20.0,1.25,0.0875,0.15,0.15,0.11938,16.315,4.2718,0.119388,0.1196698,0.1202379,0.1228075,0.1257344,0.1431674,0.1722296,0.1964724,0.2074268,0.2272311,0.1999516,0.2173987,0.2522145,0.1988597,0.09286998,0.1102429,0.04869726,0.01938643,0.0100924,0.006377136,0.004000854,0.002477081,-999.0,5,50,-999.0,-999.0,-999,-999,0,-999,?
