Record Sequence Number,EQID,Earthquake Name,YEAR,MODY,HRMN,Station Name,Station Sequence Number,Station ID  No.,Earthquake Magnitude,Strike (deg),Dip (deg),Rake Angle (deg),Mechanism Based on Rake Angle,P-plunge (deg),P-trend (deg),T-plunge (deg),T-trend (deg),Hypocenter Latitude (deg),Hypocenter Longitude (deg),Hypocenter Depth (km),Finite Rupture Model: 1=Yes;  0=No,Depth to Top Of Fault Rupture Model,Fault Rupture Length for Calculation of Ry (km),Fault Rupture Width (km),Fault Rupture Area (km^2),Average Vr/Vs,EpiD (km),HypD (km),Joyner-Boore Dist. (km),Campbell R Dist. (km),RmsD (km),ClstD (km),Rx,FW/HW Indicator,Source to Site Azimuth (deg),X,Y,Phi.D (deg),Unused Column.2,Depth,Preferred NEHRP Based on Vs30,Vs30 (m/s) selected for analysis,Measured/Inferred Class,Sigma of Vs30 (in natural log Units),Owner,Station Latitude,Station Longitude,STORIES,INSTLOC,Depth to Basement Rock,Site Visited,NGA Type,Northern CA/Southern CA - H11 Z1 (m),Northern CA/Southern CA - H11 Z1.5 (m),Northern CA/Southern CA - H11 Z2.5 (m),Northern CA/Southern CA - S4 Z1 (m),Northern CA/Southern CA - S4 Z1.5 (m),Northern CA/Southern CA - S4 Z2.5 (m),Rebe (m),File Name (Horizontal 1),File Name (Horizontal 2),File Name (Vertical),H1 azimth (degrees),H2 azimith (degrees),Type of Recording,Instrument Model,PEA Processing Flag,Type of Filter,npass,nroll,HP-H1 (Hz),HP-H2 (Hz),LP-H1 (Hz),LP-H2 (Hz),Factor,Lowest Usable Freq - H1 (Hz),Lowest Usable Freq - H2 (H2),Lowest Usable Freq - Ave. Component (Hz),PGA (g),PGV (cm/sec),PGD (cm),T0.010S,T0.020S,T0.030S,T0.050S,T0.075S,T0.100S,T0.150S,T0.200S,T0.250S,T0.300S,T0.400S,T0.500S,T0.750S,T1.000S,T1.500S,T2.000S,T3.000S,T4.000S,T5.000S,T6.000S,T7.500S,T10.000S,U,Damping (%),RotD percentile,Instrument Nat. Freq.,Instrument Damping,Instrument Type,Quality_Flag,Spectra Quality Flag,Late S-trigger,Late P-trigger
215,53,Livermore-01,1980,124,1900,San Ramon Fire Station,446,57134,5.8,167.0,85.0,160,0,10.33,214.51,17.61,121.2,37.855,-121.816,12.0,0,7.063,7.4,7.4,54.6,-999.0,16.66,20.53,15.84,-999.0,20.23,17.93,16.36,na,82.97,0.39,0.67,58.0,-999,D,C,384.47,2a_3a_4b_4c,0.25,CDMG,37.78,-121.98,1,GROUND LEVEL,-999.0,-999,-999,596.0,1390.7,3340.7,596.0,1390.7,3340.7,-999.0,LIVERMOR\A-SRM070.AT2,LIVERMOR\A-SRM340.AT2,LIVERMOR\A-SRM-UP.AT2,70,340,A,-999,PEA,A,1,2.5,0.18,0.2,15.0,15.0,1.25,0.225,0.25,0.25,0.041699,4.0453,1.1694,0.04176163,0.04217418,0.04294406,0.04542061,0.05721062,0.1059528,0.09746179,0.1428088,0.1307224,0.1192739,0.1251707,0.0905867,0.07323194,0.08430779,0.03757804,0.02777816,0.01423038,0.005694245,0.003506918,0.00167085,0.000908381,0.00054901,-999.0,5,50,-999.0,-999.0,-999,-999,0,-999,Y
216,53,Livermore-01,1980,124,1900,Tracy - Sewage Treatm Plant,443,57063,5.8,167.0,85.0,160,0,10.33,214.51,17.61,121.2,37.855,-121.816,12.0,0,7.063,7.4,7.4,54.6,-999.0,56.12,57.38,53.35,-999.0,57.76,53.82,-23.8,na,-26.49,0.39,0.67,58.65,-999,D,C,650.05,2a_3a_4b_4c,0.4,CDMG,37.46,-121.42,-999,-999,-999.0,-999,-999,0.0,271.1,843.3,0.0,271.1,843.3,-999.0,LIVERMOR\A-STP093.AT2,LIVERMOR\A-STP183.AT2,LIVERMOR\A-STP-UP.AT2,93,183,A,-999,PEA,A,1,2.5,0.15,0.08,13.0,13.0,1.25,0.1875,0.1,0.1875,0.061022,6.6251,1.9005,0.06106503,0.06149007,0.06215824,0.06550339,0.06963634,0.07332885,0.1072486,0.1548285,0.1786447,0.2253038,0.1760646,0.0998062,0.1151947,0.09670594,0.08737439,0.04558718,0.02966523,0.01008477,0.006376705,0.004900148,0.003314493,0.001478351,-999.0,5,50,-999.0,-999.0,-999,-999,0,-999,Y
217,54,Livermore-02,1980,127,233,APEEL 3E Hayward CSUH,469,58219,5.42,321.0,70.0,161,0,1.46,189.03,27.27,279.78,37.737,-121.74,14.5,0,11.376,5.6,4.2,23.5,-999.0,29.63,32.99,27.76,-999.0,32.3,30.0,-26.4,fw,-72.02,0.43,0.79,42.23,-999,S,C,517.06,0,0.2,CDMG,37.657,-122.061,0,GROUND LEVEL,0.003,-999,-999,30.0,-999.0,-999.0,30.0,-999.0,-999.0,-999.0,LIVERMOR\B-A3E146.AT2,LIVERMOR\B-A3E236.AT2,LIVERMOR\B-A3E-UP.AT2,146,236,A,-999,PEA,A,1,2.5,0.15,0.1,20.0,14.0,1.25,0.1875,0.125,0.1875,0.042252,2.8962,0.61391,0.04225646,0.04240951,0.04264985,0.0437807,0.04874631,0.07110799,0.1001216,0.08431254,0.1000247,0.128133,0.08493008,0.07175395,0.05817354,0.04245014,0.0180577,0.009483792,0.004093998,0.002578924,0.001466138,0.000862242,0.000492383,0.000256521,-999.0,5,50,-999.0,-999.0,-999,-999,0,-999,Y
218,54,Livermore-02,1980,127,233,Antioch - 510 G St,491,67070,5.42,321.0,70.0,161,0,1.46,189.03,27.27,279.78,37.737,-121.74,14.5,0,11.376,5.6,4.2,23.5,-999.0,31.54,34.71,29.31,-999.0,34.72,32.13,15.86,nu,31.86,0.43,0.79,65.44,-999,S,D,304.68,2a_3a_4b_4c,0.25,CDMG,38.015,-121.81,1,BASEMENT,-999.0,-999,-999,600.5,1398.6,3500.2,600.5,1398.6,3500.2,-999.0,LIVERMOR\B-ANT270.AT2,LIVERMOR\B-ANT360.AT2,LIVERMOR\B-ANT-UP.AT2,270,0,A,-999,PEA,A,1,2.5,0.2,0.3,13.0,13.0,1.25,0.25,0.375,0.375,0.080132,4.8973,0.57522,0.08021566,0.08056424,0.08108655,0.08309776,0.08930243,0.09866495,0.1246931,0.1639352,0.2117871,0.2119755,0.1270354,0.1068656,0.0660151,0.0424548,0.02169194,0.009249458,0.003575244,0.002143101,0.001273947,0.000889121,0.000546939,0.000285855,-999.0,5,50,-999.0,-999.0,-999,-999,0,-999,?
219,54,Livermore-02,1980,127,233,Del Valle Dam (Toe),157,1265,5.42,321.0,70.0,161,0,1.46,189.03,27.27,279.78,37.737,-121.74,14.5,0,11.376,5.6,4.2,23.5,-999.0,13.05,19.51,10.03,-999.0,18.2,15.17,-7.75,nu,-129.4,0.57,0.79,11.5,-999,S,C,403.37,2a_3a_4b_4c,0.25,CDWR,37.62,-121.75,0,"TOE, INSTRUMENT SHELTER D",-999.0,-999,-999,346.2,773.4,1620.4,346.2,773.4,1620.4,-999.0,LIVERMOR\B-DVD156.AT2,LIVERMOR\B-DVD246.AT2,LIVERMOR\B-DVD-UP.AT2,156,246,A,-999,PEA,A,1,2.5,0.5,0.23,30.0,23.0,1.25,0.625,0.2875,0.625,0.044141,2.2577,0.27333,0.04425339,0.04473404,0.04550003,0.04644141,0.06497563,0.1187517,0.1424538,0.1093176,0.134449,0.1102298,0.06494945,0.0573995,0.03408865,0.02760124,0.01234989,0.006988485,0.001989279,0.001000494,0.000606855,0.000396471,0.000236013,0.000123742,-999.0,5,50,-999.0,-999.0,-999,-999,0,-999,Y
220,54,Livermore-02,1980,127,233,Fremont - Mission San Jose,444,57064,5.42,321.0,70.0,161,0,1.46,189.03,27.27,279.78,37.737,-121.74,14.5,0,11.376,5.6,4.2,23.5,-999.0,27.92,31.46,26.07,-999.0,30.5,28.44,-25.63,fw,-100.47,0.57,0.79,41.56,-999,D,C,367.57,0,0.2,CDMG,37.53,-121.919,1,GROUND LEVEL,2.3,-999,-999,345.3,749.4,3497.3,345.3,749.4,3497.3,-999.0,LIVERMOR\B-FRE075.AT2,LIVERMOR\B-FRE345.AT2,LIVERMOR\B-FRE-UP.AT2,75,345,A,-999,PEA,A,1,2.5,0.3,0.23,15.0,15.0,1.25,0.375,0.2875,0.375,0.037162,4.1164,0.68093,0.03719155,0.03725312,0.03771166,0.0383322,0.04013927,0.04463819,0.05851945,0.07264823,0.06729057,0.05987276,0.06539348,0.09235902,0.07910512,0.0568318,0.02776765,0.01245062,0.004065377,0.001985225,0.00117753,0.00079827,0.000505052,0.000281412,-999.0,5,50,-999.0,-999.0,-999,-999,0,-999,?
221,54,Livermore-02,1980,127,233,Livermore - Fagundas Ranch,455,57T01,5.42,321.0,70.0,161,0,1.46,189.03,27.27,279.78,37.737,-121.74,14.5,0,11.376,5.6,4.2,23.5,-999.0,3.33,14.88,0.79,-999.0,13.78,11.4,0.07,nu,5.24,0.43,0.79,15.8,-999,-999,C,387.04,2a_3a_4b_4c,0.25,CDMG,37.753,-121.772,0,GROUND LEVEL,-999.0,-999,-999,597.0,1393.1,3493.7,597.0,1393.1,3493.7,-999.0,LIVERMOR\B-LFA270.AT2,LIVERMOR\B-LFA360.AT2,LIVERMOR\B-LFA-UP.AT2,270,0,A,-999,PEA,A,1,2.5,0.3,0.23,20.0,18.0,1.25,0.375,0.2875,0.375,0.22218,12.358,0.9048,0.2223035,0.2229974,0.2234196,0.2341724,0.2691228,0.3648467,0.5948011,0.5322986,0.4535741,0.5604969,0.5311036,0.3661078,0.1234173,0.05549555,0.02293406,0.01229459,0.005087301,0.002668064,0.001615228,0.001096701,0.000693704,0.000382927,-999.0,5,50,-999.0,-999.0,-999,-999,0,-999,Y
222,54,Livermore-02,1980,127,233,Livermore - Morgan Terr Park,456,57T02,5.42,321.0,70.0,161,0,1.46,189.03,27.27,279.78,37.737,-121.74,14.5,0,11.376,5.6,4.2,23.5,-999.0,10.33,17.8,7.94,-999.0,17.11,14.12,3.13,nu,21.97,0.43,0.79,27.83,-999,S,C,550.88,2a_3a_4b_4c,0.33,CDMG,37.819,-121.795,-999,-999,-999.0,-999,-999,321.4,740.0,3520.4,321.4,740.0,3520.4,-999.0,LIVERMOR\B-LMO265.AT2,LIVERMOR\B-LMO355.AT2,LIVERMOR\B-LMO-UP.AT2,265,355,A,-999,PEA,A,1,2.5,0.3,0.3,30.0,23.0,1.25,0.375,0.375,0.375,0.23193,11.469,1.2637,0.2320631,0.2341505,0.236868,0.2680744,0.3313132,0.3420455,0.6318562,1.035414,0.4868912,0.2647022,0.2574614,0.2289988,0.1839283,0.1173517,0.038444,0.01839785,0.007135889,0.004127,0.002479953,0.001610414,0.000974096,0.000528738,-999.0,5,50,-999.0,-999.0,-999,-999,0,-999,?
223,54,Livermore-02,1980,127,233,San Ramon - Eastman Kodak,447,57187,5.42,321.0,70.0,161,0,1.46,189.03,27.27,279.78,37.737,-121.74,14.5,0,11.376,5.6,4.2,23.5,-999.0,16.57,22.02,14.31,-999.0,21.17,18.28,-12.26,nu,-58.98,0.43,0.79,22.74,-999,D,C,377.51,2a_3a_4b_4c,0.25,CDMG,37.729,-121.928,1,GROUND LEVEL,3.0,-999,-999,602.5,1396.1,3402.0,602.5,1396.1,3402.0,-999.0,LIVERMOR\B-KOD180.AT2,LIVERMOR\B-KOD270.AT2,LIVERMOR\B-KOD-UP.AT2,180,270,A,-999,PEA,A,1,2.5,0.2,0.2,23.0,23.0,1.25,0.25,0.25,0.25,0.19886,16.931,2.4867,0.1989373,0.1994818,0.2000578,0.2097618,0.2270451,0.2205007,0.3453325,0.3849826,0.435843,0.4517921,0.4236899,0.3711477,0.3061606,0.1784341,0.06525205,0.03410676,0.01204406,0.006920638,0.004394757,0.003012837,0.001893872,0.00104329,-999.0,5,50,-999.0,-999.0,-999,-999,0,-999,Y
224,54,Livermore-02,1980,127,233,San Ramon Fire Station,446,57134,5.42,321.0,70.0,161,0,1.46,189.03,27.27,279.78,37.737,-121.74,14.5,0,11.376,5.6,4.2,23.5,-999.0,21.65,26.06,19.09,-999.0,25.44,22.22,-12.22,nu,-39.81,0.43,0.79,22.66,-999,D,C,384.47,2a_3a_4b_4c,0.25,CDMG,37.78,-121.98,1,GROUND LEVEL,-999.0,-999,-999,596.0,1390.7,3340.7,596.0,1390.7,3340.7,-999.0,LIVERMOR\B-SRM070.AT2,LIVERMOR\B-SRM340.AT2,LIVERMOR\B-SRM-UP.AT2,70,340,A,-999,PEA,A,1,2.5,0.2,0.3,18.0,18.0,1.25,0.25,0.375,0.375,0.052721,3.8221,0.5013,0.05279078,0.05296707,0.05353177,0.05661898,0.06407888,0.07871746,0.08833817,0.1228256,0.121842,0.1571146,0.1449289,0.1137937,0.07063075,0.04196863,0.02224716,0.01233377,0.003372854,0.001775556,0.001136098,0.000613504,0.000361883,0.00020815,-999.0,5,50,-999.0,-999.0,-999,-999,0,-999,?
322,76,Coalinga-01,1983,502,2342,Cantua Creek School,411,46314,6.36,137.0,30.0,90,2,15.0,47.0,75.0,227.0,36.233,-120.31,4.6,1,3.4,16.0,11.0,176.0,-999.0,30.06,30.41,23.78,-999.0,32.87,24.02,-17.84,nu,-131.41,0.43,0.21,16.94,-999,D,D,274.73,2a_3a_4b_4c,0.25,CDMG,36.503,-120.32,1,GROUND LEVEL,-999.0,-999,-999,60.0,-999.0,240.0,-999.0,-999.0,-999.0,-999.0,COALINGA.H\H-CAK270.AT2,COALINGA.H\H-CAK360.AT2,COALINGA.H\H-CAK-UP.AT2,270,0,A,-999,PEA,A,1,2.5,0.08,0.07,23.0,23.0,1.25,0.1,0.0875,0.1,0.26953,26.213,10.37,0.2714199,0.2699811,0.2709834,0.2746107,0.2883528,0.3400869,0.3953699,0.6676718,0.6971383,0.7429352,0.8242159,0.8230927,0.4632521,0.3660675,0.1332643,0.09125318,0.07796328,0.05135638,0.02996458,0.02980538,0.02308828,0.009852182,-15.729781,5,50,-999.0,-999.0,-999,-999,0,-999,?
323,76,Coalinga-01,1983,502,2342,Parkfield - Cholame 12W,132,36229,6.36,137.0,30.0,90,2,15.0,47.0,75.0,227.0,36.233,-120.31,4.6,1,3.4,16.0,11.0,176.0,-999.0,66.64,66.8,55.05,-999.0,63.93,55.77,53.29,nu,57.93,0.57,0.79,35.12,-999,S,D,359.03,0,0.1,CDMG,35.639,-120.404,0,GROUND LEVEL,2.6,-999,-999,80.0,-999.0,3400.0,-999.0,-999.0,-999.0,-999.0,COALINGA.H\H-C12270.AT2,COALINGA.H\H-C12360.AT2,COALINGA.H\H-C12-UP.AT2,270,0,A,-999,PEA,A,1,2.5,0.13,0.09,23.0,21.0,1.25,0.1625,0.1125,0.1625,0.04495,5.1401,2.583,0.04548302,0.04514587,0.04546594,0.04630819,0.05371992,0.06086361,0.07869503,0.1206734,0.1165271,0.0814679,0.08896439,0.1289261,0.1014308,0.08483285,0.07711896,0.02737153,0.0149838,0.0100313,0.007135753,0.006100891,0.004787995,0.001833226,49.394141,5,50,-999.0,-999.0,-999,-999,0,-999,?
324,76,Coalinga-01,1983,502,2342,Parkfield - Cholame 1E,404,36452,6.36,137.0,30.0,90,2,15.0,47.0,75.0,227.0,36.233,-120.31,4.6,1,3.4,16.0,11.0,176.0,-999.0,54.61,54.8,42.76,-999.0,52.06,43.68,37.01,nu,48.48,0.57,0.79,37.49,-999,S,D,326.64,2a_3a_4b_4c,0.25,CDMG,35.743,-120.277,0,GROUND LEVEL,-999.0,-999,-999,80.0,-999.0,4120.0,-999.0,-999.0,-999.0,-999.0,COALINGA.H\H-C01000.AT2,COALINGA.H\H-C01090.AT2,COALINGA.H\H-C01-UP.AT2,0,90,A,-999,PEA,A,1,2.5,0.06,0.15,20.0,20.0,1.25,0.075,0.1875,0.1875,0.091789,12.963,3.5903,0.09265265,0.09183422,0.09231379,0.09455509,0.09637938,0.1027865,0.1256385,0.1509372,0.1606974,0.1971997,0.259105,0.2646641,0.2401865,0.1613476,0.1223025,0.0655315,0.02389723,0.01260484,0.006098345,0.004008323,0.002412976,0.001611315,48.763193,5,50,-999.0,-999.0,-999,-999,0,-999,?
325,76,Coalinga-01,1983,502,2342,Parkfield - Cholame 2E,373,36230,6.36,137.0,30.0,90,2,15.0,47.0,75.0,227.0,36.233,-120.31,4.6,1,3.4,16.0,11.0,176.0,-999.0,53.83,54.03,41.99,-999.0,51.31,42.92,35.21,nu,46.67,0.57,0.79,37.89,-999,S,C,522.74,0,0.2,CDMG,35.751,-120.259,0,GROUND LEVEL,-999.0,-999,-999,60.0,-999.0,4080.0,-999.0,-999.0,-999.0,-999.0,COALINGA.H\H-TM2000.AT2,COALINGA.H\H-TM2090.AT2,COALINGA.H\H-TM2-UP.AT2,0,90,A,-999,PEA,A,1,2.5,0.12,0.13,23.0,22.0,1.25,0.15,0.1625,0.1625,0.029969,4.8123,1.3794,0.03015886,0.03009696,0.03033002,0.03109324,0.04425705,0.04875122,0.06133697,0.06791197,0.07614722,0.06043774,0.0757774,0.0614847,0.05893222,0.03947958,0.05111702,0.03015604,0.01476458,0.009066983,0.004082947,0.002967096,0.001667357,0.000744738,49.220033,5,50,-999.0,-999.0,-999,-999,0,-999,?
326,76,Coalinga-01,1983,502,2342,Parkfield - Cholame 2WA,126,36228,6.36,137.0,30.0,90,2,15.0,47.0,75.0,227.0,36.233,-120.31,4.6,1,3.4,16.0,11.0,176.0,-999.0,55.67,55.86,43.83,-999.0,53.09,44.72,38.62,nu,49.68,0.57,0.79,37.16,-999,S,E,173.02,0,0.05,CDMG,35.733,-120.29,0,GROUND LEVEL,3.0,-999,-999,80.0,-999.0,4220.0,-999.0,-999.0,1060.0,-999.0,COALINGA.H\H-C02000.AT2,COALINGA.H\H-C02090.AT2,COALINGA.H\H-C02-UP.AT2,0,90,A,-999,PEA,A,1,2.5,0.12,0.15,22.0,26.0,1.25,0.15,0.1875,0.1875,0.11029,10.525,2.0003,0.1112158,0.1105559,0.1111309,0.1129292,0.1204275,0.1250663,0.1888317,0.2461806,0.3012789,0.3218381,0.290189,0.2662054,0.2626557,0.145429,0.0885637,0.05712602,0.02188957,0.009592531,0.006377703,0.003658802,0.002416404,0.001237936,48.776659,5,50,-999.0,-999.0,-999,-999,0,-999,?
327,76,Coalinga-01,1983,502,2342,Parkfield - Cholame 3E,402,36450,6.36,137.0,30.0,90,2,15.0,47.0,75.0,227.0,36.233,-120.31,4.6,1,3.4,16.0,11.0,176.0,-999.0,51.83,52.04,40.01,-999.0,49.34,40.98,32.98,nu,45.49,0.57,0.79,38.45,-999,S,C,397.36,0,0.2,CDMG,35.77,-120.247,0,GROUND LEVEL,-999.0,-999,-999,60.0,-999.0,3920.0,-999.0,-999.0,-999.0,-999.0,COALINGA.H\H-TM3000.AT2,COALINGA.H\H-TM3090.AT2,COALINGA.H\H-TM3-UP.AT2,0,90,A,-999,PEA,A,1,2.5,0.2,0.1,23.0,22.0,1.25,0.25,0.125,0.25,0.045545,5.9891,2.2448,0.04600959,0.04576002,0.0461472,0.04664708,0.05266351,0.06458253,0.07388332,0.121778,0.1130365,0.1314413,0.1297868,0.1126236,0.1116082,0.0530307,0.05619529,0.04386926,0.01795285,0.008756095,0.004431968,0.002890755,0.001680317,0.000878652,48.411455,5,50,-999.0,-999.0,-999,-999,0,-999,?
328,76,Coalinga-01,1983,502,2342,Parkfield - Cholame 3W,376,36410,6.36,137.0,30.0,90,2,15.0,47.0,75.0,227.0,36.233,-120.31,4.6,1,3.4,16.0,11.0,176.0,-999.0,56.66,56.84,44.82,-999.0,54.08,45.7,39.57,nu,49.95,0.57,0.79,36.98,-999,S,D,230.57,0,0.1,CDMG,35.724,-120.294,0,GROUND LEVEL,-999.0,-999,-999,60.0,-999.0,4340.0,-999.0,-999.0,1160.0,-999.0,COALINGA.H\H-C03000.AT2,COALINGA.H\H-C03090.AT2,COALINGA.H\H-C03-UP.AT2,0,90,A,-999,PEA,A,1,2.5,0.1,0.15,21.0,24.0,1.25,0.125,0.1875,0.1875,0.092588,8.0297,1.7688,0.09334341,0.092586,0.09293641,0.09450561,0.09663971,0.1016095,0.140933,0.2102046,0.1663105,0.2329391,0.3278024,0.2175272,0.2327632,0.120051,0.07824561,0.03376286,0.01874473,0.01012544,0.005548205,0.003887892,0.002471689,0.000991441,49.262847,5,50,-999.0,-999.0,-999,-999,0,-999,?
329,76,Coalinga-01,1983,502,2342,Parkfield - Cholame 4AW,378,36412,6.36,137.0,30.0,90,2,15.0,47.0,75.0,227.0,36.233,-120.31,4.6,1,3.4,16.0,11.0,176.0,-999.0,58.53,58.71,46.73,-999.0,55.92,47.57,42.32,nu,51.81,0.57,0.79,36.51,-999,S,D,283.38,0,0.1,CDMG,35.707,-120.316,0,GROUND LEVEL,-999.0,-999,-999,80.0,-999.0,4440.0,-999.0,-999.0,1160.0,-999.0,COALINGA.H\H-C4A000.AT2,COALINGA.H\H-C4A090.AT2,COALINGA.H\H-C4A-UP.AT2,0,90,A,-999,PEA,A,1,2.5,0.15,0.09,21.0,20.0,1.25,0.1875,0.1125,0.1875,0.062929,5.9724,1.5572,0.06321567,0.06299018,0.06344279,0.06517501,0.06567132,0.08315049,0.1263611,0.1214043,0.1446124,0.1745852,0.1886412,0.1958161,0.1552667,0.06974741,0.04383705,0.02713394,0.01404341,0.008172434,0.004982008,0.004238668,0.002081408,0.000955718,49.290912,5,50,-999.0,-999.0,-999,-999,0,-999,?
330,76,Coalinga-01,1983,502,2342,Parkfield - Cholame 4W,377,36411,6.36,137.0,30.0,90,2,15.0,47.0,75.0,227.0,36.233,-120.31,4.6,1,3.4,16.0,11.0,176.0,-999.0,57.31,57.49,45.49,-999.0,54.71,46.35,40.69,nu,50.84,0.57,0.79,36.78,-999,S,C,410.4,0,0.2,CDMG,35.718,-120.304,0,GROUND LEVEL,-999.0,-999,-999,60.0,-999.0,4340.0,-999.0,-999.0,1240.0,-999.0,COALINGA.H\H-C04000.AT2,COALINGA.H\H-C04090.AT2,COALINGA.H\H-C04-UP.AT2,0,90,A,-999,PEA,A,1,2.5,0.13,0.14,21.0,23.0,1.25,0.1625,0.175,0.175,0.13433,9.9776,1.9925,0.1352277,0.1344296,0.1348843,0.1383163,0.1426399,0.1471007,0.2022188,0.242041,0.3151184,0.3428516,0.5230604,0.3956573,0.2421946,0.0993138,0.05227543,0.03221617,0.01854545,0.008119596,0.005350953,0.00434618,0.002207815,0.00118751,49.135138,5,50,-999.0,-999.0,-999,-999,0,-999,?
331,76,Coalinga-01,1983,502,2342,Parkfield - Cholame 5W,128,36227,6.36,137.0,30.0,90,2,15.0,47.0,75.0,227.0,36.233,-120.31,4.6,1,3.4,16.0,11.0,176.0,-999.0,59.67,59.84,47.88,-999.0,57.04,48.7,43.87,nu,52.74,0.57,0.79,36.27,-999,S,D,236.59,0,0.1,CDMG,35.697,-120.328,0,GROUND LEVEL,1.1,-999,-999,80.0,-999.0,4420.0,-999.0,-999.0,1080.0,-999.0,COALINGA.H\H-C05270.AT2,COALINGA.H\H-C05360.AT2,COALINGA.H\H-C05-UP.AT2,270,0,A,-999,PEA,A,1,2.5,0.22,0.12,22.0,22.0,1.25,0.275,0.15,0.275,0.13658,10.643,1.4151,0.1379294,0.1368588,0.1372566,0.1396231,0.1463592,0.1620452,0.2117127,0.2235927,0.2798451,0.4208601,0.532953,0.3652034,0.2731214,0.1135297,0.05300395,0.03005656,0.01423629,0.005373325,0.003542677,0.002606671,0.001570966,0.000747984,49.365017,5,50,-999.0,-999.0,-999,-999,0,-999,?
332,76,Coalinga-01,1983,502,2342,Parkfield - Cholame 6W,403,36451,6.36,137.0,30.0,90,2,15.0,47.0,75.0,227.0,36.233,-120.31,4.6,1,3.4,16.0,11.0,176.0,-999.0,61.16,61.33,49.4,-999.0,58.51,50.2,45.78,nu,53.76,0.57,0.79,36.0,-999,S,D,251.57,0,0.1,CDMG,35.684,-120.342,0,GROUND LEVEL,-999.0,-999,-999,80.0,-999.0,4300.0,-999.0,-999.0,-999.0,-999.0,COALINGA.H\H-C06000.AT2,COALINGA.H\H-C06090.AT2,COALINGA.H\H-C06-UP.AT2,0,90,A,-999,PEA,A,1,2.5,0.15,0.13,21.0,28.0,1.25,0.1875,0.1625,0.1875,0.12147,10.45,1.5306,0.1223248,0.1220879,0.1227084,0.1239966,0.1288285,0.1290708,0.1717008,0.2267444,0.2190109,0.279362,0.4927897,0.3305612,0.2963666,0.1099354,0.05851283,0.02770399,0.01558822,0.00665173,0.004736411,0.003222902,0.002141246,0.000901829,49.559593,5,50,-999.0,-999.0,-999,-999,0,-999,?
333,76,Coalinga-01,1983,502,2342,Parkfield - Cholame 8W,130,36226,6.36,137.0,30.0,90,2,15.0,47.0,75.0,227.0,36.233,-120.31,4.6,1,3.4,16.0,11.0,176.0,-999.0,62.69,62.86,50.98,-999.0,60.03,51.75,47.89,nu,54.97,0.57,0.79,35.72,-999,S,D,256.82,1,0.25,CDMG,35.671,-120.359,1,GROUND LEVEL,1.9,-999,-999,80.0,-999.0,4120.0,-999.0,-999.0,-999.0,-999.0,COALINGA.H\H-C08000.AT2,COALINGA.H\H-C08270.AT2,COALINGA.H\H-C08-UP.AT2,0,270,A,-999,PEA,A,1,2.5,0.18,0.12,23.0,21.0,1.25,0.225,0.15,0.225,0.098653,9.0145,1.6117,0.09929065,0.09882239,0.09929547,0.1004965,0.1009355,0.1077573,0.1198217,0.12111,0.1978524,0.2096242,0.3131704,0.2404122,0.2545322,0.08640308,0.04285634,0.02153791,0.01796425,0.008835376,0.005181811,0.004117191,0.00209417,0.000854281,49.568705,5,50,-999.0,-999.0,-999,-999,0,-999,?
