Record Sequence Number,EQID,Earthquake Name,YEAR,MODY,HRMN,Station Name,Station Sequence Number,Station ID  No.,Earthquake Magnitude,Strike (deg),Dip (deg),Rake Angle (deg),Mechanism Based on Rake Angle,P-plunge (deg),P-trend (deg),T-plunge (deg),T-trend (deg),Hypocenter Latitude (deg),Hypocenter Longitude (deg),Hypocenter Depth (km),Finite Rupture Model: 1=Yes;  0=No,Depth to Top Of Fault Rupture Model,Fault Rupture Length for Calculation of Ry (km),Fault Rupture Width (km),Fault Rupture Area (km^2),Average Vr/Vs,EpiD (km),HypD (km),Joyner-Boore Dist. (km),Campbell R Dist. (km),RmsD (km),ClstD (km),Rx,FW/HW Indicator,Source to Site Azimuth (deg),X,Y,Phi.D (deg),Unused Column.2,Depth,Preferred NEHRP Based on Vs30,Vs30 (m/s) selected for analysis,Measured/Inferred Class,Sigma of Vs30 (in natural log Units),Owner,Station Latitude,Station Longitude,STORIES,INSTLOC,Depth to Basement Rock,Site Visited,NGA Type,Northern CA/Southern CA - H11 Z1 (m),Northern CA/Southern CA - H11 Z1.5 (m),Northern CA/Southern CA - H11 Z2.5 (m),Northern CA/Southern CA - S4 Z1 (m),Northern CA/Southern CA - S4 Z1.5 (m),Northern CA/Southern CA - S4 Z2.5 (m),Rebe (m),File Name (Horizontal 1),File Name (Horizontal 2),File Name (Vertical),H1 azimth (degrees),H2 azimith (degrees),Type of Recording,Instrument Model,PEA Processing Flag,Type of Filter,npass,nroll,HP-H1 (Hz),HP-H2 (Hz),LP-H1 (Hz),LP-H2 (Hz),Factor,Lowest Usable Freq - H1 (Hz),Lowest Usable Freq - H2 (H2),Lowest Usable Freq - Ave. Component (Hz),PGA (g),PGV (cm/sec),PGD (cm),T0.010S,T0.020S,T0.030S,T0.050S,T0.075S,T0.100S,T0.150S,T0.200S,T0.250S,T0.300S,T0.400S,T0.500S,T0.750S,T1.000S,T1.500S,T2.000S,T3.000S,T4.000S,T5.000S,T6.000S,T7.500S,T10.000S,U,Damping (%),RotD percentile,Instrument Nat. Freq.,Instrument Damping,Instrument Type,Quality_Flag,Spectra Quality Flag,Late S-trigger,Late P-trigger
170,50,Imperial Valley-06,1979,1015,2316,EC County Center FF,151,1136,6.53,323.0,80.0,180,0,7.05,187.56,7.05,278.44,32.644,-115.307,9.96,1,0.0,50.0,13.0,649.9,0.8690680388793597,29.07,30.73,7.31,-999.0,15.58,7.31,-7.31,na,-90.0,0.55,0.78,32.28,-999,D,D,192.05,0,0.1,CDMG,32.793,-115.562,0,GROUND LEVEL,4.8,-999,-999,1440.0,-999.0,3140.0,1400.0,-999.0,5320.0,-999.0,IMPVALL.H\H-ECC002.AT2,IMPVALL.H\H-ECC092.AT2,IMPVALL.H\H-ECC-UP.AT2,2,92,A,-999,PEA,A,1,2.5,0.06,0.0,33.0,33.0,1.25,0.075,0.0,0.075,0.22388,52.42,37.434,0.2240545,0.2259797,0.2292307,0.2401031,0.2932843,0.3716556,0.4197105,0.5114987,0.4007773,0.4122561,0.3919349,0.5862073,0.4719839,0.3934782,0.3829194,0.200803,0.1907029,0.129286,0.09692298,0.07085004,0.04504538,0.02350475,39.494428,5,50,-999.0,-999.0,-999,-999,0,-999,?
171,50,Imperial Valley-06,1979,1015,2316,El Centro - Meloland Geot. Array,160,1336,6.53,323.0,80.0,180,0,7.05,187.56,7.05,278.44,32.644,-115.307,9.96,1,0.0,50.0,13.0,649.9,0.8690680388793597,19.44,21.84,0.07,-999.0,6.19,0.07,-0.07,na,-90.0,0.39,0.78,0.34,-999,D,D,264.57,0,0.1,CDMG,32.773,-115.447,1,BASE OF COLUMN,4.5,-999,-999,1360.0,-999.0,3060.0,1320.0,-999.0,5240.0,-999.0,IMPVALL.H\H-EMO000.AT2,IMPVALL.H\H-EMO270.AT2,IMPVALL.H\H-EMO-UP.AT2,0,270,A,-999,PEA,A,1,2.5,0.0,0.08,40.0,50.0,1.25,0.0,0.1,0.1,0.3125,83.519,34.713,0.3130839,0.3149688,0.3227256,0.3258071,0.346071,0.3497376,0.409508,0.4617092,0.5369451,0.6205622,0.5938296,0.6652686,0.6570863,0.3919585,0.4477086,0.4267284,0.3370722,0.183322,0.09391414,0.05881476,0.03347043,0.01541248,31.229043,5,50,-999.0,-999.0,-999,-999,0,-999,?
172,50,Imperial Valley-06,1979,1015,2316,El Centro Array #1,212,5056,6.53,323.0,80.0,180,0,7.05,187.56,7.05,278.44,32.644,-115.307,9.96,1,0.0,50.0,13.0,649.9,0.8690680388793597,35.18,36.56,19.76,-999.0,27.43,21.68,22.01,na,90.0,0.58,0.48,73.83,-999,D,D,237.33,0,0.1,USGS,32.96,-115.319,1,GROUND LEVEL,3.5,-999,-999,1260.0,-999.0,2860.0,1280.0,-999.0,2960.0,-999.0,IMPVALL.H\H-E01140.AT2,IMPVALL.H\H-E01230.AT2,IMPVALL.H\H-E01-UP.AT2,140,230,A,-999,PEA,A,1,2.5,0.09,0.08,40.0,40.0,1.25,0.1125,0.1,0.1125,0.14458,13.333,8.4925,0.145029,0.1486516,0.1533505,0.2431913,0.3582454,0.51645,0.3473355,0.2690888,0.2927484,0.2862153,0.1742164,0.1851539,0.1185019,0.08184622,0.06736673,0.07507345,0.03582229,0.04039736,0.0307813,0.01846546,0.01473206,0.01035424,40.632574,5,50,-999.0,-999.0,-999,-999,0,-999,?
173,50,Imperial Valley-06,1979,1015,2316,El Centro Array #10,103,412,6.53,323.0,80.0,180,0,7.05,187.56,7.05,278.44,32.644,-115.307,9.96,1,0.0,50.0,13.0,649.9,0.8690680388793597,28.79,30.46,8.6,-999.0,16.66,8.6,-8.6,na,-90.0,0.54,0.78,36.08,-999,D,D,202.85,0,0.1,USGS,32.7806,-115.5681,1,GROUND LEVEL,4.9,-999,-999,1460.0,-999.0,3260.0,1420.0,-999.0,5240.0,-999.0,IMPVALL.H\H-E10050.AT2,IMPVALL.H\H-E10320.AT2,IMPVALL.H\H-E10-UP.AT2,50,320,A,-999,PEA,A,1,2.5,0.06,0.033,40.0,40.0,1.25,0.075,0.04125,0.075,0.19857,50.431,31.422,0.1993014,0.2184178,0.2183521,0.246136,0.417199,0.358718,0.4514211,0.4986352,0.5605912,0.5106462,0.4080981,0.4550751,0.2496786,0.2572137,0.3394781,0.2486879,0.1687798,0.111694,0.0794644,0.0695853,0.04969969,0.02123644,38.739146,5,50,-999.0,-999.0,-999,-999,0,-999,?
174,50,Imperial Valley-06,1979,1015,2316,El Centro Array #11,214,5058,6.53,323.0,80.0,180,0,7.05,187.56,7.05,278.44,32.644,-115.307,9.96,1,0.0,50.0,13.0,649.9,0.8690680388793597,29.53,31.16,12.56,-999.0,20.09,12.56,-12.56,na,-90.0,0.52,0.78,45.16,-999,D,D,196.25,0,0.1,USGS,32.75172,-115.59516,1,GROUND LEVEL,5.0,-999,-999,1460.0,-999.0,3260.0,1420.0,-999.0,3260.0,-999.0,IMPVALL.H\H-E11140.AT2,IMPVALL.H\H-E11230.AT2,IMPVALL.H\H-E11-UP.AT2,140,230,A,-999,PEA,A,1,2.5,0.05,0.08,40.0,40.0,1.25,0.0625,0.1,0.1,0.37492,40.773,21.518,0.3750043,0.3778329,0.3797883,0.3901231,0.4281682,0.5851183,0.8508437,1.094606,1.712461,1.17928,0.7368658,0.6304726,0.3990964,0.2380824,0.2684402,0.1984592,0.1332968,0.07303736,0.05721619,0.05902682,0.04589379,0.01844318,37.706368,5,50,-999.0,-999.0,-999,-999,0,-999,?
175,50,Imperial Valley-06,1979,1015,2316,El Centro Array #12,115,931,6.53,323.0,80.0,180,0,7.05,187.56,7.05,278.44,32.644,-115.307,9.96,1,0.0,50.0,13.0,649.9,0.8690680388793597,31.99,33.5,17.94,-999.0,24.82,17.94,-17.94,na,-90.0,0.5,0.78,53.17,-999,D,D,196.88,0,0.1,USGS,32.718,-115.637,0,GROUND LEVEL,4.4,-999,-999,1160.0,-999.0,2660.0,1200.0,-999.0,2780.0,-999.0,IMPVALL.H\H-E12140.AT2,IMPVALL.H\H-E12230.AT2,IMPVALL.H\H-E12-UP.AT2,140,230,A,-999,PEA,A,1,2.5,0.05,0.07,40.0,40.0,1.25,0.0625,0.0875,0.0875,0.14074,22.27,14.568,0.1409968,0.1424216,0.1452691,0.1666654,0.2387132,0.2544815,0.3432953,0.3977998,0.330472,0.3357351,0.288936,0.2010409,0.1741999,0.1757694,0.1401057,0.1111838,0.07060501,0.04782986,0.04294394,0.04145051,0.04031814,0.01442797,37.082167,5,50,-999.0,-999.0,-999,-999,0,-999,?
176,50,Imperial Valley-06,1979,1015,2316,El Centro Array #13,215,5059,6.53,323.0,80.0,180,0,7.05,187.56,7.05,278.44,32.644,-115.307,9.96,1,0.0,50.0,13.0,649.9,0.8690680388793597,35.95,37.31,21.98,-999.0,28.84,21.98,-21.98,na,-90.0,0.54,0.78,57.23,-999,D,D,249.92,0,0.1,USGS,32.709,-115.683,0,GROUND LEVEL,3.4,-999,-999,960.0,-999.0,2160.0,2720.0,-999.0,2720.0,-999.0,IMPVALL.H\H-E13140.AT2,IMPVALL.H\H-E13230.AT2,IMPVALL.H\H-E13-UP.AT2,140,230,A,-999,PEA,A,1,2.5,0.07,0.08,40.0,40.0,1.25,0.0875,0.1,0.1,0.11768,16.349,8.6482,0.1178662,0.1199442,0.1264171,0.1479026,0.2401264,0.2701782,0.2805049,0.4020532,0.347616,0.3675436,0.2766401,0.2085925,0.1317651,0.1077188,0.1008762,0.07822831,0.05069046,0.0368398,0.0335828,0.02872523,0.0199678,0.009312881,38.887581,5,50,-999.0,-999.0,-999,-999,0,-999,?
177,50,Imperial Valley-06,1979,1015,2316,El Centro Array #2,228,5115,6.53,323.0,80.0,180,0,7.05,187.56,7.05,278.44,32.644,-115.307,9.96,1,0.0,50.0,13.0,649.9,0.8690680388793597,30.77,32.34,13.31,-999.0,21.39,15.33,15.56,na,90.0,0.55,0.57,64.21,-999,D,D,188.78,0,0.1,USGS,32.916,-115.366,0,GROUND LEVEL,5.5,-999,-999,1440.0,-999.0,3140.0,1540.0,-999.0,3540.0,-999.0,IMPVALL.H\H-E02140.AT2,IMPVALL.H\H-E02XXX.AT2,IMPVALL.H\H-E02-UP.AT2,140,-999,A,-999,PEA,A,1,2.5,0.05,0.0,40.0,0.0,1.25,0.0625,0.0,0.0625,-999.0,-999.0,-999.0,-999.0,-999.0,-999.0,-999.0,-999.0,-999.0,-999.0,-999.0,-999.0,-999.0,-999.0,-999.0,-999.0,-999.0,-999.0,-999.0,-999.0,-999.0,-999.0,-999.0,-999.0,-999.0,39.365851,5,50,-999.0,-999.0,-999,-999,0,-999,?
178,50,Imperial Valley-06,1979,1015,2316,El Centro Array #3,213,5057,6.53,323.0,80.0,180,0,7.05,187.56,7.05,278.44,32.644,-115.307,9.96,1,0.0,50.0,13.0,649.9,0.8690680388793597,28.65,30.33,10.79,-999.0,18.98,12.85,13.04,na,90.0,0.53,0.6,58.59,-999,D,E,162.94,0,0.05,USGS,32.894,-115.38,1,GROUND LEVEL,5.7,-999,-999,1540.0,-999.0,3440.0,1600.0,-999.0,3720.0,-999.0,IMPVALL.H\H-E03140.AT2,IMPVALL.H\H-E03230.AT2,IMPVALL.H\H-E03-UP.AT2,140,230,A,-999,PEA,A,1,2.5,0.05,0.04,40.0,40.0,1.25,0.0625,0.05,0.0625,0.26473,45.329,23.867,0.2649104,0.2696277,0.2781251,0.3315413,0.4351121,0.7254651,0.7776743,0.730371,0.7571718,0.5417812,0.4677023,0.5263285,0.3711795,0.229562,0.1906511,0.2113336,0.1479813,0.105388,0.06938824,0.04836431,0.03587459,0.01897394,38.199364,5,50,-999.0,-999.0,-999,-999,0,-999,?
179,50,Imperial Valley-06,1979,1015,2316,El Centro Array #4,119,955,6.53,323.0,80.0,180,0,7.05,187.56,7.05,278.44,32.644,-115.307,9.96,1,0.0,50.0,13.0,649.9,0.8690680388793597,27.13,28.9,4.9,-999.0,14.01,7.05,7.15,na,90.0,0.53,0.68,38.49,-999,D,D,208.91,0,0.1,USGS,32.864,-115.432,0,GROUND LEVEL,5.6,-999,-999,1640.0,-999.0,3840.0,1600.0,-999.0,3680.0,-999.0,IMPVALL.H\H-E04140.AT2,IMPVALL.H\H-E04230.AT2,IMPVALL.H\H-E04-UP.AT2,140,230,A,-999,PEA,A,1,2.5,0.05,0.04,40.0,40.0,1.25,0.0625,0.05,0.0625,0.38078,79.11,55.113,0.3811979,0.3891821,0.4047308,0.5170316,0.4488591,0.6554268,0.5848367,0.8026243,0.8920028,0.7954555,0.726561,0.6905098,0.6391619,0.5357689,0.315365,0.2985871,0.2491976,0.2112692,0.1463302,0.098742,0.06052119,0.03339357,38.463144,5,50,-999.0,-999.0,-999,-999,0,-999,?
180,50,Imperial Valley-06,1979,1015,2316,El Centro Array #5,118,952,6.53,323.0,80.0,180,0,7.05,187.56,7.05,278.44,32.644,-115.307,9.96,1,0.0,50.0,13.0,649.9,0.8690680388793597,27.8,29.53,1.76,-999.0,11.44,3.95,4.01,na,90.0,0.55,0.72,22.82,-999,D,D,205.63,0,0.1,USGS,32.855,-115.466,0,GROUND LEVEL,5.7,-999,-999,1620.0,-999.0,3620.0,1600.0,-999.0,5740.0,-999.0,IMPVALL.H\H-E05140.AT2,IMPVALL.H\H-E05230.AT2,IMPVALL.H\H-E05-UP.AT2,140,230,A,-999,PEA,A,1,2.5,0.04,0.02,40.0,40.0,1.25,0.05,0.025,0.05,0.41145,78.294,62.493,0.4130658,0.4205519,0.5019796,0.7820487,0.8682269,0.8605225,1.061197,0.9632596,0.8754255,1.022472,1.067454,0.9582977,0.5337127,0.5905785,0.280452,0.2995972,0.3640562,0.2317043,0.1539387,0.1068923,0.07963962,0.03772707,39.580051,5,50,-999.0,-999.0,-999,-999,0,-999,?
181,50,Imperial Valley-06,1979,1015,2316,El Centro Array #6,230,5158,6.53,323.0,80.0,180,0,7.05,187.56,7.05,278.44,32.644,-115.307,9.96,1,0.0,50.0,13.0,649.9,0.8690680388793597,27.47,29.22,0.0,-999.0,8.81,1.35,1.37,na,90.0,0.55,0.76,7.85,-999,D,D,203.22,0,0.1,CDMG,32.839,-115.487,0,GROUND LEVEL,5.6,-999,-999,1520.0,-999.0,3520.0,1560.0,-999.0,5600.0,-999.0,IMPVALL.H\H-E06140.AT2,IMPVALL.H\H-E06230.AT2,IMPVALL.H\H-E06-UP.AT2,140,230,A,-999,PEA,A,1,2.5,0.05,0.013,40.0,40.0,1.25,0.0625,0.01625,0.0625,0.44817,87.818,58.414,0.4534659,0.7609525,0.8619042,0.9296526,0.9315324,0.985487,0.6064868,0.6830885,0.950422,0.8846516,0.726008,0.6335098,0.613744,0.4861024,0.3498257,0.3984947,0.4167262,0.2879187,0.1760044,0.1135897,0.05877007,0.03000095,39.343776,5,50,-999.0,-999.0,-999,-999,0,-999,?
182,50,Imperial Valley-06,1979,1015,2316,El Centro Array #7,200,5028,6.53,323.0,80.0,180,0,7.05,187.56,7.05,278.44,32.644,-115.307,9.96,1,0.0,50.0,13.0,649.9,0.8690680388793597,27.64,29.38,0.56,-999.0,8.0,0.56,-0.56,na,-90.0,0.55,0.78,3.07,-999,D,D,210.51,0,0.1,USGS,32.829,-115.504,1,GROUND LEVEL,5.4,-999,-999,1540.0,-999.0,3440.0,1520.0,-999.0,5500.0,-999.0,IMPVALL.H\H-E07140.AT2,IMPVALL.H\H-E07230.AT2,IMPVALL.H\H-E07-UP.AT2,140,230,A,-999,PEA,A,1,2.5,0.024,0.06,40.0,40.0,1.25,0.03,0.075,0.075,0.43676,82.682,46.01,0.4377815,0.4405105,0.4508793,0.4394749,0.4785399,0.5182063,0.5461576,0.6315084,0.6812179,0.6376418,0.6484221,0.6813394,1.118003,0.6758764,0.4136194,0.3602898,0.3236618,0.2277646,0.1359435,0.0822975,0.05021549,0.02577589,39.415059,5,50,-999.0,-999.0,-999,-999,0,-999,?
183,50,Imperial Valley-06,1979,1015,2316,El Centro Array #8,120,958,6.53,323.0,80.0,180,0,7.05,187.56,7.05,278.44,32.644,-115.307,9.96,1,0.0,50.0,13.0,649.9,0.8690680388793597,28.09,29.8,3.86,-999.0,12.23,3.86,-3.86,na,-90.0,0.55,0.78,19.39,-999,D,D,206.08,0,0.1,USGS,32.811,-115.532,0,GROUND LEVEL,5.1,-999,-999,1440.0,-999.0,3140.0,1440.0,-999.0,5400.0,-999.0,IMPVALL.H\H-E08140.AT2,IMPVALL.H\H-E08230.AT2,IMPVALL.H\H-E08-UP.AT2,140,230,A,-999,PEA,A,1,2.5,0.0,0.03,40.0,40.0,1.25,0.0,0.0375,0.0375,0.52691,52.408,41.436,0.5305148,0.5511755,0.6236484,0.6932022,1.040722,1.330321,1.155247,0.9931443,0.8497223,0.6951303,0.7674503,0.7134656,0.4847099,0.3466326,0.3653854,0.2211184,0.172778,0.139623,0.1046543,0.07911867,0.05091732,0.02506248,39.397676,5,50,-999.0,-999.0,-999,-999,0,-999,?
184,50,Imperial Valley-06,1979,1015,2316,El Centro Differential Array,232,5165,6.53,323.0,80.0,180,0,7.05,187.56,7.05,278.44,32.644,-115.307,9.96,1,0.0,50.0,13.0,649.9,0.8690680388793597,27.23,29.0,5.09,-999.0,13.34,5.09,-5.09,na,-90.0,0.53,0.78,24.48,-999,D,D,202.26,0,0.1,USGS,32.796,-115.535,0,GROUND LEVEL,5.0,-999,-999,1440.0,-999.0,3140.0,1420.0,-999.0,5340.0,-999.0,IMPVALL.H\H-EDA270.AT2,IMPVALL.H\H-EDA360.AT2,IMPVALL.H\H-EDA-UP.AT2,270,0,A,-999,PEA,A,1,2.5,0.0,0.023,40.0,40.0,1.25,0.0,0.02875,0.02875,0.43726,57.838,42.257,0.4389728,0.4477015,0.4624843,0.480301,0.6118819,0.8132682,1.473397,0.9688479,1.208443,0.9616657,1.005894,0.8481867,0.6622162,0.4272141,0.3675089,0.263394,0.1736086,0.1237686,0.1006683,0.07775468,0.04926654,0.02420845,38.236094,5,50,-999.0,-999.0,-999,-999,0,-999,?
185,50,Imperial Valley-06,1979,1015,2316,Holtville Post Office,211,5055,6.53,323.0,80.0,180,0,7.05,187.56,7.05,278.44,32.644,-115.307,9.96,1,0.0,50.0,13.0,649.9,0.8690680388793597,19.8,22.16,5.35,-999.0,13.89,7.5,7.61,na,90.0,0.38,0.68,40.48,-999,D,D,202.89,0,0.1,USGS,32.81141,-115.3786,1,GROUND LEVEL,5.3,-999,-999,1560.0,-999.0,3460.0,1500.0,-999.0,5220.0,-999.0,IMPVALL.H\H-HVP225.AT2,IMPVALL.H\H-HVP315.AT2,IMPVALL.H\H-HVP-UP.AT2,225,315,A,-999,PEA,A,1,2.5,0.05,0.06,40.0,40.0,1.25,0.0625,0.075,0.075,0.2378,52.292,37.919,0.2378838,0.2401407,0.2458777,0.2585522,0.3068916,0.4501454,0.5407621,0.7043384,0.6432348,0.8206868,0.5588289,0.481861,0.3480441,0.3086869,0.2048365,0.1537594,0.1863736,0.1514293,0.1062596,0.06995549,0.049935,0.02550207,30.784353,5,50,-999.0,-999.0,-999,-999,0,-999,?
186,50,Imperial Valley-06,1979,1015,2316,Niland Fire Station,263,11023,6.53,323.0,80.0,180,0,7.05,187.56,7.05,278.44,32.644,-115.307,9.96,1,0.0,50.0,13.0,649.9,0.8690680388793597,68.92,69.64,35.64,-999.0,53.81,36.92,26.37,na,45.13,0.76,0.43,77.97,-999,D,D,212.0,0,0.25,CDMG,33.239,-115.512,1,GROUND LEVEL,2.2,-999,-999,820.0,-999.0,1920.0,700.0,-999.0,1620.0,-999.0,IMPVALL.H\H-NIL090.AT2,IMPVALL.H\H-NIL360.AT2,IMPVALL.H\H-NIL-UP.AT2,90,0,A,-999,PEA,A,1,2.5,0.06,0.06,23.0,38.0,1.25,0.075,0.075,0.075,0.087609,9.7627,6.8699,0.08769402,0.08814149,0.08892719,0.09817015,0.1119128,0.1498333,0.1692921,0.2625055,0.2101995,0.2861565,0.2802026,0.1725198,0.09100839,0.1051859,0.05676118,0.03923533,0.04045559,0.02523342,0.03563051,0.01800945,0.007624754,0.005419314,76.250115,5,50,-999.0,-999.0,-999,-999,0,-999,Y
187,50,Imperial Valley-06,1979,1015,2316,Parachute Test Site,207,5051,6.53,323.0,80.0,180,0,7.05,187.56,7.05,278.44,32.644,-115.307,9.96,1,0.0,50.0,13.0,649.9,0.8690680388793597,48.62,49.63,12.69,-999.0,28.97,12.69,-8.52,na,-42.16,0.76,0.78,35.86,-999,D,D,348.69,0,0.1,USGS,32.929,-115.701,1,GROUND LEVEL,4.8,-999,-999,1380.0,-999.0,2980.0,1440.0,-999.0,3300.0,-999.0,IMPVALL.H\H-PTS225.AT2,IMPVALL.H\H-PTS315.AT2,IMPVALL.H\H-PTS-UP.AT2,225,315,A,-999,PEA,A,1,2.5,0.05,0.04,40.0,40.0,1.25,0.0625,0.05,0.0625,0.16742,19.797,12.52,0.1680409,0.1737567,0.1894599,0.1857554,0.2139606,0.2362374,0.3056707,0.3910499,0.2868376,0.2360744,0.2908064,0.3019029,0.1210709,0.1254094,0.09483337,0.07942744,0.06420341,0.05384981,0.03732606,0.02634449,0.01582966,0.01397743,59.403661,5,50,-999.0,-999.0,-999,-999,0,-999,?
188,50,Imperial Valley-06,1979,1015,2316,Plaster City,208,5052,6.53,323.0,80.0,180,0,7.05,187.56,7.05,278.44,32.644,-115.307,9.96,1,0.0,50.0,13.0,649.9,0.8690680388793597,54.26,55.17,30.33,-999.0,42.71,30.33,-29.71,na,-78.42,0.76,0.78,62.43,-999,D,D,316.64,2a_3a_4b_4c,0.25,USGS,32.79,-115.86,1,GROUND LEVEL,0.8,-999,-999,700.0,-999.0,700.0,660.0,-999.0,660.0,-999.0,IMPVALL.H\H-PLS045.AT2,IMPVALL.H\H-PLS135.AT2,IMPVALL.H\H-PLS-UP.AT2,45,135,A,-999,PEA,A,1,2.5,0.12,0.1,40.0,40.0,1.25,0.15,0.125,0.15,0.050964,4.6935,1.8795,0.05102086,0.05263768,0.05511052,0.06022861,0.09098431,0.1118699,0.1711639,0.1941426,0.1334815,0.1331448,0.1098653,0.07270943,0.05062289,0.04589758,0.03607463,0.0220617,0.01391769,0.01095323,0.008275584,0.004352689,0.003280937,0.001580099,56.089321,5,50,-999.0,-999.0,-999,-999,0,-999,?
189,50,Imperial Valley-06,1979,1015,2316,SAHOP Casa Flores,246,6619,6.53,323.0,80.0,180,0,7.05,187.56,7.05,278.44,32.644,-115.307,9.96,1,0.0,50.0,13.0,649.9,0.8690680388793597,12.43,15.93,9.64,-999.0,17.01,9.64,-9.64,na,-90.0,0.1,0.78,38.84,-999,-999,D,259.59,3b_4b_4c,0.37,UNAMUCSD,32.618,-115.436,1,GROUND LEVEL,5.5,-999,-999,1560.0,-999.0,3560.0,1180.0,-999.0,2700.0,-999.0,IMPVALL.H\H-SHP000.AT2,IMPVALL.H\H-SHP270.AT2,IMPVALL.H\H-SHP-UP.AT2,0,270,A,-999,PEA,A,1,2.5,0.25,0.05,30.0,30.0,1.25,0.3125,0.0625,0.3125,-999.0,-999.0,-999.0,-999.0,-999.0,-999.0,-999.0,-999.0,-999.0,-999.0,-999.0,-999.0,-999.0,-999.0,-999.0,-999.0,-999.0,-999.0,-999.0,-999.0,-999.0,-999.0,-999.0,-999.0,-999.0,16.846203,5,50,-999.0,-999.0,-999,-999,0,-999,?
190,50,Imperial Valley-06,1979,1015,2316,Superstition Mtn Camera,94,286,6.53,323.0,80.0,180,0,7.05,187.56,7.05,278.44,32.644,-115.307,9.96,1,0.0,50.0,13.0,649.9,0.8690680388793597,59.54,60.37,24.61,-999.0,42.33,24.61,-15.98,na,-40.5,0.76,0.78,50.68,-999,S,C,362.38,0,0.2,USGS,32.955,-115.825,1,GROUND LEVEL,0.0,-999,-999,1020.0,-999.0,2120.0,1200.0,-999.0,1200.0,-999.0,IMPVALL.H\H-SUP045.AT2,IMPVALL.H\H-SUP135.AT2,IMPVALL.H\H-SUP-UP.AT2,45,135,A,-999,PEA,A,1,2.5,0.1,0.1,40.0,40.0,1.25,0.125,0.125,0.125,0.16371,6.685,2.326,0.1642935,0.1684259,0.178828,0.2139828,0.3064739,0.3594001,0.6774251,0.4474751,0.3201461,0.1861589,0.1452822,0.1147665,0.0556586,0.03312786,0.03296426,0.02210488,0.01561997,0.01515842,0.01055457,0.008539824,0.005039069,0.002249177,68.715514,5,50,-999.0,-999.0,-999,-999,0,-999,?
191,50,Imperial Valley-06,1979,1015,2316,Victoria,242,6610,6.53,323.0,80.0,180,0,7.05,187.56,7.05,278.44,32.644,-115.307,9.96,1,0.0,50.0,13.0,649.9,0.8690680388793597,43.9,45.02,31.92,-999.0,51.81,31.92,-6.69,na,-167.91,0.24,0.78,30.26,-999,-999,D,242.05,3b_4b_4c,0.37,UNAMUCSD,32.289,-115.103,0,GROUND LEVEL,7.0,-999,-999,1480.0,-999.0,3280.0,840.0,-999.0,1960.0,-999.0,IMPVALL.H\H-VCT075.AT2,IMPVALL.H\H-VCT345.AT2,IMPVALL.H\H-VCT-UP.AT2,75,345,D,-999,PEA,A,1,2.5,0.08,0.09,50.0,50.0,1.25,0.1,0.1125,0.1125,0.13406,7.373,1.9459,0.1367004,0.1393104,0.1433987,0.2029303,0.2768733,0.2531603,0.4198287,0.508657,0.3517472,0.3043267,0.2015008,0.1446403,0.1001827,0.06618866,0.03745814,0.03305025,0.02084992,0.01729773,0.01093755,0.00639679,0.002347838,0.001664046,-31.208142,5,50,-999.0,-999.0,-999,-999,0,-999,D
