Record Sequence Number,EQID,Earthquake Name,YEAR,MODY,HRMN,Station Name,Station Sequence Number,Station ID  No.,Earthquake Magnitude,Strike (deg),Dip (deg),Rake Angle (deg),Mechanism Based on Rake Angle,P-plunge (deg),P-trend (deg),T-plunge (deg),T-trend (deg),Hypocenter Latitude (deg),Hypocenter Longitude (deg),Hypocenter Depth (km),Finite Rupture Model: 1=Yes;  0=No,Depth to Top Of Fault Rupture Model,Fault Rupture Length for Calculation of Ry (km),Fault Rupture Width (km),Fault Rupture Area (km^2),Average Vr/Vs,EpiD (km),HypD (km),Joyner-Boore Dist. (km),Campbell R Dist. (km),RmsD (km),ClstD (km),Rx,FW/HW Indicator,Source to Site Azimuth (deg),X,Y,Phi.D (deg),Unused Column.2,Depth,Preferred NEHRP Based on Vs30,Vs30 (m/s) selected for analysis,Measured/Inferred Class,Sigma of Vs30 (in natural log Units),Owner,Station Latitude,Station Longitude,STORIES,INSTLOC,Depth to Basement Rock,Site Visited,NGA Type,Northern CA/Southern CA - H11 Z1 (m),Northern CA/Southern CA - H11 Z1.5 (m),Northern CA/Southern CA - H11 Z2.5 (m),Northern CA/Southern CA - S4 Z1 (m),Northern CA/Southern CA - S4 Z1.5 (m),Northern CA/Southern CA - S4 Z2.5 (m),Rebe (m),File Name (Horizontal 1),File Name (Horizontal 2),File Name (Vertical),H1 azimth (degrees),H2 azimith (degrees),Type of Recording,Instrument Model,PEA Processing Flag,Type of Filter,npass,nroll,HP-H1 (Hz),HP-H2 (Hz),LP-H1 (Hz),LP-H2 (Hz),Factor,Lowest Usable Freq - H1 (Hz),Lowest Usable Freq - H2 (H2),Lowest Usable Freq - Ave. Component (Hz),PGA (g),PGV (cm/sec),PGD (cm),T0.010S,T0.020S,T0.030S,T0.050S,T0.075S,T0.100S,T0.150S,T0.200S,T0.250S,T0.300S,T0.400S,T0.500S,T0.750S,T1.000S,T1.500S,T2.000S,T3.000S,T4.000S,T5.000S,T6.000S,T7.500S,T10.000S,U,Damping (%),RotD percentile,Instrument Nat. Freq.,Instrument Damping,Instrument Type,Quality_Flag,Spectra Quality Flag,Late S-trigger,Late P-trigger
145,48,Coyote Lake,1979,806,1705,Coyote Lake Dam - Southwest Abutment,449,57217,5.74,336.0,80.0,176,0,4.26,200.98,9.87,291.72,37.065,-121.49,8.0,1,3.08,6.6,7.0,46.2,0.7746397694524496,7.95,11.28,5.3,-999.0,10.45,6.13,-1.6,na,-17.54,0.38,0.71,7.13,-999,S,C,561.43,2a_3a_4b_4c,-999.0,CDMG,37.118,-121.55,0,"S.W. ABUTMENT, INST. SHELTER A",0.0,-999,-999,553.4,553.4,826.4,553.4,553.4,826.4,-999.0,COYOTELK\CYC160.AT2,COYOTELK\CYC250.AT2,COYOTELK\CYC-UP.AT2,160,250,A,-999,PEA,A,1,2.5,0.13,0.2,40.0,40.0,1.25,0.1625,0.25,0.25,0.22575,16.785,2.2149,0.2274031,0.2288335,0.2379706,0.2485345,0.2737601,0.3315583,0.3844072,0.3403158,0.3359683,0.4311314,0.5855163,0.5031163,0.2471296,0.1193896,0.06391919,0.03016952,0.01214294,0.006460168,0.003974345,0.002687418,0.001677044,0.000922577,11.65399,5,50,-999.0,-999.0,-999,-999,0,-999,?
146,48,Coyote Lake,1979,806,1705,Gilroy Array #1,424,47379,5.74,336.0,80.0,176,0,4.26,200.98,9.87,291.72,37.065,-121.49,8.0,1,3.08,6.6,7.0,46.2,0.7746397694524496,12.57,14.9,10.21,-999.0,13.59,10.67,-9.95,na,-102.94,0.62,0.71,43.53,-999,S,B,1428.14,1,0.4,CDMG,36.973,-121.572,0,GROUND LEVEL,0.0,-999,-999,3.0,9.0,822.2,3.0,9.0,822.2,-999.0,COYOTELK\G01230.AT2,COYOTELK\G01320.AT2,COYOTELK\G01-UP.AT2,230,320,A,-999,PEA,A,1,2.5,0.12,0.0,33.0,33.0,1.25,0.15,0.0,0.15,0.10589,7.649,2.0917,0.1070154,0.1126273,0.1306514,0.2034932,0.2555341,0.3304714,0.257383,0.2921296,0.1747201,0.1813308,0.08937307,0.06908027,0.09025531,0.07210557,0.0366032,0.02135261,0.009897708,0.005214607,0.004460013,0.003729769,0.001753742,0.000950745,-2.2863256,5,50,-999.0,-999.0,-999,-999,0,-999,?
147,48,Coyote Lake,1979,806,1705,Gilroy Array #2,425,47380,5.74,336.0,80.0,176,0,4.26,200.98,9.87,291.72,37.065,-121.49,8.0,1,3.08,6.6,7.0,46.2,0.7746397694524496,10.94,13.55,8.47,-999.0,12.11,9.02,-8.25,na,-103.31,0.62,0.71,38.73,-999,D,D,270.84,0,0.1,CDMG,36.982,-121.556,0,GROUND LEVEL,0.18,-999,-999,198.0,220.0,799.5,198.0,220.0,799.5,-999.0,COYOTELK\G02050.AT2,COYOTELK\G02140.AT2,COYOTELK\G02-UP.AT2,50,140,A,-999,PEA,A,1,2.5,0.13,0.13,40.0,43.0,1.25,0.1625,0.1625,0.1625,0.24761,24.335,4.3741,0.2478955,0.258362,0.2626294,0.3518758,0.4590897,0.592365,0.8537339,0.7422414,0.5585011,0.6814365,0.5436391,0.3103763,0.307995,0.2379991,0.1510778,0.08115426,0.02881997,0.01404107,0.008651022,0.005912461,0.003653149,0.001958896,-1.9510181,5,50,-999.0,-999.0,-999,-999,0,-999,?
148,48,Coyote Lake,1979,806,1705,Gilroy Array #3,426,47381,5.74,336.0,80.0,176,0,4.26,200.98,9.87,291.72,37.065,-121.49,8.0,1,3.08,6.6,7.0,46.2,0.7746397694524496,9.59,12.49,6.75,-999.0,10.86,7.42,-6.4,na,-108.71,0.62,0.71,32.24,-999,D,D,349.85,0,0.1,CDMG,36.987,-121.536,0,GROUND LEVEL,1.1,-999,-999,498.9,550.2,799.6,498.9,550.2,799.6,-999.0,COYOTELK\G03050.AT2,COYOTELK\G03140.AT2,COYOTELK\G03-UP.AT2,50,140,A,-999,PEA,A,1,2.5,0.0,0.13,40.0,33.0,1.25,0.0,0.1625,0.1625,0.2469,23.918,5.2485,0.2481795,0.2556757,0.2637391,0.3196676,0.4219995,0.5640184,0.752119,0.4761022,0.4780037,0.5972031,0.4531528,0.3068621,0.3477699,0.3877404,0.1385688,0.09059259,0.03635314,0.01796912,0.01147616,0.007098329,0.004474943,0.002424007,-2.1666373,5,50,-999.0,-999.0,-999,-999,0,-999,?
149,48,Coyote Lake,1979,806,1705,Gilroy Array #4,450,57382,5.74,336.0,80.0,176,0,4.26,200.98,9.87,291.72,37.065,-121.49,8.0,1,3.08,6.6,7.0,46.2,0.7746397694524496,7.67,11.08,4.79,-999.0,9.24,5.7,-4.63,na,-105.12,0.62,0.71,24.48,-999,D,D,221.78,0,0.1,CDMG,37.001,-121.522,1,GROUND LEVEL,1.4,-999,-999,520.7,520.7,792.1,520.7,520.7,792.1,-999.0,COYOTELK\G04270.AT2,COYOTELK\G04360.AT2,COYOTELK\G04-UP.AT2,270,0,A,-999,PEA,A,1,2.5,0.007,0.12,30.0,30.0,1.25,0.00875,0.15,0.15,0.24506,27.921,4.5235,0.2451938,0.245466,0.2466146,0.2587902,0.2893333,0.3327496,0.3697471,0.4882102,0.5487386,0.7420124,0.648106,0.5243712,0.4122323,0.3531242,0.1634854,0.07317556,0.0285196,0.0175999,0.00911725,0.005934711,0.003609438,0.001773913,-1.2500169,5,50,-999.0,-999.0,-999,-999,0,-999,?
150,48,Coyote Lake,1979,806,1705,Gilroy Array #6,451,57383,5.74,336.0,80.0,176,0,4.26,200.98,9.87,291.72,37.065,-121.49,8.0,1,3.08,6.6,7.0,46.2,0.7746397694524496,4.37,9.12,0.42,-999.0,6.77,3.11,-0.41,na,-101.3,0.62,0.71,0.93,-999,S,C,663.31,1,0.3,CDMG,37.026,-121.484,0,GROUND LEVEL,0.5,-999,-999,318.0,739.5,1589.9,318.0,739.5,1589.9,-999.0,COYOTELK\G06230.AT2,COYOTELK\G06320.AT2,COYOTELK\G06-UP.AT2,230,320,A,-999,PEA,A,1,2.5,0.07,0.1,33.0,33.0,1.25,0.0875,0.125,0.125,0.37961,36.21,8.8667,0.3800941,0.3833576,0.39044,0.4103865,0.4511813,0.4764054,0.5645514,0.7290609,0.8727885,1.063031,0.9040317,0.6704103,0.5815226,0.4283008,0.2043482,0.1174862,0.04286982,0.01970348,0.0132228,0.009385441,0.006081949,0.003457055,-0.08191275,5,50,-999.0,-999.0,-999,-999,0,-999,?
151,48,Coyote Lake,1979,806,1705,Halls Valley,448,57191,5.74,336.0,80.0,176,0,4.26,200.98,9.87,291.72,37.065,-121.49,8.0,1,3.08,6.6,7.0,46.2,0.7746397694524496,36.29,37.16,33.69,-999.0,37.52,33.83,-4.88,na,-8.32,0.38,0.71,25.68,-999,S,D,281.61,0,0.1,CDMG,37.338,-121.714,0,GROUND LEVEL,0.016,-999,-999,342.1,766.0,3465.8,342.1,766.0,3465.8,-999.0,COYOTELK\HVR150.AT2,COYOTELK\HVR240.AT2,COYOTELK\HVR-UP.AT2,150,240,A,-999,PEA,A,1,2.5,0.3,0.3,20.0,20.0,1.25,0.375,0.375,0.375,0.039481,2.6987,0.39982,0.03950569,0.03978654,0.04008364,0.04066058,0.04370777,0.05257706,0.06301065,0.1076116,0.1278695,0.1112063,0.1410199,0.06222301,0.04842484,0.04388921,0.01526741,0.008632326,0.003961995,0.001701256,0.000860996,0.000503498,0.000295779,0.000159218,39.932975,5,50,-999.0,-999.0,-999,-999,0,-999,?
152,48,Coyote Lake,1979,806,1705,"SJB Overpass, Bent 3 g.l.",421,47315,5.74,336.0,80.0,176,0,4.26,200.98,9.87,291.72,37.065,-121.49,8.0,1,3.08,6.6,7.0,46.2,0.7746397694524496,23.91,25.21,20.44,-999.0,24.02,20.67,-15.47,na,-130.78,0.62,0.71,53.92,-999,S,C,367.43,2a_3a_4b_4c,0.33,CDMG,36.862,-121.578,1,BASE OF COLUMN,0.0,-999,-999,125.0,220.6,220.6,125.0,220.6,220.6,-999.0,COYOTELK\SJ3067.AT2,COYOTELK\SJ3337.AT2,COYOTELK\SJ3-UP.AT2,67,337,A,-999,PEA,A,1,2.5,0.1,0.2,40.0,50.0,1.25,0.125,0.25,0.25,0.10906,6.7232,1.0405,0.1101282,0.1186613,0.1376104,0.1559676,0.1414086,0.1697184,0.1627396,0.249375,0.1654964,0.2344054,0.2848396,0.2729601,0.1340059,0.0688084,0.02825439,0.01466162,0.007331535,0.003286518,0.002586956,0.001697746,0.001022016,0.000518134,-13.348889,5,50,-999.0,-999.0,-999,-999,0,-999,?
153,48,Coyote Lake,1979,806,1705,San Juan Bautista - Hwy 101/156 Overpass,422,47315,5.74,336.0,80.0,176,0,4.26,200.98,9.87,291.72,37.065,-121.49,8.0,1,3.08,6.6,7.0,46.2,0.7746397694524496,23.91,25.21,20.44,-999.0,24.02,20.67,-15.47,na,-130.78,0.62,0.71,53.92,-999,S,C,362.98,2a_3a_4b_4c,-999.0,CDMG,36.8619,-121.578,1,BASE OF COLUMN,0.0,-999,-999,125.0,220.6,220.6,125.0,220.6,220.6,-999.0,COYOTELK\SJ5067.AT2,COYOTELK\SJ5337.AT2,COYOTELK\SJ5-UP.AT2,67,337,A,-999,PEA,A,1,2.5,0.1,0.2,50.0,60.0,1.25,0.125,0.25,0.25,0.095657,6.5117,1.12,0.09584039,0.09665672,0.1234559,0.1040391,0.1213025,0.1509186,0.1350831,0.2128412,0.167536,0.2013697,0.2273496,0.2393828,0.1233144,0.06621519,0.02761286,0.01428152,0.007653712,0.003789651,0.002911833,0.001988621,0.001210517,0.000577069,-13.348889,5,50,-999.0,-999.0,-999,-999,0,-999,?
154,48,Coyote Lake,1979,806,1705,"San Juan Bautista, 24 Polk St",418,47126,5.74,336.0,80.0,176,0,4.26,200.98,9.87,291.72,37.065,-121.49,8.0,1,3.08,6.6,7.0,46.2,0.7746397694524496,23.24,24.58,19.46,-999.0,23.3,19.7,-12.47,na,-140.12,0.62,0.71,49.05,-999,D,D,335.5,2a_3a_4b_4c,-999.0,CDMG,36.86,-121.54,-999,-999,-999.0,-999,-999,594.0,1393.4,3344.2,594.0,1393.4,3344.2,-999.0,COYOTELK\SJB213.AT2,COYOTELK\SJB303.AT2,COYOTELK\SJB-UP.AT2,213,303,A,-999,PEA,A,1,2.5,0.1,0.1,23.0,23.0,1.25,0.125,0.125,0.125,0.10131,6.8595,1.4449,0.10141,0.1019363,0.1027099,0.1057956,0.1138171,0.1667375,0.1702177,0.2709959,0.2731232,0.2221481,0.2461459,0.2316293,0.1612666,0.08943313,0.04845612,0.0242737,0.01344157,0.008489402,0.004039231,0.00291068,0.00170774,0.001016004,-14.930009,5,50,-999.0,-999.0,-999,-999,0,-999,?
158,50,Imperial Valley-06,1979,1015,2316,Aeropuerto Mexicali,243,6616,6.53,323.0,80.0,180,0,7.05,187.56,7.05,278.44,32.644,-115.307,9.96,1,0.0,50.0,13.0,649.9,0.8690680388793597,2.47,10.26,0.0,-999.0,7.09,0.34,0.35,na,90.0,0.04,0.77,1.99,-999,-999,D,259.86,3b_4c,0.37,UNAMUCSD,32.651,-115.332,0,GROUND LEVEL,4.8,-999,-999,1560.0,-999.0,3460.0,1360.0,-999.0,3140.0,-999.0,IMPVALL.H\H-AEP045.AT2,IMPVALL.H\H-AEP315.AT2,IMPVALL.H\H-AEP-UP.AT2,45,315,A,-999,PEA,A,1,2.5,0.15,0.23,40.0,40.0,1.25,0.1875,0.2875,0.2875,0.29094,34.949,7.6005,0.2948342,0.321937,0.444543,0.5942656,0.5646173,0.9328041,0.6674312,0.5554037,0.7248421,0.7693147,0.6041013,0.5179439,0.3789002,0.346666,0.3292872,0.1818824,0.08662628,0.04158137,0.02067144,0.01245434,0.006588456,0.003406463,13.906846,5,50,-999.0,-999.0,-999,-999,0,-999,?
159,50,Imperial Valley-06,1979,1015,2316,Agrarias,245,6618,6.53,323.0,80.0,180,0,7.05,187.56,7.05,278.44,32.644,-115.307,9.96,1,0.0,50.0,13.0,649.9,0.8690680388793597,2.62,10.3,0.0,-999.0,7.82,0.65,0.66,na,90.0,0.05,0.77,3.75,-999,-999,D,242.05,3b_4b_4c,0.37,UNAMUCSD,32.621,-115.301,0,GROUND LEVEL,5.0,-999,-999,1660.0,-999.0,3860.0,1320.0,-999.0,3040.0,-999.0,IMPVALL.H\H-AGR003.AT2,IMPVALL.H\H-AGR273.AT2,IMPVALL.H\H-AGRDWN.AT2,3,273,D,-999,PEA,A,1,2.5,0.12,0.13,20.0,20.0,1.25,0.15,0.1625,0.1625,0.23865,38.371,10.532,0.2402203,0.2462551,0.3342173,0.4258588,0.5090439,0.5513291,0.3587531,0.2934854,0.3821574,0.396881,0.4155173,0.5215781,0.4668187,0.2723866,0.2891885,0.2402011,0.08883201,0.04791442,0.03131829,0.0188493,0.009816396,0.00487726,9.4925284,5,50,-999.0,-999.0,-999,-999,0,-999,D
160,50,Imperial Valley-06,1979,1015,2316,Bonds Corner,210,5054,6.53,323.0,80.0,180,0,7.05,187.56,7.05,278.44,32.644,-115.307,9.96,1,0.0,50.0,13.0,649.9,0.8690680388793597,6.19,11.72,0.44,-999.0,9.96,2.66,2.7,na,90.0,0.12,0.74,15.44,-999,D,D,223.03,0,0.1,USGS,32.69305,-115.33819,1,GROUND LEVEL,4.8,-999,-999,1460.0,-999.0,3260.0,1400.0,-999.0,3260.0,-999.0,IMPVALL.H\H-BCR140.AT2,IMPVALL.H\H-BCR230.AT2,IMPVALL.H\H-BCR-UP.AT2,140,230,A,-999,PEA,A,1,2.5,0.0,0.1,40.0,40.0,1.25,0.0,0.125,0.125,0.68661,49.562,17.975,0.6876479,0.7194369,0.9094328,0.9644687,0.9476647,1.117638,1.561921,1.879604,1.723691,1.659769,1.717456,1.491664,0.9535881,0.4428913,0.2312421,0.188998,0.08379675,0.04593991,0.04362216,0.03835655,0.02269545,0.009762189,17.992185,5,50,-999.0,-999.0,-999,-999,0,-999,?
161,50,Imperial Valley-06,1979,1015,2316,Brawley Airport,216,5060,6.53,323.0,80.0,180,0,7.05,187.56,7.05,278.44,32.644,-115.307,9.96,1,0.0,50.0,13.0,649.9,0.8690680388793597,43.15,44.29,8.54,-999.0,23.49,10.42,9.64,na,65.97,0.76,0.65,48.39,-999,D,D,208.71,0,0.1,USGS,32.991,-115.513,1,GROUND LEVEL,5.2,-999,-999,1620.0,-999.0,3820.0,1500.0,-999.0,3460.0,-999.0,IMPVALL.H\H-BRA225.AT2,IMPVALL.H\H-BRA315.AT2,IMPVALL.H\H-BRA-UP.AT2,225,315,A,-999,PEA,A,1,2.5,0.032,0.043,40.0,40.0,1.25,0.04,0.05375,0.05375,0.17591,37.405,21.823,0.1768574,0.1783859,0.1975138,0.2624774,0.3093753,0.3370326,0.3795207,0.4350677,0.4802262,0.5329626,0.3641386,0.3542514,0.2758757,0.2604783,0.1989678,0.1561946,0.1192483,0.08393334,0.07228572,0.04134073,0.02487339,0.01544521,54.298761,5,50,-999.0,-999.0,-999,-999,0,-999,?
162,50,Imperial Valley-06,1979,1015,2316,Calexico Fire Station,209,5053,6.53,323.0,80.0,180,0,7.05,187.56,7.05,278.44,32.644,-115.307,9.96,1,0.0,50.0,13.0,649.9,0.8690680388793597,17.66,20.27,10.45,-999.0,17.41,10.45,-10.45,na,-90.0,0.26,0.78,40.77,-999,D,D,231.23,0,0.1,USGS,32.6695,-115.493,1,GROUND LEVEL,5.0,-999,-999,1360.0,-999.0,3060.0,1280.0,-999.0,2960.0,-999.0,IMPVALL.H\H-CXO225.AT2,IMPVALL.H\H-CXO315.AT2,IMPVALL.H\H-CXO-UP.AT2,225,315,A,-999,PEA,A,1,2.5,0.04,0.033,40.0,40.0,1.25,0.05,0.04125,0.05,0.23764,21.309,13.931,0.2380417,0.2417868,0.242352,0.2619745,0.36108,0.5499296,0.5829534,0.5084287,0.5617917,0.5545381,0.5329773,0.54874,0.2641512,0.1595957,0.1426169,0.0714349,0.05351231,0.03831163,0.03139997,0.03250679,0.02652056,0.01245304,24.638361,5,50,-999.0,-999.0,-999,-999,0,-999,?
163,50,Imperial Valley-06,1979,1015,2316,Calipatria Fire Station,217,5061,6.53,323.0,80.0,180,0,7.05,187.56,7.05,278.44,32.644,-115.307,9.96,1,0.0,50.0,13.0,649.9,0.8690680388793597,57.14,58.0,23.17,-999.0,40.49,24.6,18.52,na,48.3,0.76,0.53,69.3,-999,D,D,205.78,1,0.25,USGS,33.1266,-115.516,2,GROUND LEVEL,5.1,-999,-999,1300.0,-999.0,3100.0,1460.0,-999.0,3360.0,-999.0,IMPVALL.H\H-CAL225.AT2,IMPVALL.H\H-CAL315.AT2,IMPVALL.H\H-CAL-UP.AT2,225,315,A,-999,PEA,A,1,2.5,0.05,0.07,40.0,40.0,1.25,0.0625,0.0875,0.0875,0.097772,14.29,10.133,0.09777208,0.1013231,0.1101777,0.1079012,0.1520276,0.1620443,0.222761,0.2934613,0.2769317,0.3123428,0.1799639,0.1226851,0.1172395,0.09613338,0.07396471,0.0511183,0.05099368,0.03514607,0.04283001,0.02882596,0.01638819,0.01230645,66.500611,5,50,-999.0,-999.0,-999,-999,0,-999,?
164,50,Imperial Valley-06,1979,1015,2316,Cerro Prieto,240,6604,6.53,323.0,80.0,180,0,7.05,187.56,7.05,278.44,32.644,-115.307,9.96,1,0.0,50.0,13.0,649.9,0.8690680388793597,24.82,26.74,15.19,-999.0,30.69,15.19,-12.73,na,-123.04,0.24,0.78,45.48,-999, ,C,471.53,3b_4b_4c,0.37,UNAMUCSD,32.421,-115.301,1,GROUND LEVEL,0.0,-999,-999,1300.0,-999.0,2900.0,500.0,-999.0,500.0,-999.0,IMPVALL.H\H-CPE147.AT2,IMPVALL.H\H-CPE237.AT2,IMPVALL.H\H-CPEDWN.AT2,147,237,D,-999,PEA,A,1,2.5,0.09,0.08,30.0,30.0,1.25,0.1125,0.1,0.1125,0.17137,15.88,6.6028,0.1727459,0.1730742,0.1775466,0.2234847,0.3677838,0.4560172,0.4653399,0.4377479,0.4646079,0.6066093,0.4636091,0.3767385,0.3309659,0.212153,0.1087242,0.07705054,0.05377245,0.03146695,0.02453697,0.02388982,0.01210239,0.003922577,-8.2824754,5,50,-999.0,-999.0,-999,-999,0,-999,D
165,50,Imperial Valley-06,1979,1015,2316,Chihuahua,247,6621,6.53,323.0,80.0,180,0,7.05,187.56,7.05,278.44,32.644,-115.307,9.96,1,0.0,50.0,13.0,649.9,0.8690680388793597,18.88,21.35,7.29,-999.0,22.77,7.29,-3.94,na,-147.25,0.24,0.78,19.74,-999,-999,D,242.05,3b_4b_4c,0.37,UNAMUCSD,32.484,-115.24,0,GROUND LEVEL,6.0,-999,-999,1860.0,-999.0,4160.0,1000.0,-999.0,2300.0,-999.0,IMPVALL.H\H-CHI012.AT2,IMPVALL.H\H-CHI282.AT2,IMPVALL.H\H-CHIDWN.AT2,12,282,D,-999,PEA,A,1,2.5,0.08,0.18,30.0,30.0,1.25,0.1,0.225,0.225,0.26506,28.705,7.7845,0.2669709,0.2660021,0.2791749,0.29119,0.3684743,0.3999643,0.4143781,0.4593881,0.660516,0.5010286,0.5530935,0.5414246,0.6753243,0.3803253,0.2026451,0.1168861,0.06968073,0.053855,0.03314699,0.01494292,0.008673558,0.005055779,-6.1275298,5,50,-999.0,-999.0,-999,-999,0,-999,D
166,50,Imperial Valley-06,1979,1015,2316,Coachella Canal #4,219,5066,6.53,323.0,80.0,180,0,7.05,187.56,7.05,278.44,32.644,-115.307,9.96,1,0.0,50.0,13.0,649.9,0.8690680388793597,83.94,84.53,49.1,-999.0,68.84,50.1,28.71,na,34.76,0.76,0.39,79.73,-999,D,D,336.49,2a_3a_4b_4c,0.25,USGS,33.36,-115.59,-999,-999,-999.0,-999,-999,760.0,-999.0,1160.0,420.0,-999.0,420.0,-999.0,IMPVALL.H\H-CC4045.AT2,IMPVALL.H\H-CC4135.AT2,IMPVALL.H\H-CC4-UP.AT2,45,135,A,-999,PEA,A,1,2.5,0.11,0.11,40.0,40.0,1.25,0.1375,0.1375,0.1375,0.12238,14.529,2.894,0.1224109,0.123377,0.1233638,0.1271884,0.1278555,0.1247707,0.1486992,0.1896564,0.2445176,0.2937016,0.3056717,0.3972244,0.2454151,0.1055532,0.07860219,0.05082331,0.02103402,0.01043732,0.007679499,0.006091832,0.002724129,0.001740579,91.363852,5,50,-999.0,-999.0,-999,-999,0,-999,?
167,50,Imperial Valley-06,1979,1015,2316,Compuertas,248,6622,6.53,323.0,80.0,180,0,7.05,187.56,7.05,278.44,32.644,-115.307,9.96,1,0.0,50.0,13.0,649.9,0.8690680388793597,22.43,24.55,13.52,-999.0,28.95,15.3,13.78,na,117.12,0.24,0.59,60.39,-999,-999,D,259.86,3b_4c,0.37,UNAMUCSD,32.573,-115.083,0,GROUND LEVEL,4.5,-999,-999,2180.0,-999.0,4880.0,1120.0,-999.0,2580.0,-999.0,IMPVALL.H\H-CMP015.AT2,IMPVALL.H\H-CMP285.AT2,IMPVALL.H\H-CMPDWN.AT2,15,285,D,-999,PEA,A,1,2.5,0.08,0.12,20.0,23.0,1.25,0.1,0.15,0.15,0.15012,10.556,3.1182,0.1530671,0.1508564,0.1529154,0.1772777,0.3090948,0.4217848,0.3274911,0.3547198,0.4046487,0.3696465,0.2839235,0.2488566,0.1462661,0.08512492,0.05199619,0.03985772,0.02145215,0.0258556,0.01404281,0.009998189,0.004617123,0.002572865,-7.0579494,5,50,-999.0,-999.0,-999,-999,0,-999,D
168,50,Imperial Valley-06,1979,1015,2316,Cucapah,244,6617,6.53,323.0,80.0,180,0,7.05,187.56,7.05,278.44,32.644,-115.307,9.96,1,0.0,50.0,13.0,649.9,0.8690680388793597,12.92,16.31,0.99,-999.0,12.99,1.11,0.51,na,152.45,0.24,0.77,2.94,-999,-999,D,242.05,3b_4b_4c,0.37,UNAMUCSD,32.545,-115.235,0,GROUND LEVEL,6.0,-999,-999,2180.0,-999.0,4980.0,1220.0,-999.0,2800.0,-999.0,IMPVALL.H\H-QKP085.AT2,IMPVALL.H\H-QKPXXX.AT2,IMPVALL.H\H-QKP-UP.AT2,85,-999,D,-999,PEA,A,1,2.5,0.09,0.0,40.0,0.0,1.25,0.1125,0.0,0.1125,-999.0,-999.0,-999.0,-999.0,-999.0,-999.0,-999.0,-999.0,-999.0,-999.0,-999.0,-999.0,-999.0,-999.0,-999.0,-999.0,-999.0,-999.0,-999.0,-999.0,-999.0,-999.0,-999.0,-999.0,-999.0,-0.98581647,5,50,-999.0,-999.0,-999,-999,0,-999,D
169,50,Imperial Valley-06,1979,1015,2316,Delta,241,6605,6.53,323.0,80.0,180,0,7.05,187.56,7.05,278.44,32.644,-115.307,9.96,1,0.0,50.0,13.0,649.9,0.8690680388793597,33.73,35.17,22.03,-999.0,40.51,22.03,-9.13,na,-155.53,0.24,0.78,37.51,-999,-999,D,242.05,3b_4b_4c,0.37,UNAMUCSD,32.356,-115.195,0,GROUND LEVEL,7.5,-999,-999,1460.0,-999.0,3160.0,2260.0,-999.0,2260.0,-999.0,IMPVALL.H\H-DLT262.AT2,IMPVALL.H\H-DLT352.AT2,IMPVALL.H\H-DLTDWN.AT2,262,352,D,-999,PEA,A,1,2.5,0.07,0.07,30.0,30.0,1.25,0.0875,0.0875,0.0875,0.2618,26.95,17.164,0.267059,0.2658851,0.2696599,0.396681,0.4046535,0.6956692,0.7621707,0.5410293,0.582351,0.6901891,0.6309374,0.6567541,0.518494,0.3565116,0.3107617,0.1929903,0.1242381,0.07445753,0.07787418,0.04616836,0.025593,0.02193045,-20.051156,5,50,-999.0,-999.0,-999,-999,0,-999,D
