Record Sequence Number,EQID,Earthquake Name,YEAR,MODY,HRMN,Station Name,Station Sequence Number,Station ID  No.,Earthquake Magnitude,Strike (deg),Dip (deg),Rake Angle (deg),Mechanism Based on Rake Angle,P-plunge (deg),P-trend (deg),T-plunge (deg),T-trend (deg),Hypocenter Latitude (deg),Hypocenter Longitude (deg),Hypocenter Depth (km),Finite Rupture Model: 1=Yes;  0=No,Depth to Top Of Fault Rupture Model,Fault Rupture Length for Calculation of Ry (km),Fault Rupture Width (km),Fault Rupture Area (km^2),Average Vr/Vs,EpiD (km),HypD (km),Joyner-Boore Dist. (km),Campbell R Dist. (km),RmsD (km),ClstD (km),Rx,FW/HW Indicator,Source to Site Azimuth (deg),X,Y,Phi.D (deg),Unused Column.2,Depth,Preferred NEHRP Based on Vs30,Vs30 (m/s) selected for analysis,Measured/Inferred Class,Sigma of Vs30 (in natural log Units),Owner,Station Latitude,Station Longitude,STORIES,INSTLOC,Depth to Basement Rock,Site Visited,NGA Type,Northern CA/Southern CA - H11 Z1 (m),Northern CA/Southern CA - H11 Z1.5 (m),Northern CA/Southern CA - H11 Z2.5 (m),Northern CA/Southern CA - S4 Z1 (m),Northern CA/Southern CA - S4 Z1.5 (m),Northern CA/Southern CA - S4 Z2.5 (m),Rebe (m),File Name (Horizontal 1),File Name (Horizontal 2),File Name (Vertical),H1 azimth (degrees),H2 azimith (degrees),Type of Recording,Instrument Model,PEA Processing Flag,Type of Filter,npass,nroll,HP-H1 (Hz),HP-H2 (Hz),LP-H1 (Hz),LP-H2 (Hz),Factor,Lowest Usable Freq - H1 (Hz),Lowest Usable Freq - H2 (H2),Lowest Usable Freq - Ave. Component (Hz),PGA (g),PGV (cm/sec),PGD (cm),T0.010S,T0.020S,T0.030S,T0.050S,T0.075S,T0.100S,T0.150S,T0.200S,T0.250S,T0.300S,T0.400S,T0.500S,T0.750S,T1.000S,T1.500S,T2.000S,T3.000S,T4.000S,T5.000S,T6.000S,T7.500S,T10.000S,U,Damping (%),RotD percentile,Instrument Nat. Freq.,Instrument Damping,Instrument Type,Quality_Flag,Spectra Quality Flag,Late S-trigger,Late P-trigger
12,12,Kern County,1952,721,1153,LA - Hollywood Stor FF,326,24303,7.36,51.0,75.0,61,2,24.48,163.13,51.3,287.75,34.9906,-119.024,15.63,1,0.0,64.7,17.0,1098.6,0.6666666666666667,118.26,119.29,114.62,-999.0,124.34,117.75,120.03,na,93.36,0.11,0.34,82.58,-999,S,D,316.46,0,0.1,CDMG,34.09,-118.339,0,GROUND LEVEL,2.5,-999,2,260.0,-999.0,2540.0,320.0,-999.0,5140.0,-999.0,KERN.PEL\PEL090.AT2,KERN.PEL\PEL180.AT2,KERN.PEL\PEL-UP.AT2,90,180,A,-999,PEA,A,1,2.5,0.1,0.1,15.0,13.0,1.25,0.125,0.125,0.125,0.052746,8.5444,3.8927,0.05277712,0.05288368,0.05310568,0.05431889,0.05954262,0.06184468,0.09610041,0.1157662,0.1253355,0.1456752,0.1238293,0.1519955,0.1078584,0.1051025,0.0767978,0.03905855,0.03938469,0.03062481,0.01747722,0.01181704,0.006989321,0.003123116,-7.0467704,5,50,-999.0,-999.0,-999,-999,0,-999,Y
13,12,Kern County,1952,721,1153,Pasadena - CIT Athenaeum,499,80053,7.36,51.0,75.0,61,2,24.48,163.13,51.3,287.75,34.9906,-119.024,15.63,1,0.0,64.7,17.0,1098.6,0.6666666666666667,125.81,126.77,122.65,-999.0,128.72,125.59,128.28,na,90.0,0.08,0.34,82.09,-999,D,C,415.13,1,0.3,CIT,34.139,-118.121,2,BASEMENT,0.23,-999,-999,80.0,-999.0,1100.0,320.0,-999.0,1680.0,-999.0,KERN\PAS180.AT2,KERN\PAS270.AT2,KERN\PAS-UP.AT2,180,270,A,-999,PEA,A,1,2.5,0.2,0.13,12.5,12.1,1.25,0.25,0.1625,0.25,0.051003,7.2566,2.1273,0.05135785,0.0510617,0.05116383,0.05179248,0.05192046,0.05951821,0.05889042,0.08923559,0.1072612,0.1027187,0.1118038,0.1306673,0.1491701,0.1402703,0.06286092,0.05509985,0.02722996,0.01596145,0.007272959,0.004526149,0.002381299,0.001416813,12.058759,5,50,-999.0,-999.0,-999,-999,0,-999,?
14,12,Kern County,1952,721,1153,Santa Barbara Courthouse,92,283,7.36,51.0,75.0,61,2,24.48,163.13,51.3,287.75,34.9906,-119.024,15.63,1,0.0,64.7,17.0,1098.6,0.6666666666666667,88.39,89.76,81.3,-999.0,106.65,82.19,12.46,na,171.26,0.11,0.57,48.23,-999,S,C,514.99,1,0.3,USGS,34.423,-119.7,2,BASEMENT,8.5,-999,-999,1380.0,-999.0,3980.0,-999.0,-999.0,-999.0,-999.0,KERN\SBA042.AT2,KERN\SBA132.AT2,KERN\SBA-UP.AT2,42,132,A,-999,PEA,A,1,2.5,0.3,0.1,14.3,13.2,1.25,0.375,0.125,0.375,0.10071,15.499,4.1319,0.1011678,0.1007964,0.1009211,0.1019097,0.1034728,0.1111807,0.1238918,0.1605641,0.2005152,0.2496565,0.2350303,0.3064157,0.2197436,0.29039,0.1855838,0.1342575,0.03790288,0.02436747,0.01557859,0.00784959,0.0038158,0.001763881,-81.01185,5,50,-999.0,-999.0,-999,-999,0,-999,Y
15,12,Kern County,1952,721,1153,Taft Lincoln School,148,1095,7.36,51.0,75.0,61,2,24.48,163.13,51.3,287.75,34.9906,-119.024,15.63,1,0.0,64.7,17.0,1098.6,0.6666666666666667,43.49,46.21,38.42,-999.0,56.44,38.89,-36.23,na,-109.44,0.11,0.66,55.73,-999,S,C,385.43,0,0.2,USGS,35.15,-119.46,1,BASEMENT,6.4,-999,-999,80.0,-999.0,3840.0,-999.0,-999.0,2300.0,-999.0,KERN\TAF021.AT2,KERN\TAF111.AT2,KERN\TAF-UP.AT2,21,111,A,-999,PEA,A,1,2.5,0.1,0.05,13.9,13.2,1.25,0.125,0.0625,0.125,0.1645,16.965,8.0389,0.1656531,0.1654109,0.1673561,0.173746,0.2104273,0.2443034,0.3121247,0.4518817,0.3722391,0.3935958,0.4091321,0.3653378,0.2801501,0.1690015,0.1287251,0.07102078,0.04553452,0.02880807,0.03279343,0.02393753,0.01620466,0.008626774,-12.783809,5,50,-999.0,-999.0,-999,-999,0,-999,Y
28,25,Parkfield,1966,628,426,Cholame - Shandon Array #12,131,1016,6.19,140.0,90.0,180,0,0.0,188.0,0.0,98.0,35.955,-120.4983,10.0,1,0.0,25.0,12.0,300.0,0.747811725846408,36.18,37.54,17.64,-999.0,24.53,17.64,15.1,na,58.88,1.0,0.83,56.49,-999,S,C,408.93,1,0.3,CDMG,35.639,-120.404,0,GROUND LEVEL,2.6,-999,-999,80.0,-999.0,3400.0,-999.0,-999.0,-999.0,-999.0,PARKF\C12050.AT2,PARKF\C12320.AT2,PARKF\C12DWN.AT2,50,320,A,-999,PEA,A,1,2.5,0.1,0.1,20.0,20.0,1.25,0.125,0.125,0.125,0.058666,7.1982,3.9056,0.05997521,0.05978156,0.06125835,0.07939687,0.1433477,0.1408705,0.1436452,0.1310779,0.1303276,0.1164685,0.09772094,0.08405226,0.06211495,0.05872679,0.07796464,0.05197888,0.0306528,0.02012347,0.01245365,0.01402967,0.009223339,0.002902523,32.909509,5,50,-999.0,-999.0,-999,-999,0,-999,Y
29,25,Parkfield,1966,628,426,Cholame - Shandon Array #2,125,1013,6.19,140.0,90.0,180,0,0.0,188.0,0.0,98.0,35.955,-120.4983,10.0,1,0.0,25.0,12.0,300.0,0.747811725846408,31.04,32.61,6.27,-999.0,14.78,6.27,0.71,na,6.49,1.0,0.83,4.05,-999,S,D,184.75,0,0.1,CDMG,35.733,-120.29,0,GROUND LEVEL,3.0,-999,-999,80.0,-999.0,4220.0,-999.0,-999.0,1060.0,-999.0,PARKF\C02065.AT2,PARKF\C02XXX.AT2,PARKF\C02DWN.AT2,65,-999,A,-999,PEA,A,1,2.5,0.08,-999.0,10.0,0.0,1.25,0.1,-999.0,0.1,-999.0,-999.0,-999.0,-999.0,-999.0,-999.0,-999.0,-999.0,-999.0,-999.0,-999.0,-999.0,-999.0,-999.0,-999.0,-999.0,-999.0,-999.0,-999.0,-999.0,-999.0,-999.0,-999.0,-999.0,-999.0,31.099558,5,50,-999.0,-999.0,-999,-999,0,-999,-999
30,25,Parkfield,1966,628,426,Cholame - Shandon Array #5,127,1014,6.19,140.0,90.0,180,0,0.0,188.0,0.0,98.0,35.955,-120.4983,10.0,1,0.0,25.0,12.0,300.0,0.747811725846408,32.56,34.06,9.58,-999.0,17.72,9.58,5.8,na,37.23,1.0,0.83,30.1,-999,S,D,289.56,0,0.1,CDMG,35.697,-120.328,0,GROUND LEVEL,1.1,-999,-999,80.0,-999.0,4420.0,-999.0,-999.0,1080.0,-999.0,PARKF\C05085.AT2,PARKF\C05355.AT2,PARKF\C05DWN.AT2,85,355,A,-999,PEA,A,1,2.5,0.13,0.1,17.4,20.0,1.25,0.1625,0.125,0.1625,0.37893,23.545,5.418,0.3848881,0.3800139,0.387277,0.3927589,0.5010295,0.5879291,0.6860369,0.8173795,0.7963665,1.110285,0.9695265,0.7400177,0.2513564,0.170939,0.0747552,0.09348765,0.04233243,0.02277783,0.01691223,0.01586775,0.009116882,0.004256963,32.206458,5,50,-999.0,-999.0,-999,-999,0,-999,?
31,25,Parkfield,1966,628,426,Cholame - Shandon Array #8,129,1015,6.19,140.0,90.0,180,0,0.0,188.0,0.0,98.0,35.955,-120.4983,10.0,1,0.0,25.0,12.0,300.0,0.747811725846408,34.01,35.45,12.9,-999.0,20.53,12.9,9.74,na,49.04,1.0,0.83,44.24,-999,S,D,256.82,1,0.25,CDMG,35.671,-120.359,1,GROUND LEVEL,1.9,-999,-999,80.0,-999.0,4120.0,-999.0,-999.0,-999.0,-999.0,PARKF\C08050.AT2,PARKF\C08320.AT2,PARKF\C08DWN.AT2,50,320,A,-999,PEA,A,1,2.5,0.1,0.05,20.0,20.0,1.25,0.125,0.0625,0.125,0.24724,11.633,4.3548,0.2529367,0.248072,0.2602208,0.289084,0.4389749,0.4793651,0.7965516,0.7779899,0.4121971,0.354056,0.3269746,0.2840353,0.1654263,0.1516473,0.06385341,0.04530564,0.02863099,0.02255636,0.01387327,0.0155801,0.008544379,0.003424468,32.727245,5,50,-999.0,-999.0,-999,-999,0,-999,?
32,25,Parkfield,1966,628,426,San Luis Obispo,147,1083,6.19,140.0,90.0,180,0,0.0,188.0,0.0,98.0,35.955,-120.4983,10.0,1,0.0,25.0,12.0,300.0,0.747811725846408,75.99,76.65,63.34,-999.0,68.72,63.34,56.51,na,63.15,1.0,0.83,79.97,-999,S,C,493.5,2a_3a_4b_4c,0.3,USGS,35.285,-120.661,-999,-999,-999.0,-999,-999,40.0,-999.0,280.0,-999.0,-999.0,-999.0,-999.0,PARKF\SLO234.AT2,PARKF\SLO324.AT2,PARKF\SLO-UP.AT2,234,324,A,-999,PEA,A,1,2.5,0.5,0.5,15.0,12.0,1.25,0.625,0.625,0.625,0.012819,0.79134,0.10682,0.01301824,0.01287793,0.01308176,0.0140832,0.01746391,0.02718973,0.03737402,0.03565601,0.0316692,0.02266452,0.02536777,0.02717689,0.01475923,0.008636198,0.006541518,0.002789758,0.000994469,0.000372348,0.00020064,0.000145932,8.78331e-05,4.62234e-05,48.198128,5,50,-999.0,-999.0,-999,-999,0,-999,-999
33,25,Parkfield,1966,628,426,Temblor pre-1969,162,1438,6.19,140.0,90.0,180,0,0.0,188.0,0.0,98.0,35.955,-120.4983,10.0,1,0.0,25.0,12.0,300.0,0.747811725846408,40.25,41.48,15.96,-999.0,24.75,15.96,-6.84,na,-25.39,1.0,0.83,34.39,-999,S,C,527.92,1,0.3,CDMG,35.71,-120.17,0,GROUND LEVEL,2.8,-999,-999,40.0,-999.0,4120.0,-999.0,-999.0,-999.0,-999.0,PARKF\TMB205.AT2,PARKF\TMB295.AT2,PARKF\TMBDWN.AT2,205,295,A,-999,PEA,A,1,2.5,0.1,0.15,14.7,15.1,1.25,0.125,0.1875,0.1875,0.28726,16.521,4.7792,0.2906406,0.2879461,0.2885054,0.2959554,0.3219232,0.3679098,0.4891693,0.7114415,0.8059053,0.7532907,0.8913483,0.4126427,0.136261,0.1469158,0.07009029,0.04745964,0.02543725,0.01550776,0.01032292,0.007966438,0.005250328,0.002628874,39.674258,5,50,-999.0,-999.0,-999,-999,0,-999,-999
36,28,Borrego Mtn,1968,409,230,El Centro Array #9,75,117,6.63,317.0,78.0,-178,0,9.85,181.17,7.06,272.4,33.189,-116.143,8.0,1,0.0,30.0,12.0,360.1,-999.0,70.75,71.2,45.12,-999.0,58.68,45.66,12.44,na,164.22,0.86,0.47,65.39,-999,D,D,213.44,0,0.1,USGS,32.794,-115.549,2,BASEMENT,5.0,-999,-999,1440.0,-999.0,3140.0,1420.0,-999.0,5320.0,-999.0,BORREGO\A-ELC180.AT2,BORREGO\A-ELC270.AT2,BORREGO\A-ELC-UP.AT2,180,270,A,-999,PEA,A,1,2.5,0.04,0.08,12.5,12.8,1.25,0.05,0.1,0.1,0.094018,19.007,12.589,0.09498921,0.09418822,0.09497089,0.09929492,0.1114645,0.112523,0.1501072,0.1817508,0.2149548,0.1677121,0.1636312,0.1543381,0.1279374,0.1348042,0.1641726,0.1287694,0.07080775,0.03501317,0.03541328,0.03133954,0.02186938,0.01550012,-44.010768,5,50,-999.0,-999.0,-999,-999,0,-999,Y
37,28,Borrego Mtn,1968,409,230,LA - Hollywood Stor FF,326,24303,6.63,317.0,78.0,-178,0,9.85,181.17,7.06,272.4,33.189,-116.143,8.0,1,0.0,30.0,12.0,360.1,-999.0,226.84,226.98,222.42,-999.0,236.66,222.42,-76.49,na,-20.11,0.14,0.68,72.16,-999,S,D,316.46,0,0.1,CDMG,34.09,-118.339,0,GROUND LEVEL,2.5,-999,2,260.0,-999.0,2540.0,320.0,-999.0,5140.0,-999.0,BORREGO\A-PEL090.AT2,BORREGO\A-PEL180.AT2,BORREGO\A-PEL-UP.AT2,90,180,A,-999,PEA,A,1,2.5,0.08,0.13,13.0,13.0,1.25,0.1,0.1625,0.1625,0.012584,2.8846,1.278,0.01259377,0.01262035,0.01268773,0.01289939,0.01369278,0.01326771,0.01439804,0.01917123,0.0211498,0.02244077,0.01930197,0.02711397,0.02890416,0.02271999,0.02527718,0.02944243,0.01054695,0.01229873,0.005821296,0.002941122,0.001978952,0.000793199,238.85985,5,50,-999.0,-999.0,-999,-999,0,-999,-999
38,28,Borrego Mtn,1968,409,230,LB - Terminal Island,81,130,6.63,317.0,78.0,-178,0,9.85,181.17,7.06,272.4,33.189,-116.143,8.0,1,0.0,30.0,12.0,360.1,-999.0,204.23,204.39,199.84,-999.0,213.47,199.84,-94.1,na,-28.09,0.14,0.68,73.23,-999,D,D,217.92,1,0.25,USGS,33.77,-118.23,1,BASEMENT,-999.0,-999,-999,140.0,-999.0,2260.0,420.0,-999.0,3520.0,-999.0,BORREGO\A-TLI249.AT2,BORREGO\A-TLI339.AT2,BORREGO\A-TLI-UP.AT2,249,339,A,-999,PEA,A,1,2.5,0.1,0.2,15.0,15.0,1.25,0.125,0.25,0.25,0.0090144,2.4991,1.448,0.009016137,0.009022657,0.00905278,0.009243639,0.009633102,0.01046982,0.01120953,0.01413667,0.0191519,0.02767301,0.03020377,0.02645731,0.02373534,0.02037488,0.0199545,0.01709348,0.008743292,0.008777693,0.006277008,0.006159471,0.002122305,0.001304976,206.29863,5,50,-999.0,-999.0,-999,-999,0,-999,-999
39,28,Borrego Mtn,1968,409,230,Pasadena - CIT Athenaeum,499,80053,6.63,317.0,78.0,-178,0,9.85,181.17,7.06,272.4,33.189,-116.143,8.0,1,0.0,30.0,12.0,360.1,-999.0,211.53,211.68,207.14,-999.0,221.55,207.14,-58.27,na,-16.34,0.14,0.68,70.4,-999,D,C,415.13,1,0.3,CIT,34.139,-118.121,2,BASEMENT,0.23,-999,-999,80.0,-999.0,1100.0,320.0,-999.0,1680.0,-999.0,BORREGO\A-PAS180.AT2,BORREGO\A-PAS270.AT2,BORREGO\A-PAS-UP.AT2,180,270,A,-999,PEA,A,1,2.5,0.12,0.13,13.0,13.0,1.25,0.15,0.1625,0.1625,0.0082481,1.9643,0.88104,0.008249772,0.00825903,0.008269226,0.008598492,0.009292138,0.01023769,0.01083499,0.01202826,0.01582574,0.01338466,0.01892743,0.01972152,0.02305918,0.02002354,0.018237,0.01412814,0.01137291,0.005998821,0.002458716,0.001738226,0.0009926721,0.000638926,228.7719,5,50,-999.0,-999.0,-999,-999,0,-999,-999
40,28,Borrego Mtn,1968,409,230,San Onofre - So Cal Edison,90,280,6.63,317.0,78.0,-178,0,9.85,181.17,7.06,272.4,33.189,-116.143,8.0,1,0.0,30.0,12.0,360.1,-999.0,133.36,133.6,129.11,-999.0,141.6,129.11,-80.29,na,-38.45,0.14,0.68,72.43,-999,S,C,442.88,0,0.2,SCE,33.37,-117.56,1,GROUND LEVEL,-999.0,-999,-999,120.0,-999.0,960.0,-999.0,-999.0,2440.0,-999.0,BORREGO\A-SON033.AT2,BORREGO\A-SON303.AT2,BORREGO\A-SON-UP.AT2,33,303,A,-999,PEA,A,1,2.5,0.1,0.13,20.0,20.0,1.25,0.125,0.1625,0.1625,0.042004,3.4995,1.7459,0.04203643,0.0422571,0.04269256,0.04737461,0.0502443,0.05574879,0.0755021,0.1157336,0.09192793,0.1251533,0.09895092,0.07599379,0.05477606,0.04673047,0.02467061,0.01744956,0.01324317,0.0114868,0.008570953,0.005899552,0.003259156,0.001252263,131.11137,5,50,-999.0,-999.0,-999,-999,0,-999,Y
41,29,Lytle Creek,1970,912,1430,Castaic - Old Ridge Route,323,24278,5.33,325.0,48.0,59,3,1.3,256.36,67.45,163.23,34.2698,-117.54,8.0,0,5.627,4.5,3.8,17.2,-999.0,106.33,106.63,103.23,-999.0,106.03,103.39,-61.5,nu,-36.57,0.5,0.84,40.83,-999,S,C,450.28,1,0.3,CDMG,34.564,-118.642,0,GROUND LEVEL,10.0,-999,2,820.0,-999.0,1620.0,320.0,-999.0,1520.0,-999.0,LYTLECR\ORR021.AT2,LYTLECR\ORR291.AT2,LYTLECR\ORRDWN.AT2,21,291,A,-999,PEA,A,1,2.5,0.4,0.4,28.0,13.0,1.25,0.5,0.5,0.5,0.020149,1.2648,0.18708,0.02019343,0.02059464,0.0209388,0.02414562,0.02764138,0.03419071,0.0701486,0.05923688,0.04202679,0.04681364,0.05184741,0.05425093,0.01989609,0.01443741,0.004117963,0.001959193,0.000924771,0.000396863,0.000304676,0.000212858,0.00013006699999999999,7.25146e-05,-999.0,5,50,-999.0,-999.0,-999,-999,0,Y,Y
42,29,Lytle Creek,1970,912,1430,Cedar Springs Pumphouse,73,112,5.33,325.0,48.0,59,3,1.3,256.36,67.45,163.23,34.2698,-117.54,8.0,0,5.627,4.5,3.8,17.2,-999.0,22.51,23.89,21.33,-999.0,24.38,22.94,22.79,hw,106.38,0.5,0.16,69.18,-999,S,C,477.22,0,0.2,CDWR,34.31,-117.3,1,GROUND LEVEL,0.092,-999,-999,40.0,-999.0,220.0,-999.0,-999.0,-999.0,-999.0,LYTLECR\CSP126.AT2,LYTLECR\CSP216.AT2,LYTLECR\CSPDWN.AT2,126,216,A,-999,PEA,A,1,2.5,0.4,0.28,20.0,20.0,1.25,0.5,0.35,0.5,0.067895,3.7417,0.3769,0.0679033,0.06885228,0.07059854,0.08383377,0.1396377,0.1466325,0.1917009,0.1727639,0.1390582,0.1567799,0.1208837,0.07210378,0.04367985,0.02230814,0.01105423,0.005891271,0.002227972,0.001106449,0.000651719,0.000441846,0.000278643,0.000154708,-999.0,5,50,-999.0,-999.0,-999,-999,0,?,Y
43,29,Lytle Creek,1970,912,1430,"Cedar Springs, Allen Ranch",72,111,5.33,325.0,48.0,59,3,1.3,256.36,67.45,163.23,34.2698,-117.54,8.0,0,5.627,4.5,3.8,17.2,-999.0,18.87,20.5,17.4,-999.0,20.86,19.35,18.1,hw,113.31,0.5,0.16,74.62,-999,S,B,813.48,1,0.4,CDWR,34.2778,-117.335,2,GROUND LEVEL,0.0,-999,-999,14.0,14.0,220.0,14.0,14.0,-999.0,-999.0,LYTLECR\CSM095.AT2,LYTLECR\CSM185.AT2,LYTLECR\CSMXXX.AT2,95,185,A,-999,PEA,A,1,2.5,0.3,0.8,18.0,23.0,1.25,0.375,1.0,1.0,0.04291,1.006,0.16387,0.0430643,0.04512625,0.04487256,0.07885238,0.1325631,0.1022646,0.09178244,0.05829549,0.04302664,0.0289511,0.02537239,0.01629952,0.01287161,0.008012112,0.004072982,0.002231756,0.00100825,0.000491389,0.000308407,0.000214093,0.000119834,6.14872e-05,-999.0,5,50,-999.0,-999.0,-999,-999,0,Y,Y
44,29,Lytle Creek,1970,912,1430,Colton - So Cal Edison,74,113,5.33,325.0,48.0,59,3,1.3,256.36,67.45,163.23,34.2698,-117.54,8.0,0,5.627,4.5,3.8,17.2,-999.0,31.48,32.48,29.18,-999.0,32.32,30.11,5.92,nu,168.46,0.5,0.84,67.29,-999,D,D,301.95,0,0.1,USGS,34.059,-117.312,1,GROUND LEVEL,0.18,-999,-999,80.0,-999.0,340.0,320.0,-999.0,580.0,-999.0,LYTLECR\CLN090.AT2,LYTLECR\CLN180.AT2,LYTLECR\CLN-UP.AT2,90,180,A,-999,PEA,A,1,2.5,0.3,0.4,2.0,18.0,1.25,0.375,0.5,0.5,0.027767,1.3178,0.14365,0.02781902,0.02796993,0.02876476,0.03069935,0.03924097,0.05178219,0.07579753,0.08716136,0.122134,0.08361458,0.05848626,0.03114811,0.01903735,0.01359704,0.005992913,0.003976268,0.001080521,0.000457873,0.000265894,0.00017389,0.00010677,6.53478e-05,-999.0,5,50,-999.0,-999.0,-999,-999,0,Y,Y
45,29,Lytle Creek,1970,912,1430,Devil's Canyon,106,620,5.33,325.0,48.0,59,3,1.3,256.36,67.45,163.23,34.2698,-117.54,8.0,0,5.627,4.5,3.8,17.2,-999.0,20.43,21.94,18.39,-999.0,22.08,20.24,14.16,nu,135.18,0.5,0.16,81.63,-999,S,C,667.13,2a_3a_4b_4c,0.4,CDWR,34.21,-117.33,-999,-999,-999.0,-999,-999,40.0,-999.0,260.0,-999.0,-999.0,-999.0,-999.0,LYTLECR\DCF090.AT2,LYTLECR\DCF180.AT2,LYTLECR\DCFDWN.AT2,90,180,A,-999,PEA,A,1,2.5,0.3,0.13,23.0,20.0,1.25,0.375,0.1625,0.375,0.16689,5.0801,0.75826,0.1684643,0.1760868,0.1743582,0.3040974,0.2389903,0.3827873,0.6410589,0.4023538,0.3445732,0.2208117,0.09257941,0.0624499,0.03291461,0.02081154,0.01287283,0.008292707,0.003444296,0.001802697,0.001097581,0.000876018,0.000515587,0.000294768,-999.0,5,50,-999.0,-999.0,-999,-999,0,-999,?
46,29,Lytle Creek,1970,912,1430,LA - Hollywood Stor FF,326,24303,5.33,325.0,48.0,59,3,1.3,256.36,67.45,163.23,34.2698,-117.54,8.0,0,5.627,4.5,3.8,17.2,-999.0,76.23,76.65,73.46,-999.0,75.74,73.67,-69.49,nu,-71.09,0.5,0.84,41.63,-999,S,D,316.46,0,0.1,CDMG,34.09,-118.339,0,GROUND LEVEL,2.5,-999,2,260.0,-999.0,2540.0,320.0,-999.0,5140.0,-999.0,LYTLECR\PEL090.AT2,LYTLECR\PEL180.AT2,LYTLECR\PEL-UP.AT2,90,180,A,-999,PEA,A,1,2.5,0.3,0.3,20.0,20.0,1.25,0.375,0.375,0.375,0.01842,0.77861,0.11792,0.018468,0.01876064,0.0188951,0.02244377,0.03850399,0.04675932,0.05488822,0.0483404,0.05743269,0.04933249,0.03343286,0.01567627,0.01201828,0.006782243,0.004090638,0.002689376,0.001091736,0.000419651,0.000252347,0.000172022,9.94869e-05,5.29129e-05,-999.0,5,50,-999.0,-999.0,-999,-999,0,Y,Y
47,29,Lytle Creek,1970,912,1430,Lake Hughes #1,320,24271,5.33,325.0,48.0,59,3,1.3,256.36,67.45,163.23,34.2698,-117.54,8.0,0,5.627,4.5,3.8,17.2,-999.0,93.22,93.56,90.25,-999.0,93.09,90.42,-38.59,nu,-25.31,0.5,0.84,36.89,-999,S,C,425.34,1,0.3,CDMG,34.674,-118.43,1,GROUND LEVEL,3.0,-999,1a,40.0,-999.0,240.0,-999.0,-999.0,-999.0,-999.0,LYTLECR\L01021.AT2,LYTLECR\L01291.AT2,LYTLECR\L01DWN.AT2,21,291,A,-999,PEA,A,1,2.5,0.8,0.3,10.0,20.0,1.25,1.0,0.375,1.0,0.0092627,0.64732,0.087345,0.00926928,0.009313568,0.009656656,0.01010574,0.01200808,0.0120513,0.01534752,0.02124881,0.03048148,0.02548847,0.02494535,0.02508912,0.01330568,0.005017526,0.003156478,0.002034915,0.000665706,0.000358337,0.000221986,0.000131439,7.16511e-05,3.88866e-05,-999.0,5,50,-999.0,-999.0,-999,-999,0,Y,Y
48,29,Lytle Creek,1970,912,1430,Puddingstone Dam (Abutment),87,278,5.33,325.0,48.0,59,3,1.3,256.36,67.45,163.23,34.2698,-117.54,8.0,0,5.627,4.5,3.8,17.2,-999.0,31.69,32.69,29.49,-999.0,31.62,30.02,-29.49,fw,-90.0,0.46,0.84,33.8,-999,S,C,421.44,2a_3a_4b_4c,0.33,CDMG,34.091,-117.808,0,LEFT (WEST) ABUTMENT,0.5,-999,-999,60.0,-999.0,320.0,320.0,-999.0,320.0,-999.0,LYTLECR\PUD055.AT2,LYTLECR\PUD325.AT2,LYTLECR\PUDDWN.AT2,55,325,A,-999,PEA,A,1,2.5,0.4,0.23,20.0,20.0,1.25,0.5,0.2875,0.5,0.018325,0.86331,0.15763,0.01842714,0.01865046,0.01972362,0.02029212,0.02963285,0.04795029,0.04791679,0.03860891,0.03526016,0.03345191,0.02647109,0.0234047,0.0211236,0.01140884,0.005800653,0.003478424,0.001500627,0.000583264,0.000368041,0.00026118,0.000143103,7.42284e-05,-999.0,5,50,-999.0,-999.0,-999,-999,0,Y,Y
